1	longitude	latitude	housename	housenumber	street	city	postcode	name	name_cy	is_in	place	alt_name	open_hours	phone	shop	url
2	-4.6604224	52.0839973						Aberteifi	Aberteifi		town					
3	-4.6520018	52.1150115						Y Ferwig	Y Ferwig	"Ceredigion, Wales, UK"	hamlet	Ferwig				
4	-4.6803483	52.0818715						St Dogmaels	Llandudoch	"Ceredigion, Wales, UK"	village					
5	-4.7461965	52.0675491						Moylgrove	Trewyddel	"Ceredigion, Wales, UK"	village					
6	-4.7215571	52.0614363						Monington	Eglwys Wythwr	"Pembrokeshire,Wales,UK"	village					
7	-4.6531981	52.0875599						Rigby Ground								
8	-4.6843915	52.1158303						Gwbert		"Ceredigion, Wales, UK"	village					
9	-4.6562347	52.0865631						Cardigan Cenotaph								https://www.wwwmp.co.uk/ceredigion-memorials/cardigan-ww2-war-memorial/
10	-4.6532258	52.0876143						Rugby Ground				Opposite RC Church				
11	-4.6584179	52.085641												+44 1239 612139		
12	-4.6559832	52.0866063												+44 1239 612669		
13	-4.714425	52.1077014						Penrhyn Mawr Holiday Flats								
14	-4.6613617	52.0819184						Safle Bws Grosvenor Hill (bus stop)	Safle Bws Grosvenor Hill							
15	-4.6516906	52.0723351						Otter Hide								
16	-4.6577828	52.0804494	Dyfed Stores		Station Road	Cardigan / Aberteifi	SA43 3AD	Station Road Cafe								https://www.facebook.com/Station-Road-Cafe-2146764655613154/
17	-4.6576004	52.0805087	Dyfed Stores		Heol y Gorsaf / Station Road	Cardigan / Aberteifi	SA43 3AD	Cardigan Kitchens & Tiles	Aberteifi Cegin & Teil					+44 1239 615353	kitchen	
18	-4.6921484	52.1311341						Cardigan Island								
19	-4.666457	52.1174403						Towyn Warren								
20	-4.6900819	52.0909322						Bryn Albro								
21	-4.675246	52.1129822						Pen-Goleu								
22	-4.6777008	52.0747264						Parc-Y-Pratt								
23	-4.6685384	52.09697						Pen Trebared								
24	-4.7281478	52.1032574						Pen Garn								
25	-4.71092	52.1018636						Y Foel								
26	-4.7135995	52.0769288						Pantsaeson Hill								
27	-4.6574827	52.0830305						Stand B	Safle B							
28	-4.6572171	52.0830288						Stand D	Safle D							
29	-4.6574114	52.083159						Stand A	Safle A							
30	-4.6574599	52.0831602						Stand A	Safle A							
31	-4.6574453	52.082985						Stand C	Safle C							
32	-4.6573538	52.0831583						Stand A	Safle A							
33	-4.6609737	52.0810106						Dwrgi Aberteifi	Dwrgi Aberteifi							
34	-4.6615985	52.0810737						Englyn Ceri Wyn	Englyn Ceri Wyn							
35	-4.6609342	52.083706			High Street	Cardigan / Aberteifi		Russian Cannon								https://www.ceredigion.gov.uk/utilities/action/act_download.cfm?mediaid=43496&langtoken=eng
36	-4.6610887	52.0839154						Time Capsule								https://www.ceredigion.gov.uk/utilities/action/act_download.cfm?mediaid=38221&langtoken=eng
37	-4.6607737	52.0840391						tŷ hafan						+44 1239 621825	charity	
38	-4.661043	52.0840608	Canolfan Teifi & Shopping Arcade	2	Pendre	Cardigan / Aberteifi	SA43 1JL									
39	-4.660573	52.0843638	Adelphi Buildings	6	Pendre	Cardigan / Aberteifi	SA43 1JL	Dreams Dance School						+44 7581 186634		
40	-4.6578379	52.0829712		5	Finch's Square	Cardigan / Aberteifi	SA43 1BS	Finch Square Cafe							newsagent	
41	-4.6575084	52.0831618						Stand A	Safle A							
42	-4.694077	52.0650596														https://en.wikipedia.org/wiki/Cardigan_transmitting_station
43	-4.6783433	52.0752543														https://ukfree.tv/transmitters/tv/St_Dogmaels
44	-4.6548741	52.0868183		91	North Road	Cardigan / Aberteifi	SA43 1LT	Calon Salon Teifi						+44 1239 758053	hairdresser	https://www.facebook.com/hairandbeautywithsam/
45	-4.6577167	52.08304						Stand E	Safle E							
46	-4.6520758	52.090252						Maesglas Shop								
47	-4.6543747	52.0911261						Maesglas/Cnwc y Dintir								
48	-4.6577012	52.0830469						Stand E	Safle E							
49	-4.6585941	52.083166	Council Offices		Morgan Street	Cardigan / Aberteifi	SA43 1DG	Cardigan Library	Llyfrgell Aberteifi					+44 1545 574110		http://libraries.ceredigion.gov.uk
50	-4.6621069	52.0818424						Cardigan Food Bank						+44 1239 615864		http://newlifewales.org.uk/ministries/cardigan-foodbank/
51	-4.6525708	52.0859859						Bro Teifi								
52	-4.660563	52.0842395						Ship Inn (Guild Hall)								
53	-4.6581603	52.0857869						Arwyn Jones								
54	-4.6611592	52.0810578						Chain Links								
55	-4.6868555	52.1041545						A Bay To Remember								
56	-4.6818184	52.0892151						Glanfa Glanteifon Slipway	Glanfa Glanteifon							
57	-4.6815161	52.0890775						A Bay To Remember								
58	-4.6988417	52.105563						A Bay To Remember								
59	-4.6610852	52.0828862		29A	High Street	Cardigan / Aberteifi	SA43 1JG	His & Hers						+44 1239 613102		
60	-4.6609465	52.0832798						Oriel Gallery						+44 1239 621370	art	http://www.awenteifi.com/english/oriel.htm
61	-4.6604614	52.0825005						Mirror Image								
62	-4.6593257	52.0854861		"3, Heathfield"	Pendre	Cardigan / Aberteifi	SA43 1JT	Principality								
63	-4.659544	52.0853427		23	Pendre	Cardigan / Aberteifi	SA43 1JT							+44 1239 612400	chemist	
64	-4.6596344	52.0854042		23	Pendre	Cardigan / Aberteifi	SA43 1JT	Caerleon Pharmacy	Fferyllfa Caerleon					+44 1239 612400		
65	-4.6596151	52.0853008	Cwrt Y Grug	22	Pendre	Cardigan / Aberteifi	SA43 1JT	Thorntons						+44 1239 614888	chocolate	
66	-4.6601742	52.0815924						Eisteddfod Chair								
67	-4.6612549	52.0813568						Eisteddfod Memorial Plaque								
68	-4.6604082	52.0813988						Whalebone arch								
69	-4.6611362	52.0821056		37	High Street	Cardigan / Aberteifi	SA43 1HE	Oojufink						+44 1239 615215	hairdresser	
70	-4.6611449	52.0821547		37	High Street	Cardigan / Aberteifi	SA43 1HE	Cat Action Trust						+44 1994 205020	charity	http://www.catactiontrust.org.uk/index.php/our-branches/carmarthen-branch
71	-4.6605074	52.0811948						South-East Tower								
72	-4.6601908	52.0815967						East (Garderobe) Tower								
73	-4.6600919	52.0817814						North-East Bastion								
74	-4.6826805	52.0819592												+44 1239 612466		
75	-4.6792609	52.0805424						St Dogmael								
76	-4.6584185	52.0832085						Council Offices	Swyddfa Sir							
77	-4.6587038	52.0855934						Jobcentre	Canolfanbyd							
78	-4.6582978	52.0858576						Coleg Ceredigion								
79	-4.6522196	52.0878518						Aldi								
80	-4.6529122	52.0875966						Roman Catholic Church	Swyddfa Sir							
81	-4.6599479	52.0813728						Strand								
82	-4.6511279	52.0871758						Aldi (Rear)								
83	-4.6564589	52.0796096		5		Cardigan / Aberteifi	SA43 3AG	L D Furniture						+44 1239 758239	furniture	
84	-4.6563672	52.0797208		5		Cardigan / Aberteifi	SA43 3AG	The Salon						+44 1239 758239	hairdresser	https://www.facebook.com/The-Salon-cardigan-446193545470806/
85	-4.6640599	52.0664248													laundry	
86	-4.6557155	52.078312		4		Cardigan / Aberteifi	SA43 3AL	Middleton Kitchens and Bathrooms						+44 1239 613413	kitchen;bathroom_furnishing	
87	-4.655525	52.0783417		4		Cardigan / Aberteifi	SA43 3AL	Garador Garage Doors						+44 1239 613413	hardware	http://www.lbsbm.co.uk/pdfs/garador-leaflet.pdf
88	-4.6819879	52.0888062						The Mermaid of St Dogmaels								
89	-4.6821569	52.0881535						Argo Villa								
90	-4.6807263	52.1275442						Gwebert animal farm and seals								
91	-4.7174153	52.0975685						Bryn Garazim Chapel								
92	-4.65732	52.084769						Cardigan CP School / Ashleigh Surgery								
93	-4.6820465	52.0887545						The Moorings	Glanteifion							
94	-4.6981353	52.1039402						Poppit Sands	Traeth Poppit							
95	-4.6600524	52.0908341						Maesydderwen								
96	-4.6547963	52.0879121						Cardigan Secondary School (side gate)								
97	-4.6551193	52.0872702						Cardigan Secondary School (main gate)								
98	-4.7611296	52.0786589						Ceibwr Bay								
99	-4.6573274	52.0768214						The Ridgeway								
100	-4.6571354	52.0769208						The Ridgeway								
101	-4.6562411	52.0795707		5		Cardigan / Aberteifi	SA43 3AG	Dolls House Shop						+44 7875 801403	toys	https://www.facebook.com/dollshousecardigan/?fref=gc&dti=572973822805527&hc_location=ufi
102	-4.6569019	52.0774904												+44 1239 612621		
103	-4.6610933	52.0840891	Canolfan Teifi & Shopping Arcade	2	Pendre	Cardigan / Aberteifi	SA43 1JL	Age Cymru Ceredigion						+44 1239 615777		https://www.ageuk.org.uk/cymru/ceredigion/
104	-4.6611147	52.0840478	Canolfan Teifi & Shopping Arcade	2	Pendre	Cardigan / Aberteifi	SA43 1JL									
105	-4.6581684	52.1342216						Pen yr Hwbyn								
106	-4.6515023	52.1337576						Ogof Filast				Ogof Filiast				
107	-4.6908795	52.1321116						Cardigan Island / Ynys Aberteifi	Ynys Aberteifi		islet					https://www.welshwildlife.org/nature-reserve/cardigan-island-gwbert-ceredigion/
108	-4.669355	52.0695489						Fishguard Road								
109	-4.6577903	52.0831516						Finch's Square								
110	-4.6585234	52.0800349						Station Road	Heol y Gorsaf							
111	-4.661295	52.0837628						College Row	Rhes Coleg							
112	-4.6591884	52.0826892						Morgan Street	Stryd Morgan							
113	-4.6598104	52.0835561						Stryd y Priordy	Stryd y Priordy							
114	-4.6607884	52.0810201						Bridge Street								
115	-4.6606164	52.0803523						Cardigan Bridge								
116	-4.6581182	52.0854791						Napier Street	Heol Napier							
117	-4.6497729	52.0876904						Maes-Henffordd								
118	-4.6544788	52.0816254						Pont y Priordy / Priory Bridge	Pont y Priordy							
119	-4.6781439	52.0814412						St. Dogmaels Street								
120	-4.6576151	52.0816182						Afon Teifi	Afon Teifi							
121	-4.6549116	52.0883581						Gwbert Road								
122	-4.6451429	52.0969681						Afon Mwldan								
123	-4.635388	51.9800824						Whitland & Cardigan Railway				Cardi Bach				
124	-4.6607236	52.0993231						Ystâd-y-Gotrel								
125	-4.6613673	52.0995011						Ystâd-y-Gotrel								
126	-4.6525845	52.1039962						Verwig Road	Heol y Ferwig							
127	-4.6552929	52.0870407						Victoria Gardens								
128	-4.66219	52.081907						Stryd y Cei	Stryd y Cei							
129	-4.6563567	52.0864647						North Road	Heol y Gogledd							
130	-4.6527205	52.0880791						Greenland Meadows								
131	-4.6557141	52.0908874						Cnwc y Dintir								
132	-4.6538793	52.0899605						Park Avenue								
133	-4.6816935	52.0829307						Maeshyfryd								
134	-4.6809992	52.0829101						Feidr Fach								
135	-4.681366	52.0814545						Church Lane								
136	-4.6781669	52.0808857						David Street	Heol Dewi							
137	-4.6790285	52.080197						Shingrig								
138	-4.6839647	52.0818572						Allt Fach								
139	-4.6578193	52.0766781						The Ridgeway								
140	-4.6581121	52.0766896						The Ridgeway								
141	-4.6510393	52.0869228						Bryn Hafod								
142	-4.6611227	52.0864176						Bath House Road								
143	-4.6603838	52.086287						Llys Owen								
144	-4.6616894	52.0822245						Lôn Farchnad / Market Lane	Lôn Farchnad							
145	-4.6568867	52.079398						Pentood Industrial Estate								
146	-4.6523854	52.085856						Bro Teifi								
147	-4.6521722	52.084999						Heol Hafod								
148	-4.660525	52.08239						St. Mary Street	Stryd y Santes Fair							
149	-4.657772	52.081238						Riverside Walk								
150	-4.6587033	52.0820397						Strand								
151	-4.6631335	52.0822617			Lower Mwldan		SA43 1HA								vacant	
152	-4.6611371	52.084534						Upper Mwldan	Mwldan Uchaf							
153	-4.6574164	52.0825318						Church Street								
154	-4.6553302	52.0827633						Cardigan Hospital	Ysbyty Aberteifi							
155	-4.6615269	52.0844394						Greenfield Square Car Park								
156	-4.662975	52.0828905						Afon Mwldan								
157	-4.6576745	52.0822807						Gloster Row								
158	-4.6605259	52.0853353						Afon Mwldan								
159	-4.6591964	52.0845887		30	Feidrfair	Cardigan	SA43 1EB	Cardigan Health Centre	Ganolfan Iechyd Aberteifi					+44 1239 612021		http://www.wales.nhs.uk/sites3/home.cfm?orgid=583
160	-4.6585419	52.0855772	Crown Buildings		Napier Street	Cardigan / Aberteifi	SA43 1EF	Jobcentreplus						0845 604 3719		
161	-4.6576911	52.0846776			Napier Street		SA43 1ED	Citizens Advice Bureau						+44 1239 621974		
162	-4.657649	52.0841035			Williams Terrace	Cardigan / Aberteifi	SA43 1EJ	Fairfield Car Park								
163	-4.659394	52.084153						William Street	Stryd Wiliam							
164	-4.6597438	52.0837617						Williams Row	Rhes Gwilym							
165	-4.6546976	52.0807083						Riverside walk								
166	-4.6575951	52.075923						The Ridgeway								
167	-4.6575439	52.0766905						The Ridgeway								
168	-4.6772008	52.0856641						Old Castle Road								
169	-4.6630326	52.0844426						Greenfield Row								
170	-4.6625031	52.0853217						Bron-y-Dre								
171	-4.659556	52.0784041						Golwg-y-Castell								
172	-4.6598929	52.0787415						Golwg-y-Castell								
173	-4.6589988	52.0777009						Golwg-y-Castell								
174	-4.6732819	52.074947						Bryngwyn								
175	-4.6732819	52.074947						Bryngwyn								
176	-4.6769711	52.0781789						Awel-yr-Mor								
177	-4.6769711	52.0781789						Awel-y-Mor								
178	-4.6820983	52.0795408						Ffordd y Cwm								
179	-4.6726796	52.0752379						Longdown Street								
180	-4.6912365	52.0838641						Pen-y-Rhiw								
181	-4.6592225	52.0825259						St. Mary Street								
182	-4.6595766	52.0857831						Bingham Lane								
183	-4.659713	52.082417						St. Mary Street								
184	-4.6613106	52.0849162						Greenfield Square								
185	-4.6568034	52.0853662						Napier Gardens								
186	-4.652077	52.0868704						Rhos-y-Dre								
187	-4.6593079	52.0829778						Pwllhai								
188	-4.654626	52.0859882						Maes-yr-Haf								
189	-4.6606057	52.0830165						Chancery Lane	Lôn Siawnsri							
190	-4.6616681	52.0828565						Ebens Lane	Lôn Ebens							
191	-4.660201	52.081278						Strand								
192	-4.6584848	52.0823703						St. Mary Street	Stryd y Santes Fair							
193	-4.659664	52.082139						Carrier's Lane								
194	-4.665471	52.0862378						Old Castle Road								
195	-4.6830514	52.0816448						High Street								
196	-4.6827373	52.0819126						Feidr Fawr								
197	-4.6795465	52.082144						High Street Car Park								
198	-4.6918545	52.0741015						Cwm Degwell								
199	-4.6832703	52.0812869						Baptist Street								
200	-4.683128	52.0851939						Pilot Street								
201	-4.6767055	52.0801272						Maesmynach								
202	-4.6827358	52.0864188						River Hill				River Hill Cottages				
203	-4.6789563	52.0812431						Mill Street								
204	-4.6767055	52.0801272						Maesmynach								
205	-4.6823538	52.0836401						Maes Hyfryd								
206	-4.6802962	52.0818192						High Street								
207	-4.6794885	52.1039067						Coronation Drive								
208	-4.6834908	52.0832825						Parc Noi								
209	-4.6834908	52.0832825						Parc Noi								
210	-4.6840175	52.0894872						Nant y Berllan				Glanteifion				
211	-4.6835586	52.0889737						The Moorings								
212	-4.679278	52.0816886						Finch Street								
213	-4.6839768	52.0807235						Tan-y-Rhiw								
214	-4.6829918	52.0885739						The Moorings								
215	-4.6512665	52.0932406						Melin-y-Coed								
216	-4.6557574	52.0916564						Maesycoed								
217	-4.652775	52.0915571						Maesglas								
218	-4.6607347	52.0919236						Maesydderwen								
219	-4.6532896	52.090735						Maesglas								
220	-4.650813	52.0927484						Maes Y Felin								
221	-4.6501657	52.0900869						Y-Rhos								
222	-4.6598133	52.0909881						Melin y Dre								
223	-4.6561651	52.0917817						Maesycoed								
224	-4.6529091	52.092213						Grove Park								
225	-4.6600926	52.0917613						Maes Y-Dderwen								
226	-4.6523623	52.0888321						Maesglas								
227	-4.6589491	52.0913945						Melin-Y-Dre								
228	-4.661272	52.091685						Maesydderwen								
229	-4.6576883	52.0914133						Clos Llyn Y Felin								
230	-4.6559912	52.091898						Maesycoed								
231	-4.6612743	52.081909						High Street	Stryd Fawr							
232	-4.657939	52.084293						Williams Terrace	Heol Napier							
233	-4.6625022	52.0830285						Middle Mwldan								
234	-4.662818	52.082151						Lower Mwldan								
235	-4.6677472	52.0813606										Brynonnen				
236	-4.6578385	52.1151239						Clos y Gwyddil								
237	-4.6965771	52.1043485						Poppit Sands								
238	-4.6765394	52.1132798						Clwb Golff Aberteifi / Cardigan Golf Club	Clwb Golff Aberteifi							
239	-4.6606667	52.0798528						Castle Street								
240	-4.6815217	52.0819197						High Street								
241	-4.6785035	52.0795968						David Street	Heol Dewi							
242	-4.6798059	52.0813729						Church Street								
243	-4.6611238	52.0811269						Bridge Street	Heol y Bont							
244	-4.6783841	52.0799459						David Street	Heol Dewi							
245	-4.6768617	52.0797209						Mwtshwr								
246	-4.6741538	52.101815						Gwbert Road								
247	-4.6860505	52.1158665						Coronation Drive								
248	-4.6846911	52.1132303						Coronation Drive								
249	-4.6690971	52.0864621						Old Castle Road								
250	-4.6734507	52.0864833						Old Castle Road								
251	-4.6651496	52.0827535						Netpool Road								
252	-4.6605838	52.0802333						Castle Street	Heol y Castell							
253	-4.6989788	52.1040225						Poppit Sands Car Park								
254	-4.6603149	52.0799495						Castle Street								
255	-4.6561472	52.0827744						Santes Fair / St Mary's	Eglwys y Santes Fair							
256	-4.6643372	52.0821578						Quay Street Car Park								
257	-4.6587863	52.0847838						Feidrfair								
258	-4.6607163	52.0839181						Pendre								
259	-4.658271	52.083217						Priory Street								
260	-4.6837297	52.1169007						Riversmouth								
261	-4.6854191	52.1164576						Tradewinds								
262	-4.6829257	52.0872413						Union Terrace								
263	-4.6831907	52.0867038						Pentre Langwm								
264	-4.6995722	52.1047625						Cardigan Lifeboat Station								
265	-4.6999236	52.1043664				Poppit Sands	SA43 3LN	Poppit Sands Beach Cafe & Shop						+44 1239 623530		
266	-4.6607382	52.0863965						Bathhouse Car Park								
267	-4.661112	52.086333						Bath House Road								
268	-4.6588397	52.0874122						Council Yard								
269	-4.6607502	52.0828191						Black Lion Mews								
270	-4.7020267	52.0997629						Cardigan Bay Holiday Park								
271	-4.6829021	52.0859139						Capel Degwel								
272	-4.6575449	52.0831272						Finch's Square								
273	-4.6700379	52.0599783						Ffos Colic								
274	-4.6619314	52.0605514						Afon Piliau								
275	-4.6511688	52.0732355						Afon Piliau								
276	-4.6529945	52.1164804	Tan Y Fron			Y Ferwig	SA43 1PZ									
277	-4.6545422	52.1146187				Y Ferwig	SA43 1PX	St Pedrog								https://www.churchinwales.org.uk/structure/places/churches/?id=2961
278	-4.6528147	52.1150559				Y Ferwig	SA43 1PZ	Capel Siloam	Capel Siloam							https://www.coflein.gov.uk/en/site/7234/details/siloam-baptist-chapel-ferwig
279	-4.6557324	52.0841922			Stryd Napier		SA43 1EH	Cardigan Community Primary School	Ysgol Gynradd Gymunedol Aberteifi							
280	-4.656688	52.088751			Park Place	Cardigan / Aberteifi	SA43 1AN	Cardigan Leisure Centre	Canolfan Hamdden Teifi					+44 1239 621287		http://www.ceredigionactif.org.uk/cardigan.html
281	-4.6572456	52.0885596			Plas y Parc / Park Place	Cardigan / Aberteifi	SA43 1AD	Ysgol Aberteifi / Cardigan County Secondary School	Ysgol Aberteifi							
282	-4.6558021	52.0863925	North End Stores	63-65	North Road	Cardigan / Aberteifi	SA43 1LS	Spar						+44 1239 612551	convenience	https://www.spar.co.uk/store-locator/afb16714-spar-cardigan
283	-4.6517263	52.087554			Aberystwyth Road		SA43 1NA	ALDI							supermarket	https://www.aldi.co.uk/store/s-uk-E0583
284	-4.6652184	52.0839581						Maes Radley Sports Fields	Caeau Chwarae Maes Radley							
285	-4.6648801	52.0830417						Cardigan Cemetery								
286	-4.6609901	52.0890388						Bath-House Road								
287	-4.6624182	52.0870075						Bath-House Road								
288	-4.6607904	52.0857399						Bath House Road								
289	-4.6612601	52.0854753						Bath House Road								
290	-4.717653	52.0585807						Trefigin Quarry								
291	-4.6824006	52.0933985						Cormorant House								
292	-4.6824042	52.0933042						Grebe Cottage								
293	-4.6823944	52.0932172						Curlew Cottage								
294	-4.6822226	52.0932148						Glanteifi								
295	-4.6822713	52.0931504						The Mallards								
296	-4.6817577	52.0890619						The Moorings								
297	-4.7210349	52.1006864						Bryn Salem (Disused)								
298	-4.7324722	52.1100682						Old Coastguard Lookout								
299	-4.6806994	52.0810427			Church Street	St Dogmaels	SA43 3EB	St Thomas' Church								https://parish.churchinwales.org.uk/d871/churches-en/st-thomas-st-dogmaels_-en/https://parish.churchinwales.org.uk/d871/churches-en/st-thomas-st-dogmaels_-en/
300	-4.679121	52.0808079						Mill Pond								
301	-4.6794307	52.0805464	The Vicatage Stables		Shingrig	St Dogmaels	SA43 3DX									
302	-4.6803539	52.0805433						St Dogmaels Abbey								
303	-4.6861444	52.1165923						Gwbert Hotel								
304	-4.6877183	52.1182548	The Cliff Hotel		Coronation Drive	Gwbert	SA43 1PP	The Cliff Hotel & Spa						+44 1239 613241		
305	-4.6862804	52.1299878						Wide Rock / Carreg Lydan	Carreg Lydan		islet					
306	-4.6610224	52.1332775									islet					
307	-4.6549445	52.0870289						Bandstand								
308	-4.7703443	52.0711304						Pwll y Wrach								
309	-4.6551699	52.0856311	Moorfield		Napier Gardens	Cardigan / Aberteifi	SA43 1EG									
310	-4.6564704	52.0856115	Inchcape House	5	Napier Gardens	Cardigan / Aberteifi	SA43 1EG									
311	-4.6555844	52.0858764	Redmayne	10	Napier Gardens	Cardigan / Aberteifi	SA43 1EG									
312	-4.655404	52.0855778	Moryan		Napier Gardens	Cardigan / Aberteifi	SA43 1EG									
313	-4.6562081	52.0856862	Bryn-yr-haul	6	Napier Gardens		SA43 1EG									
314	-4.6559372	52.0854287	Llys Helig		Napier Gardens	Cardigan / Aberteifi	SA43 1EG									
315	-4.6553026	52.085961	Karenza	12	Napier Gardens	Cardigan / Aberteifi	SA43 1EG									
316	-4.6561885	52.0853612	Trecennydd		Napier Gardens	Cardigan / Aberteifi	SA43 1EG									
317	-4.6548202	52.0854364	Y Wenallt		Napier Gardens	Cardigan / Aberteifi	SA43 1EG									
318	-4.6564475	52.0852934	Cefn Coed		Napier Gardens	Cardigan / Aberteifi	SA43 1EG									
319	-4.6560155	52.0857519	Westwood	7	Napier Gardens	Cardigan / Aberteifi	SA43 1EG									
320	-4.6556237	52.0855122	Craigsilian		Napier Gardens	Cardigan / Aberteifi	SA43 1EG									
321	-4.6558409	52.085833	Coedllannau	8	Napier Gardens	Cardigan / Aberteifi	SA43 1EG									
322	-4.6527177	52.087322			North Road / Heol y Gogledd	Cardigan / Aberteifi	SA43 1LT	Mair o Aberteifi / Our Lady of the Taper	Mair o Aberteifi							
323	-4.658434	52.08611						North Road								
324	-4.658392	52.0803801			Station Road	Cardigan / Aberteifi	SA43 3AD	Marchnad Anifeiliaid Aberteifi / Cardigan Cattle Market	Marchnad Anifeiliaid Aberteifi							
325	-4.6580058	52.0805229			Station Road	Cardigan / Aberteifi	SA43 3AD	JJ Morris Auctioneer						+44 1239 613228		http://www.jjmorris.com/agricultural.php
326	-4.6567183	52.0807576			Station Road	Cardigan / Aberteifi	SA43 3AD	JJ & PT Williams & Sons						+44 1239 612896		
327	-4.6565455	52.0808885						Station Yard	Iard y Gorsaf							
328	-4.6570835	52.0808702			Station Road	Cardigan / Aberteifi	SA43 3AD	JT's Garage Services						+44 1239 621139	car_repair	https://www.facebook.com/JtsGarageServices/https://www.facebook.com/JtsGarageServices/https://www.facebook.com/JtsGarageServices/
329	-4.6560848	52.081098			"Station Yard, Station Road"	Cardigan / Aberteifi	SA43 3AD	Brethyn Cartref								
330	-4.6555554	52.0810939			"Station Yard, Station Road"	Cardigan / Aberteifi	SA43 3AD	KE Movers				Ceredigion Removals		+44 800 5975757	storage_rental	
331	-4.6557666	52.0811105		"12, Station Yard"	Station Road	Cardigan / Aberteifi	SA43 3AD	KE Movers				Ceredigion Removals		+44 800 5975757		
332	-4.6587134	52.0798149	Arfryn Flat		Station Road	Cardigan / Aberteifi	SA43 3AD									
333	-4.6585881	52.0798765	O'r Diwedd		Station Road	Cardigan / Aberteifi	SA43 3AD									
334	-4.6584076	52.0799721	Brynafon		Station Road	Cardigan / Aberteifi	SA43 3AD									
335	-4.659575	52.0795222		12	Castle Street	Cardigan / Aberteifi	SA43 3AF	D J Jenkins								
336	-4.6592567	52.0791845	Awelfryn	19	Castle Street	Cardigan / Aberteifi	SA43 3AF									
337	-4.6599674	52.0795224		20	Castle Street	Cardigan / Aberteifi	SA43 3AB	Country WDC						+44 1239 841891		
338	-4.6549879	52.0810032						Iard y Gorsaf / Station Yard	Iard y Gorsaf							
339	-4.6611856	52.0838064	Menter Aberteifi			Cardigan / Aberteifi	SA43 1JL	Menter Aberteifi								
340	-4.660976	52.0838316	Cardigan Guildhall			Cardigan / Aberteifi	SA43 1JL	Cardigan Guildhall								
341	-4.6609073	52.0840047		1	Pendre	Cardigan / Aberteifi	SA43 1JR	Coffee #1						+44 1239 614134		https://www.coffee1.co.uk/locations/cardigan/
342	-4.6802183	52.0826524						St Dogmaels Football								
343	-4.6809656	52.0836027						Alexandra Gardens								
344	-4.679398	52.0808175						Abbey Parking								
345	-4.680202	52.0819954						St Dogmaels Car Park Toilets								
346	-4.6820099	52.0825208		25-26	Maeshyfryd	St Dogmaels	SA43 3ES	St Dogmaels Memorial Hall								
347	-4.68135	52.0828787						Ysgol Llandudoch School								
348	-4.7257954	52.1111476	Alltycoed			Poppit	SA43 3LP	Alltycoed						+44 1239612673		
349	-4.6551174	52.0833446						Pont-y-Cleifion								
350	-4.6575364	52.082843						Finch's Square								
351	-4.6575197	52.0827745						St Mary Street								
352	-4.6593256	52.0824229						St. Mary Street	Stryd y Santes Fair							
353	-4.710172	52.1063599	Sea View			Poppit	SA43 3LP	YHA Poppit Sands						+44 345 371 9037		
354	-4.6603729	52.0778351						Awel yr Afon								
355	-4.6576072	52.078013						Tenby Road								
356	-4.6573353	52.0854636						Pavilion Court								
357	-4.6608904	52.0857041						Afon Mwldan								
358	-4.6573309	52.0853735		1	Pavilion Court	Cardigan / Aberteifi	SA43 1BR									
359	-4.6571849	52.0853982		2	Pavilion Court	Cardigan / Aberteifi	SA43 1BR									
360	-4.6572412	52.0854623		3	Pavilion Court	Cardigan / Aberteifi	SA43 1BR									
361	-4.6572938	52.0855176		4	Pavilion Court	Cardigan / Aberteifi	SA43 1BR									
362	-4.6573436	52.0855745		5	Pavilion Court	Cardigan / Aberteifi	SA43 1BR									
363	-4.6573938	52.0856272		6	Pavilion Court	Cardigan / Aberteifi	SA43 1BR									
364	-4.6574513	52.0856778		7	Pavilion Court	Cardigan / Aberteifi	SA43 1BR									
365	-4.6575542	52.0856135		8	Pavilion Court	Cardigan / Aberteifi	SA43 1BR									
366	-4.6570543	52.0854688	Cranog	1	Napier Gardens	Cardigan / Aberteifi	SA43 1EG									
367	-4.6569567	52.085496	Ciliau	2	Napier Gardens	Cardigan / Aberteifi	SA43 1EG									
368	-4.6571457	52.0850573	Ashleigh		Napier Street	Cardigan / Aberteifi	SA43 1ED									
369	-4.656967	52.0849277			Napier Street	Cardigan / Aberteifi	SA43 1EH	Freemason's Lodge								
370	-4.6578185	52.0855281			Napier Street	Cardigan / Aberteifi	SA43 1ED	Teifi Furniture						+44 1239 614 446		
371	-4.6590449	52.0858845			Pendre	Cardigan / Aberteifi	SA43 1JU	Highbury Guest House						+44 1239 613 403		
372	-4.6592112	52.0858319			Pendre	Cardigan / Aberteifi	SA43 1JU	Llety Teifi						+44 1239 615 566		
373	-4.6583852	52.0854905	Crown Buildings		Napier Street	Cardigan / Aberteifi	SA43 1ED	Driving Test Centre								
374	-4.6568452	52.0855269	Llys-Teifi	3	Napier Gardens	Cardigan / Aberteifi	SA43 1EG									
375	-4.6567483	52.0855509	Glasdir	4	Napier Gardens	Cardigan / Aberteifi	SA43 1EG									
376	-4.655735	52.0858617	Cilfallen	9	Napier Gardens	Cardigan / Aberteifi	SA43 1EG									
377	-4.6554898	52.0859013	Ynysmeudwy	11	Napier Gardens	Cardigan / Aberteifi	SA43 1EG									
378	-4.6587062	52.0863806	Plantaganet Garage		North Road	Cardigan / Aberteifi	SA43 1BJ	Robin's Taxis						+44 1239 612 190		
379	-4.6613666	52.0839483				Cardigan / Aberteifi	SA43 1JL	Cardigan Guildhall Market								
380	-4.661387	52.0841349						Upper Mwldan Toilets								
381	-4.6578581	52.0853919		1	Napier Street	Cardigan / Aberteifi	SA43 1ED									
382	-4.6578239	52.0853643		2	Napier Street	Cardigan / Aberteifi	SA43 1ED									
383	-4.6577828	52.0853256		3	Napier Street	Cardigan / Aberteifi	SA43 1ED									
384	-4.6577469	52.0852782	Penrith	4	Napier Street	Cardigan / Aberteifi	SA43 1ED									
385	-4.657715	52.0852371	Holmwood	5	Napier Street	Cardigan / Aberteifi	SA43 1ED									
386	-4.6576865	52.0851994	Arwell	6	Napier Street	Cardigan / Aberteifi	SA43 1ED									
387	-4.6575699	52.0851842		7	Napier Gardens	Cardigan / Aberteifi	SA43 1ED									
388	-4.6551925	52.0862616		1	Maes-yr-Haf	Cardigan / Aberteifi	SA43 1EQ									
389	-4.6551225	52.0862034		2	Maes-yr-Haf	Cardigan / Aberteifi	SA43 1EQ									
390	-4.6550086	52.0861177		3	Maes-yr-Haf	Cardigan / Aberteifi	SA43 1EQ									
391	-4.6549339	52.0860614		4	Maes-yr-Haf	Cardigan / Aberteifi	SA43 1EQ									
392	-4.6575932	52.0847841	Maenayron		Napier Street	Cardigan / Aberteifi	SA43 1ED	Maenayron								
393	-4.6576497	52.0848341	Rosemont		Napier Street	Cardigan / Aberteifi	SA43 1ED									
394	-4.6578512	52.0849589	Delfryn		Napier Street	Cardigan / Aberteifi	SA43 1ED									
395	-4.6578982	52.0850063	Ennerdale		Napier Street	Cardigan / Aberteifi	SA43 1ED									
396	-4.6579357	52.0850576	Stretford		Napier Street	Cardigan / Aberteifi	SA43 1ED									
397	-4.6579817	52.085109	Bryngogarth		Napier Street	Cardigan / Aberteifi	SA43 1ED									
398	-4.6580371	52.0851631	Y Gorlan		Napier Street	Cardigan / Aberteifi	SA43 1ED									
399	-4.658125	52.0852438	Glasgoed		Napier Street	Cardigan / Aberteifi	SA43 1ED									
400	-4.6581711	52.0852906	Myrtle House		Napier Street	Cardigan / Aberteifi	SA43 1ED									
401	-4.658215	52.0853319	Brynhedydd		Napier Street	Cardigan / Aberteifi	SA43 1ED									
402	-4.6582585	52.0853665	Richmond		Napier Street	Cardigan / Aberteifi	SA43 1ED									
403	-4.6582821	52.085424	Woodville		Napier Street	Cardigan / Aberteifi	SA43 1ED									
404	-4.6598225	52.0860205						Bingham Lane								
405	-4.6598694	52.0857985			Bath House Road	Cardigan / Aberteifi	SA43 1JY	Small World Centre						+44 1239 615 952		
406	-4.6606122	52.083207			Chancery Lane	Cardigan		Chancery Lane Toilets								
407	-4.6610952	52.0839018						Guildhall Quadrangle			square					
408	-4.6540261	52.0870031	Bellglade	119	North Road	Cardigan / Aberteifi	SA43 1LT									
409	-4.6541115	52.0869753		117	North Road	Cardigan / Aberteifi	SA43 1LT									
410	-4.654343	52.0869206	Capenor	109	North Road	Cardigan / Aberteifi	SA43 1LT									
411	-4.6544004	52.0868918	Roxburgh	107	North Road	Cardigan / Aberteifi	SA43 1LT									
412	-4.6546207	52.0868375		99	North Road	Cardigan / Aberteifi	SA43 1LT									
413	-4.6546795	52.0868058		97	North Road	Cardigan / Aberteifi	SA43 1LT									
414	-4.6547476	52.0868044	Llwynnon	95	North Road	Cardigan / Aberteifi	SA43 1LT									
415	-4.6541844	52.0869682	Tegfan	115	North Road	Cardigan / Aberteifi	SA43 1LT									
416	-4.6542108	52.0869397		113	North Road	Cardigan / Aberteifi	SA43 1LT									
417	-4.6544401	52.0868631		105	North Road	Cardigan / Aberteifi	SA43 1LT									
418	-4.6544809	52.0868452	Sarnau House	103	North Road	Cardigan / Aberteifi	SA43 1LT									
419	-4.6545398	52.0868236	Tegfryn	101	North Road	Cardigan / Aberteifi	SA43 1LT									
420	-4.6610894	52.0847198						Greenfield Square								
421	-4.6610735	52.0841646		2	Pendre	Cardigan / Aberteifi	SA43 1JL	Canolfan Teifi & Shopping Arcade								
422	-4.6606863	52.0844814		7	Pendre	Cardigan / Aberteifi	SA43 1JL	Tabernacle Calvinistic Methodist								
423	-4.6606377	52.0843421	Adelphi Buildings	6	Pendre	Cardigan / Aberteifi	SA43 1JL	Yum Yum Sweets						+44 1239 621201	confectionery	
424	-4.6607396	52.0842865		5	Pendre	Cardigan / Aberteifi	SA43 1JL								vacant	
425	-4.6608101	52.0842099		4	Pendre	Cardigan / Aberteifi	SA43 1JL	The Bell Hotel						+44 1239 612629		
426	-4.6608134	52.0841421		3	Pendre	Cardigan / Aberteifi	SA43 1JL	Boots						+44 1239 621578	chemist	
427	-4.6604716	52.08452		7	Pendre	Cardigan / Aberteifi	SA43 1JL									
428	-4.6604379	52.0845621	Empire House	8	Pendre	Cardigan / Aberteifi	SA43 1JL	Tonnau						+44 1239 612838	water_sports	https://www.facebook.com/Tonnausurf/
429	-4.6603946	52.0845997		9	Pendre	Cardigan / Aberteifi	SA43 1JL	Mobile Phone Repair Shop							mobile_phone	https://www.phonerepairsuk.co.uk/phone-repair-in-cardigan/
430	-4.6586493	52.0859074	Belmont		Pendre	Cardigan / Aberteifi	SA43 1JU									
431	-4.658736	52.0858636	Gwynfryn		Pendre	Cardigan / Aberteifi	SA43 1JU									
432	-4.6587947	52.0858416	Pantycelyn		Pendre	Cardigan / Aberteifi	SA43 1JU									
433	-4.6593383	52.0857418	Bingham House		Pendre	Cardigan / Aberteifi	SA43 1JU	Taylor Lewis						+44 1239 621999		
434	-4.6603474	52.0846356		10	Pendre	Cardigan / Aberteifi	SA43 1JL	Get Connected						+44 1239 613313	mobile_phone	
435	-4.6603148	52.0846716		10a	Pendre	Cardigan / Aberteifi	SA43 1JL	Sugar Craft						+44 1239 613103	cake_decorations	
436	-4.6602735	52.0847193	Treflyn	11	Pendre	Cardigan / Aberteifi	SA43 1JL	The Crafter's Cwtch						+44 1239 595556	art	
437	-4.6602254	52.0847813		12	Pendre	Cardigan / Aberteifi	SA43 1JL	mundos						+44 1239 613486	gift	
438	-4.6601454	52.0848623		13-14	Pendre	Cardigan / Aberteifi	SA43 1JL	Food For Thought						+44 1239 621 863		
439	-4.6600827	52.0849356		15	Pendre	Cardigan / Aberteifi	SA43 1JL								vacant	
440	-4.6600884	52.0849953		16	Pendre	Cardigan / Aberteifi	SA43 1JL	Pendre Café						+44 1239 613193		
441	-4.6590413	52.0839792			William Street	Cardigan / Aberteifi	SA43 1EL	Bethania Baptist Chapel								
442	-4.6595325	52.0837528			Priory Street	Cardigan / Aberteifi	SA43 1BU	Mount Zion Baptist Church						+44 1239 612167		
443	-4.6581938	52.0840205			Feidrfair	Cardigan / Aberteifi	SA43 1DU									
444	-4.6612002	52.0828008						Black Lion Mews								
445	-4.6610806	52.0827901						Black Lion Mews								
446	-4.6600981	52.0851564						Bath House Road								
447	-4.6610399	52.0868782			Bath House Road	Cardigan / Aberteifi	SA43 1JY							+44 370 6060699		http://www.mawwfire.gov.uk/English/Area/Ceredigion-Command/Pages/Cardigan.aspx
448	-4.6543668	52.0874225			Gwbert Road	Cardigan / Aberteifi	SA43 1PH	Cardigan Bowling Club	Clwb Bowlio Aberteifi					+44 1239 615062		
449	-4.654205	52.0878019			Gwbert Road	Cardigan / Aberteifi	SA43 1PH	Indoor Bowls	Bowlio Dan Do					+44 1239 615062		
450	-4.6544319	52.0884755	Clubhouse Sports Pavilion		Gwbert Road	Cardigan / Aberteifi	SA43 1PH	Cardigan Rugby Football Club	Clwb Rygbi Aberteifi					+44 1239 612390		
451	-4.6568476	52.0840889	Cardigan Swimming Pool & Leisure Complex		Napier Street	Cardigan / Aberteifi	SA43 1EH	Cardigan Swimming Pool	Pwll Nofio Aberteifi					+44 1239 613632		
452	-4.6570934	52.0835202	British Telecom Telephone Exchange		Pont-y-Cleifion	Cardigan / Aberteifi	SA43 1DN	Telephone Exchange								
453	-4.6566819	52.0833089			Pont-y-Cleifion	Cardigan / Aberteifi	SA43 1DR	St Mary's Old School Hall	Neuadd Hen Ysgol Santes Fair							
454	-4.6561702	52.0835209			Pont-y-Cleifion	Cardigan / Aberteifi	SA43 1DW	Cardigan Ambulance Station								
455	-4.656418	52.0837192						Ambulance Station Garages								
456	-4.6562267	52.0836598			Pont-y-Cleifion	Cardigan / Aberteifi										
457	-4.6578848	52.0829971		5-6	Finch's Square	Cardigan / Aberteifi	SA43 1BS	Finch Square Cafe	Sgwâr Caffi Finch					+44 1239 612835		
458	-4.6578906	52.0828837		4	Finch's Square	Cardigan / Aberteifi	SA43 1BS	Lamb Inn						+44 1239 613276		
459	-4.6574528	52.0830351			Finch's Square	Cardigan / Aberteifi		"Finch's Square, Cardigan"	"Aberteifi, Sgwâr Finch"							
460	-4.6572729	52.0827044	Cardigan Delivery Office		Finch's Square	Cardigan / Aberteifi	SA43 1BS	Royal Mail								
461	-4.6571849	52.0821525						Gloster Row Car Park								
462	-4.6577444	52.0828611		3	Finch's Square	Cardigan / Aberteifi	SA43 1BS									
463	-4.657693	52.0828176		2	Finch's Square	Cardigan / Aberteifi	SA43 1BS	Ali's Tandoori						+44 1239 621069		
464	-4.6576271	52.0827702		1	Finch's Square	Cardigan / Aberteifi	SA43 1BS	Romino's Pizza						+44 1239 614142		https://www.facebook.com/RominosPizzaKebab/
465	-4.6523597	52.0834393	Maes-y-Deri		Pont-y-Cleifion	Cardigan	SA43 1DR									
466	-4.6579451	52.0917002						Afon Mwldan								
467	-4.6593933	52.0902701						Afon Mwldan								
468	-4.6573831	52.0920812						Afon Mwldan								
469	-4.6654857	52.0823333			Quay Street	Cardigan	SA43 1HR	Shampan Indian Restaurant						+44 1239 621444		
470	-4.6572823	52.0827236						Royal Mail								
471	-4.6607212	52.0874252						Upper Bathhouse Car Park								
472	-4.6516921	52.0864782			Rhos-y-Dre	Cardigan / Aberteifi	SA43 1BT	Yr Hafod						+44 1239 612651		https://www.ceredigion.gov.uk/index.cfm?articleid=3547
473	-4.6540568	52.0859443						Maes-yr-Haf								
474	-4.66112	52.0827157			High Street	Cardigan / Aberteifi	SA43 1HJ	Black Lion Hotel						+44 1239 612532		https://en-gb.facebook.com/TheBlackLionHotel/
475	-4.6606429	52.0827821		1	Black Lion Mews	Cardigan / Aberteifi	SA43 1HJ	Tigers Eye						+44 1239 615498	gift	https://www.facebook.com/tigerseyecardigan/
476	-4.6607069	52.0827131		4-5	Black Lion Mews	Cardigan / Aberteifi	SA43 1HJ	Go Mango Wholefoods						+44 1239 614727	spices	https://www.facebook.com/GoMangoWholefoods/
477	-4.6603577	52.0829555						Chancery Lane Car Park								
478	-4.6620228	52.083986						Afon Mwldan								
479	-4.6605703	52.0833318		2	High Street	Cardigan / Aberteifi	SA43 1JQ	The Original Factory Shop						+44 1239 623883	variety_store	https://www.tofs.com/storelocator/store/index/id/33/
480	-4.6597382	52.0863142			Bath House Road	Cardigan / Aberteifi	SA43 1JY	Llysowen						+44 1239 621790		http://www.housingcare.org/housing-care/facility-info-85334-llys-owen-cardigan-wales.aspx
481	-4.6597825	52.0880473			Bath-House Road	Cardigan / Aberteifi	SA43 1JZ	Maes Mwldan						+44 1239 621800		http://www.fha-wales.com/looking-for-a-home/rent-a-home/extra-care/maes-mwldan/
482	-4.6587072	52.0854769	Rhosydre	27	North Road	Cardigan / Aberteifi	SA43 1LA									
483	-4.6587887	52.0854457	Llys-Peris	28	North Road	Cardigan / Aberteifi	SA43 1LA									
484	-4.6589369	52.0854102		29-30	Pendre	Cardigan / Aberteifi	SA43 1LA	New Image Bicycles						+44 1239 621275	bicycle	
485	-4.6588406	52.0855933						Pendre								
486	-4.6605045	52.0858636			Bath House Road	Cardigan / Aberteifi	SA43 1JY	Theatr Mwldan						+44 1239 621200		
487	-4.659754	52.0848294		42	Pendre	Cardigan / Aberteifi	SA43 1JS	West Wales Dog Charity						+44 1239 615908	charity	
488	-4.6598114	52.0847628		43	Pendre	Cardigan / Aberteifi	SA43 1JS	Greggs						+44 1239 615355		
489	-4.6599071	52.084733		44	Pendre	Cardigan / Aberteifi	SA43 1JS	Sacco's							wallpaper	
490	-4.6599488	52.084704		45	Pendre	Cardigan / Aberteifi	SA43 1JS	Personalize That						+44 1239 615638	trophy	https://www.facebook.com/Personalize-that-1119716248048973/
491	-4.6602308	52.0843809		51	Pendre	Cardigan / Aberteifi	SA43 1JS	The Hope & Anchor								https://www.facebook.com/hopeandanchorcardigan/?rf=102131443183710
492	-4.6599498	52.0843547						The Hope & Anchor								
493	-4.6601851	52.0844519		50	Pendre	Cardigan / Aberteifi	SA43 1JS	Commercial Bar & Grill								
494	-4.6603057	52.0843037		52	Pendre	Cardigan / Aberteifi	SA43 1JS	Llinos Hair & Beauty	Gwallt A Harddu Llinos						hairdresser	https://www.facebook.com/Llinos-Hair-Care-231023607056233/
495	-4.6600013	52.0844804		49	Pendre	Cardigan / Aberteifi	SA43 1JS	Happy City Chinese Restaurant						+44 1239 612273		
496	-4.6584861	52.0859329	Charlton House	2	North Road	Cardigan / Aberteifi	SA43 1AA									
497	-4.658433	52.0859494		4	North Road	Cardigan / Aberteifi	SA43 1AA									
498	-4.6593947	52.0860291	Stanley House Lodge		Pendre	Cardigan / Aberteifi	SA43 1JU									
499	-4.6589186	52.0861717	Stable Cottage	6	Pendre	Cardigan / Aberteifi	SA43 1JU									
500	-4.6606442	52.0851853						Afon Mwldan								
501	-4.6710874	52.0838897						Cardigan Sewage Works								
502	-4.6645335	52.0845939						Changing room								
503	-4.6644898	52.0845021						Changing room								
504	-4.6636969	52.0840651						Cardigan Skateboard Park								
505	-4.6549067	52.094892	Tregibby		Gwbert Road	Cardigan	SA43 1PH									
506	-4.6940542	52.0667686	Penawaun				SA43 3NR									
507	-4.6991057	52.0641064	Hafod y Bryn													
508	-4.6547944	52.0867809	Gwynlys	93	North Road	Cardigan / Aberteifi	SA43 1LT									
509	-4.6548472	52.0867751		91	North Road	Cardigan / Aberteifi	SA43 1LT									
510	-4.6549066	52.0867504		89	North Road	Cardigan / Aberteifi	SA43 1LT									
511	-4.6549559	52.0867308	Kenfield	87	North Road	Cardigan / Aberteifi	SA43 1LT									
512	-4.6550102	52.0867059		85	North Road	Cardigan / Aberteifi	SA43 1LT									
513	-4.6550624	52.0866943		83	North Road	Cardigan / Aberteifi	SA43 1LT									
514	-4.6551121	52.0866776		81	North Road	Cardigan / Aberteifi	SA43 1LT									
515	-4.6551376	52.0866351		79	North Road	Cardigan / Aberteifi	SA43 1LT									
516	-4.6552009	52.0865969		77	North Road	Cardigan / Aberteifi	SA43 1LT									
517	-4.6552484	52.0865535	Appleby House	75	North Road	Cardigan / Aberteifi	SA43 1LT									
518	-4.6553144	52.0865424	Wiston	73	North Road	Cardigan / Aberteifi	SA43 1LT									
519	-4.6553896	52.0865307	Grange House	71	North Road	Cardigan / Aberteifi	SA43 1LT									
520	-4.6554594	52.0864958	Brynawel	69	North Road	Cardigan / Aberteifi	SA43 1LT									
521	-4.6518185	52.0903004		91	Maesglas	Cardigan / Aberteifi	SA43 1BQ	Cardigan Toy Library						+44 1239 613933		http://fis.ceredigion.gov.uk/hom/child-development/toy-library/
522	-4.6585901	52.0831415			Morgan Street	Cardigan / Aberteifi	SA43 1DG	Ceredigion Council Offices						+44 1545 574280		https://www.ceredigion.gov.uk/resident/contact/customer-service-centres-local-offices/
523	-4.6584052	52.0830754	Tivy Garage		Priory Street	Cardigan / Aberteifi	SA43 1BT	T.M. Daniel						+44 1239 612089	car_repair	
524	-4.6589728	52.0832431			Priory Street	Cardigan / Aberteifi	SA43 1BU	Crwst						+44 1239 613333		
525	-4.6520536	52.090346						Maesglas								
526	-4.6621347	52.081763	New Life Christian Centre		Quay Street	Cardigan / Aberteifi	SA43 1HU	New Life Church						+44 1239 621253		
527	-4.6632367	52.0818202	2 Royal Oak		Quay Street	Cardigan / Aberteifi	SA43 1HR	Abdul's Tandoori Spice						+44 1239 615371		
528	-4.6631392	52.0818612	1 Royal Oak		Quay Street	Cardigan / Aberteifi	SA43 1HR	Cardigan Mosque						+44 7463 394459		
529	-4.6577012	52.0830469						Finch's Square								
530	-4.657526	52.084922						Napier Street	Heol Napier							
531	-4.655382	52.0862878						Maes-yr-Haf								
532	-4.653237	52.0864732						Rhos-y-Dre								
533	-4.65309	52.084707						Bro Teifi								
534	-4.6511138	52.0856702						Heol Hafod								
535	-4.6545521	52.0851036	Penralltddu		Napier Street	Cardigan / Aberteifi										
536	-4.6606206	52.079993			Castle Street	Cardigan / Aberteifi	SA43 3AA	Fusion Bar and Restaurant								https://www.facebook.com/FusionCardigan/
537	-4.663946	52.0821064						Afon Mwldan								
538	-4.657344	52.0845082						Napier Street	Heol Napier							
539	-4.6575342	52.0846306	Caerhuan	8	Napier Street	Cardigan / Aberteifi	SA43 1ED									
540	-4.6576847	52.0845532	Homeleigh	9	Napier Street	Cardigan / Aberteifi	SA43 1ED									
541	-4.6595716	52.0848811						Private Car Park								
542	-4.6591809	52.0846145						Health Centre Car Park								
543	-4.6578583	52.0844419	Broaber	1	Williams Terrace	Cardigan / Aberteifi	SA43 1EJ									
544	-4.6579315	52.0844149		2	Williams Terrace	Cardigan / Aberteifi	SA43 1EJ									
545	-4.6580022	52.0843895		3	Williams Terrace	Cardigan / Aberteifi	SA43 1EJ									
546	-4.6580684	52.0843643		4	Williams Terrace	Cardigan / Aberteifi	SA43 1EJ									
547	-4.6581292	52.0843427		5	Williams Terrace	Cardigan / Aberteifi	SA43 1EJ									
548	-4.6582128	52.0843422	Dolau	6	Williams Terrace	Cardigan / Aberteifi	SA43 1EJ									
549	-4.6582831	52.0843183	Brodeifi	7	Williams Terrace	Cardigan / Aberteifi	SA43 1EJ									
550	-4.6583467	52.0842946		8	Williams Terrace	Cardigan / Aberteifi	SA43 1EJ									
551	-4.6582213	52.0856991	Clarington	1	North Road	Cardigan / Aberteifi	SA43 1LS									
552	-4.6581334	52.0857293		3	North Road	Cardigan / Aberteifi	SA43 1LS									
553	-4.6580536	52.0857554	North Gate House	5	North Road	Cardigan / Aberteifi	SA43 1LS									
554	-4.6579806	52.0857865	Kilhue	7	North Road	Cardigan / Aberteifi	SA43 1LS									
555	-4.6579089	52.0858144	Bryngwyn	9	North Road	Cardigan / Aberteifi	SA43 1LS									
556	-4.6578264	52.0858403	Mayola	11	North Road	Cardigan / Aberteifi	SA43 1LS									
557	-4.658255	52.0860145	Rosevale	8	North Road	Cardigan / Aberteifi	SA43 1AA									
558	-4.658195	52.0860386	Huenydd	10	North Road	Cardigan / Aberteifi	SA43 1AA									
559	-4.6581365	52.0860599		12	North Road	Cardigan / Aberteifi	SA43 1AA									
560	-4.6580664	52.0860839		14	North Road	Cardigan / Aberteifi	SA43 1AA									
561	-4.6556911	52.0865203		67	North Road	Cardigan / Aberteifi	SA43 1LS									
562	-4.6559549	52.0864301		61	North Road	Cardigan / Aberteifi	SA43 1LS									
563	-4.6560173	52.0863982		59	North Road	Cardigan / Aberteifi	SA43 1LS									
564	-4.6560984	52.0863785		57	North Road	Cardigan / Aberteifi	SA43 1LS									
565	-4.6561814	52.0863815		55	North Road	Cardigan / Aberteifi	SA43 1LS									
566	-4.6562516	52.0863626		53	North Road	Cardigan / Aberteifi	SA43 1LS									
567	-4.6563162	52.0863492		51	North Road	Cardigan / Aberteifi	SA43 1LS									
568	-4.6563664	52.0863056	Ty Rhos	49	North Road	Cardigan / Aberteifi	SA43 1LS									
569	-4.6562761	52.086186		49B	North Road	Cardigan / Aberteifi	SA43 1LS									
570	-4.6565117	52.0863193		47	North Road	Cardigan / Aberteifi	SA43 1LS									
571	-4.6564897	52.0862767		47A	North Road	Cardigan / Aberteifi	SA43 1LS									
572	-4.6564495	52.0862385		47B	North Road	Cardigan / Aberteifi	SA43 1LS									
573	-4.656406	52.0861833		47C	North Road	Cardigan / Aberteifi	SA43 1LS									
574	-4.656596	52.0862701		45	North Road	Cardigan / Aberteifi	SA43 1LS									
575	-4.6566739	52.0862535	Brynhaf	43	North Road	Cardigan / Aberteifi	SA43 1LS									
576	-4.6567456	52.0862277		41	North Road	Cardigan / Aberteifi	SA43 1LS									
577	-4.656811	52.0861969		39	North Road	Cardigan / Aberteifi	SA43 1LS									
578	-4.6568916	52.0861695	Woodlands	37	North Road	Cardigan / Aberteifi	SA43 1LS									
579	-4.6569488	52.0861243		35	North Road	Cardigan / Aberteifi	SA43 1LS	Cardi Laundrette						+44 7766 765556	laundry	
580	-4.6570672	52.0860954		33	North Road	Cardigan / Aberteifi	SA43 1LS								vacant	
581	-4.6571577	52.0860702		31	North Road	Cardigan / Aberteifi	SA43 1LS									
582	-4.6572161	52.0860254		29	North Road	Cardigan / Aberteifi	SA43 1LS	Glans Radio & TV						+44 1239 612484	electronics	
583	-4.6573128	52.0860322		27	North Road	Cardigan / Aberteifi	SA43 1LS									
584	-4.6574099	52.0860403		25	North Road	Cardigan / Aberteifi	SA43 1LS	Argraffwyr E L Jones						+44 1239 612251		
585	-4.6572853	52.0858946						Argraffwyr E L Jones								
586	-4.6574874	52.0859629		21	North Road	Cardigan / Aberteifi	SA43 1LS									
587	-4.6574506	52.0860013		23	North Road	Cardigan / Aberteifi	SA43 1LS									
588	-4.6575763	52.0859536		19	North Road	Cardigan / Aberteifi	SA43 1LS									
589	-4.657582	52.085887		17	North Road	Cardigan / Aberteifi	SA43 1LS									
590	-4.6576968	52.0859123		15	North Road	Cardigan / Aberteifi	SA43 1LS									
591	-4.6577663	52.0858878	Bodowen	13	North Road	Cardigan / Aberteifi	SA43 1LS									
592	-4.6636014	52.081745			Quay Street	Cardigan / Aberteifi	SA43 1HR	Fisherman's Rest	Gorffwysfa'r Pysgotwyr					+44 1239 612359		https://www.facebook.com/FishermansRest/
593	-4.6593511	52.0850163	Imperial Mall	35	Pendre	Cardigan / Aberteifi	SA43 1JS								vacant	
594	-4.6595349	52.0850864		36	Pendre	Cardigan / Aberteifi	SA43 1JS	Save Easy Credit Union						+44 1239 614868		
595	-4.6595282	52.0850121		38	Pendre	Cardigan / Aberteifi	SA43 1JS									
596	-4.6596241	52.0850553		38	Pendre	Cardigan / Aberteifi	SA43 1JS									
597	-4.6618108	52.0839869		17	Queen's Terrace	Cardigan / Aberteifi	SA43 1LJ								vacant	
598	-4.6619615	52.0838989	Moose Hall	15	Queen's Terrace	Cardigan / Aberteifi	SA43 1LJ	Moose Hall Lodge 140						+44 1239 614017		https://www.facebook.com/Cardigan-Moose-Lodge-140-1787907271479831/
599	-4.6620611	52.08383		13-15	Queen's Terrace	Cardigan / Aberteifi	SA43 1LJ	The Projects						+44 1239 621253	charity	http://newlifewales.org.uk/ministries/the-projects-2/
600	-4.66157	52.0838152		1	Queen's Terrace	Cardigan / Aberteifi	SA43 1LJ									
601	-4.6616391	52.0838201	Godre'r Graig	2	Queen's Terrace	Cardigan / Aberteifi	SA43 1LJ									
602	-4.6617299	52.0838195		3	Queen's Terrace	Cardigan / Aberteifi	SA43 1LJ	Top Tan						+44 1239 612022	beauty	https://www.facebook.com/toptancardigan/
603	-4.6616469	52.0838921						Queen's Terrace								
604	-4.6618734	52.0838294						Queen's Terrace								
605	-4.6603106	52.0825181		7	St. Mary Street	Cardigan / Aberteifi	SA43 1HB	Morgan & RIchardson Solicitors	Cyfreithwyr Morgan & Richardson					+44 1239 612302		
606	-4.6601616	52.0824976		8	St. Mary Street	Cardigan / Aberteifi	SA43 1HB									
607	-4.6599837	52.0824958	Bronwydd House	9	St. Mary Street	Cardigan / Aberteifi	SA43 1HB	Kinora						+44 1239 612056		
608	-4.6601444	52.0825867			Chancery Lane	Cardigan / Aberteifi	SA43 1HD									
609	-4.6595016	52.0827342	Teifi Warehouse		Pwllhai	Cardigan / Aberteifi	SA43 1DB	J Gerallt Davies & Son						+44 1239 612 336	trade	
610	-4.6598845	52.0825827	The Workshop		Pwllhai	Cardigan / Aberteifi	SA43 1DB	Twisted Edge						+44 7931 772307		
611	-4.6600248	52.0827364	Y Colomendy		Pwllhai	Cardigan	SA43 1DB	El Salsa						+44 1239 613705		
612	-4.6600285	52.082832	The Old Market Shed		Pwllhai	Cardigan / Aberteifi	SA43 1DB	CCM House Clearance Store						+44 7968 477128	furniture	https://www.facebook.com/jencamjenny/
613	-4.6595304	52.0829451	Old Britannia Stores		Pwllhai	Cardigan / Aberteifi	SA43 1DB	JigSo Children's Centre	Canolfan Plant JigSo					+44 1239 615922		http://www.jigso.wales/childrens-centre-cardigan
614	-4.6593186	52.0829196	Preswylfa		Pwllhai	Cardigan / Aberteifi	SA43 1DB									
615	-4.6593149	52.0830429		15	Pwllhai	Cardigan / Aberteifi	SA43 1DB									
616	-4.6593978	52.0830548		14	Pwllhai	Cardigan / Aberteifi	SA43 1DB									
617	-4.6594844	52.083124			Pwllhai	Cardigan / Aberteifi	SA43 1DB	Old Police Station Garage								
618	-4.6596162	52.0831162			Pwllhai	Cardigan / Aberteifi	SA43 1DB									
619	-4.6598543	52.0830268			Pwllhai	Cardigan / Aberteifi	SA43 1DB	Eco Shop						+44 7717 473435	second_hand	http://www.naturewise.org.uk/page.cfm?pageid=nw-theecoshops
620	-4.6598204	52.0829252	Y Twr		Pwllhai	Cardigan / Aberteifi	SA43 1DB	4CG						+44 1239 621109		
621	-4.6601146	52.0830454	Gwalia Gardens		Pwllhai	Cardigan / Aberteifi	SA43 1DB	Priory Vets	Milfeddygon y Priordy					+44 1239 612479		
622	-4.6605287	52.0831111			Chancery Lane	Cardigan	SA43 1HD									
623	-4.6592577	52.083197						DMB Davies Client Parking								
624	-4.6603236	52.0833714			Pwllhai	Cardigan / Aberteifi	SA43 1DB	Beauty in Motion						+44 1239 612152	hairdresser	
625	-4.6606237	52.083496		41	High Street	Cardigan / Aberteifi	SA43 1JG	The Travel House	Tŷ Teithio					+44 1239 615060		http://www.travelhouseholidays.co.uk/branch/meet-the-team-cardigan.php
626	-4.6592048	52.0833539	Broyan House		Priory Street	Cardigan / Aberteifi	SA43 1BU	DMB Davies Accountants	DMB Davies Cyfrifyddion					+44 1239 612467		
627	-4.6593796	52.0833345			Priory Street	Cardigan / Aberteifi	SA43 1BU	Old Police Station								
628	-4.6595063	52.0833593	Courthouse		Priory Street	Cardigan / Aberteifi	SA43 1BU	Peter Evans Funeral Director	Trefnwr Angladdau Peter Evens					+44 1239 615266	funeral_directors	
629	-4.6597255	52.0827176						Pwllhai Car Park								
630	-4.6606516	52.0838124		59	Pendre	Cardigan / Aberteifi	SA43 1JR	Well Pharmacy						+44 1239 612416	chemist	https://finder.well.co.uk/store/cardigan-pendr
631	-4.6606132	52.0838062		59	Pendre	Cardigan / Aberteifi	SA43 1JR	Medical Hall								
632	-4.6604809	52.083781		1	Priory Street	Cardigan / Aberteifi	SA43 1BZ	Thomas Cook Travel						+44 1239 611213		
633	-4.6603308	52.0837546		2-3	Priory Street	Cardigan / Aberteifi	SA43 1BZ	Barnardo's						+44 1239 612159	charity	http://www.barnardos.org.uk/shop/cardigan/shop-view.htm?id=SHP-11900
634	-4.6601682	52.0837327		4	Priory Street	Cardigan / Aberteifi	SA43 1BZ	Labels For Less						+44 1239 615704	clothes	https://www.facebook.com/secondgear14/
635	-4.660043	52.0836975		5-6	Priory Street	Cardigan / Aberteifi	SA43 1BZ	Veteran Horse Welfare						+44 1239  881300;+44 1239 623594	charity	
636	-4.6599113	52.0836752		7	Priory Street	Cardigan / Aberteifi	SA43 1BZ	Great Finds							second_hand	
637	-4.6592269	52.0835636		9	Priory Street	Cardigan / Aberteifi	SA43 1BU	DMB Digital								
638	-4.659117	52.0835397		10	Priory Street	Cardigan / Aberteifi	SA43 1BU									
639	-4.6590079	52.0835231		11	Priory Street	Cardigan / Aberteifi	SA43 1BU	Teifi Foot Clinic						+44 1239 621343		
640	-4.658904	52.0834826	Old Oak House	12	Priory Street	Cardigan / Aberteifi	SA43 1BU	Old Oak Insurance						+44 1239 613213		
641	-4.6587738	52.0834672	Glyncoed Chambers	13	Priory Street	Cardigan / Aberteifi	SA43 1BX	W.J. Williams & Davies						+44 1239 612262		
642	-4.6589744	52.0831235		10	Morgan Street	Cardigan / Aberteifi	SA43 1DF									
643	-4.6589964	52.083087		9	Morgan Street	Cardigan / Aberteifi	SA43 1DF									
644	-4.6590299	52.0830375		8	Morgan Street	Cardigan / Aberteifi	SA43 1DF									
645	-4.6590499	52.0830017		7	Morgan Street	Cardigan / Aberteifi	SA43 1DF									
646	-4.6606832	52.0836273			High Street	Cardigan / Aberteifi	SA43 1JG	Saltrock						+44 1239 621499	water_sports	https://www.saltrock.com/stores/cardigan
647	-4.6605511	52.0836065	Branneys	31	Priory Street	Cardigan / Aberteifi	SA43 1BZ	Priory Café	Caffi'ŕ Priordy					+44 1239 615167		https://www.facebook.com/Branneys-Priory-Restaurant-280732871942792/
648	-4.660576	52.08389		58	Pendre	Cardigan / Aberteifi	SA43 1JR	Dorothy Perkins						+44 1239 621145	clothes	
649	-4.6604596	52.0840464		55	Pendre	Cardigan / Aberteifi	SA43 1JR	Nelson's Deli & Healthfoods						+44 1239 614114	deli	
650	-4.6604499	52.0841082		54	Pendre	Cardigan / Aberteifi	SA43 1JR	Peter Evans Funeral Director	Trefnwr Angladdau Peter Evens					+44 1239 615266	funeral_directors	
651	-4.6604291	52.0841706	Bradford House	53a	Pendre	Cardigan / Aberteifi	SA43 1JR	T. Samways High Class Butchers	Cigydd o'r Safon Uchaf T. Samways					+44 1239 621225	butcher	
652	-4.6603964	52.0842215		53	Pendre	Cardigan / Aberteifi	SA43 1JR									
653	-4.6602698	52.0841841		53	Pendre	Cardigan / Aberteifi	SA43 1JR									
654	-4.6615279	52.0832472		15-16	High Street	Cardigan / Aberteifi	SA43 1JJ	Peacocks						+44 1239 614 575	clothes	
655	-4.6613437	52.0833302		17-18	High Street	Cardigan / Aberteifi	SA43 1JJ	WH Smith						+44 1239 612749	books	https://www.whsmith.co.uk/pws/StoreFinder.ice?country=GB&storedetails=true&findStore=findStore&page=store2114
656	-4.6614033	52.0830997		13-14	High Street	Cardigan / Aberteifi	SA43 1JW	Lloyds Bank						+44 345 3000000		
657	-4.6615062	52.0820745	Old Shire Hall	1	High Street	Cardigan / Aberteifi	SA43 1HJ	British Red Cross						+44 1239 614595	charity	http://www.redcross.org.uk/Where-we-work/In-the-UK/Wales/Wales/LocalServices/Shop?dpid=dda9ed8a-fa39-4de3-899c-c6578e25241a
658	-4.6614577	52.0821788	Tŷ Mawr	2	High Street	Cardigan / Aberteifi	SA43 1HJ	Belotti's						+44 1239 621713		https://www.facebook.com/BelottisDelicatessenCoffeeHouse/
659	-4.6614562	52.0822895		3	High Street	Cardigan / Aberteifi	SA43 1HJ	Stiwdio 3						+44 1239 758088		https://www.makeitinwales.co.uk/stiwdio-3/
660	-4.6619678	52.0823007		5	Lôn Farchnad / Market Lane	Cardigan / Aberteifi	SA43 1HL									
661	-4.661883	52.0822982		6	Lôn Farchnad / Market Lane	Cardigan / Aberteifi	SA43 1HL									
662	-4.6618046	52.0822943	Haulfryn	7	Lôn Farchnad / Market Lane	Cardigan / Aberteifi	SA43 1HL									
663	-4.6617238	52.082291		8	Lôn Farchnad / Market Lane	Cardigan / Aberteifi	SA43 1HL									
664	-4.6616201	52.0822861			Lôn Farchnad / Market Lane	Cardigan / Aberteifi	SA43 1HL								vacant	
665	-4.6624116	52.0824146						Albion Terrace								
666	-4.6625061	52.0823488						Lôn Farchnad / Market Lane	Lôn Farchnad							
667	-4.6624929	52.0829177			Middle Mwldan	Cardigan / Aberteifi		Principality House								
668	-4.6622774	52.0831266	Bryneirig		Middle Mwldan	Cardigan / Aberteifi										
669	-4.6628381	52.0828149		32	Drawbridge	Cardigan / Aberteifi	SA43 1HW									
670	-4.6627785	52.0828662		33	Drawbridge	Cardigan / Aberteifi	SA43 1HW									
671	-4.6619619	52.0830501	Ossian Cottage		Ebens Lane		SA43 1HN									
672	-4.6547137	52.0864673	The Hut		Maes-yr-Haf	Cardigan / Aberteifi	SA43 1EQ	Cardigan Amateur Boxing Club						+44 1239 831462		https://www.facebook.com/Cardigan-Amateur-Boxing-CLUB-461816000663607/
673	-4.6546613	52.0861317		5	Maes-yr-Haf	Cardigan / Aberteifi	SA43 1EQ									
674	-4.6545497	52.0861712		6	Maes-yr-Haf	Cardigan / Aberteifi	SA43 1EQ									
675	-4.6544217	52.0862424		7	Maes-yr-Haf	Cardigan / Aberteifi	SA43 1EQ									
676	-4.6543096	52.0862824		8	Maes-yr-Haf	Cardigan / Aberteifi	SA43 1EQ									
677	-4.6541648	52.0863294		9	Maes-yr-Haf	Cardigan / Aberteifi	SA43 1EQ									
678	-4.6540524	52.0863667		10	Maes-yr-Haf	Cardigan / Aberteifi	SA43 1EQ									
679	-4.6538828	52.0863927		11	Maes-yr-Haf	Cardigan / Aberteifi	SA43 1EQ									
680	-4.6537669	52.0864318		12	Maes-yr-Haf	Cardigan / Aberteifi	SA43 1EQ									
681	-4.6535326	52.0864842		15	Rhos-y-Dre	Cardigan / Aberteifi	SA43 1NT									
682	-4.6535922	52.0865555	Rhos Y Dre	16	Rhos-y-Dre	Cardigan / Aberteifi	SA43 1NT									
683	-4.6536794	52.08663	Y Bwthyn Gwyn	17	Rhos-y-Dre	Cardigan / Aberteifi	SA43 1NT									
684	-4.6537416	52.0866976		18	Rhos-y-Dre	Cardigan / Aberteifi	SA43 1NT									
685	-4.6535707	52.0863502						Maes-yr-Haf								
686	-4.6532281	52.0866095		14	Rhos-y-Dre	Cardigan / Aberteifi	SA43 1NT									
687	-4.6531222	52.0866466		13	Rhos-y-Dre	Cardigan / Aberteifi	SA43 1NT									
688	-4.6529988	52.0867018		12	Rhos-y-Dre	Cardigan / Aberteifi	SA43 1NT									
689	-4.6528875	52.0867385		11	Rhos-y-Dre	Cardigan / Aberteifi	SA43 1NT									
690	-4.6527413	52.0867929		10	Rhos-y-Dre	Cardigan / Aberteifi	SA43 1NT									
691	-4.6526347	52.0868308		9	Rhos-y-Dre	Cardigan / Aberteifi	SA43 1NT									
692	-4.6525033	52.0868571		8	Rhos-y-Dre	Cardigan / Aberteifi	SA43 1NT									
693	-4.6523959	52.0868963		7	Rhos-y-Dre	Cardigan / Aberteifi	SA43 1NT									
694	-4.6523323	52.0870071		6	Rhos-y-Dre	Cardigan / Aberteifi	SA43 1NT									
695	-4.652398	52.0870747		5	Rhos-y-Dre	Cardigan / Aberteifi	SA43 1NT									
696	-4.652113	52.0872498		4	Rhos-y-Dre	Cardigan / Aberteifi	SA43 1NT									
697	-4.6520473	52.0871843		3	Rhos-y-Dre	Cardigan / Aberteifi	SA43 1NT									
698	-4.6520168	52.0871046		2	Rhos-y-Dre	Cardigan / Aberteifi	SA43 1NT									
699	-4.6519484	52.0870378		1	Rhos-y-Dre	Cardigan / Aberteifi	SA43 1NT									
700	-4.6618767	52.0813853	Grosvenor Bungalow		Bridge Street	Cardigan / Aberteifi	SA43 1HY									
701	-4.6616742	52.0813458	The Grosvenor		Bridge Street	Cardigan / Aberteifi	SA43 1HY	The Grosvenor						+44 1239 613792		https://www.facebook.com/grosvenorcardigan/
702	-4.6600067	52.0846721		46	Pendre	Cardigan / Aberteifi	SA43 1JS	Vicini						+44 1239 614678	clothes	https://www.facebook.com/ViciniofCardigan/
703	-4.6600426	52.08464		47	Pendre	Cardigan / Aberteifi	SA43 1JS	Body Matters						+44 1239 614581	beauty	https://www.facebook.com/BodyMattersCardigan/
704	-4.6600384	52.0845815		48	Pendre	Cardigan / Aberteifi	SA43 1JS	Queen's Bakery						+44 1239 612110	bakery	https://www.facebook.com/Queens-Bakery-1631044503776874/
705	-4.6616208	52.0814554	Castle Chambers		Grosvenor Hill	Cardigan / Aberteifi	SA43 1HX	George Davies & Evans Solicitors	Cyfreithwyr George Davies & Evans					+44 1239 612308		
706	-4.6616268	52.0815668	Glenroy House	6	Bridge Street	Cardigan / Aberteifi	SA43 1HY	Branwen Centre	Canolfan Branwen					+44 1239 615700		
707	-4.6627083	52.0820056	The Mariners	16	Quay Street	Cardigan / Aberteifi	SA43 1HU									
708	-4.6625879	52.0820364		17	Quay Street	Cardigan / Aberteifi	SA43 1HU									
709	-4.6624851	52.0819888		18	Quay Street	Cardigan / Aberteifi	SA43 1HU									
710	-4.6623925	52.0819762		19	Quay Street	Cardigan / Aberteifi	SA43 1HU									
711	-4.6602653	52.0875875	The Shed		Bath House Road	Cardigan / Aberteifi	SA43 1JZ	Sheila Williams Mi.Trainer						+44 7812 106268		https://www.facebook.com/SheilaWilliamsMi.TrainerPersonalFitnessCoaching/
712	-4.6621073	52.0819929	Cerdig House	20	Quay Street	Cardigan / Aberteifi	SA43 1HU									
713	-4.6620396	52.0819622		20a	Quay Street	Cardigan / Aberteifi	SA43 1HU									
714	-4.6619784	52.0819587		21	Quay Street	Cardigan / Aberteifi	SA43 1HU									
715	-4.6618886	52.0819516		22	Quay Street	Cardigan / Aberteifi	SA43 1HU	Oriel Webster						+44 7471 068613	art	
716	-4.661781	52.0819682		23	Quay Street	Cardigan / Aberteifi	SA43 1HU	Quay Street Studios						+44 7774 013795		
717	-4.6616883	52.0819391	Byfnallt	24	Quay Street	Cardigan / Aberteifi	SA43 1HU									
718	-4.6629566	52.0827624			Drawbridge	Cardigan / Aberteifi	SA43 1HW	Quay Garage						+44 1239 621205	car_repair	
719	-4.6615872	52.0819923		1	High Street	Cardigan / Aberteifi	SA43 1HJ	Andrew Price						+44 1239 612955	hairdresser	
720	-4.6615994	52.0819185		25	Quay Street	Cardigan / Aberteifi	SA43 1HU									
721	-4.6615004	52.0819136		26	Quay Street	Cardigan / Aberteifi	SA43 1HU									
722	-4.6616875	52.0820161						Cellar Bar								
723	-4.6615458	52.0819149		25-26	Quay Street	Cardigan / Aberteifi	SA43 1HU	Castle Cafe	Caffi'r Castell							
724	-4.6615901	52.0819317		25-26	Quay Street	Cardigan / Aberteifi	SA43 1HU	Cellar Bar	Bar y Seler					+44 7818 056599		
725	-4.6623694	52.0828139	Stable Cottage		Ebens Lane	Cardigan / Aberteifi	SA43 1HN									
726	-4.6595698	52.0815621	The Yard		Strand	Cardigan / Aberteifi	SA43 1EX	Cardigan Bathroom Centre	Canolfan Ystafelloedd Ymolchi Aberteifi					+44 1239 614688	bathroom_furnishing	
727	-4.6616263	52.0816156	Dudley House	7	Bridge Street	Cardigan / Aberteifi	SA43 1HY	Branwen Centre Charity Shop							charity	
728	-4.6616338	52.0817474	Manchester House		Bridge Street	Cardigan / Aberteifi	SA43 1HY									
729	-4.6616168	52.0817944	Manchester House		Bridge Street	Cardigan / Aberteifi	SA43 1HY	Cardigan Trading Post							second_hand	https://www.facebook.com/The-Cardigan-Trading-Post-316342711827011/
730	-4.6616238	52.0817587	Manchester House		Bridge Street	Cardigan / Aberteifi	SA43 1HY	Ashmole & Co.						+44 1239 612162		http://www.ashmole.co.uk/english/contact-us/cardigan/
731	-4.6616293	52.0817418						Cardigan Natural Healing Centre	Canolfan Iachau Naturiol					+44 1239 614102		
732	-4.6619427	52.0817867		2	Quay Street	Cardigan / Aberteifi	SA43 1HU									
733	-4.6618406	52.0817804		1	Quay Street	Cardigan / Aberteifi	SA43 1HU									
734	-4.6611871	52.0830192						High Street	Stryd Fawr							
735	-4.6613678	52.0815129						Bridge Street	Heol y Bont							
736	-4.6595883	52.0823158	Avondale	40	St. Mary Street	Cardigan / Aberteifi	SA43 1ET	Welch & Co. Solicitors	Cyfreithwyr Welch & Co.					+44 1239 614070		
737	-4.6593968	52.0822792		39	St. Mary Street	Cardigan / Aberteifi	SA43 1ET									
738	-4.6592606	52.0823002		38	St. Mary Street	Cardigan / Aberteifi	SA43 1ET	Seyran's Pizza						+44 1239 613463		https://www.facebook.com/Seyrans-pizza-965974990096664/
739	-4.659096	52.0822515		36-37	St. Mary Street	Cardigan / Aberteifi	SA43 1ET	Angel Hotel								
740	-4.6589894	52.0820225						Gabs								
741	-4.6589131	52.0823555		35	St. Mary Street	Cardigan / Aberteifi	SA43 1ET									
742	-4.6622965	52.0818046	Roby	1 Rock Terrace	Quay Street	Cardigan / Aberteifi	SA43 1HS									
743	-4.6623927	52.0818084	Maes Yr Haf	2 Rock Terrace	Quay Street	Cardigan / Aberteifi	SA43 1HS									
744	-4.6624761	52.0818054	Bryhneulog	3 Rock Terrace	Quay Street	Cardigan / Aberteifi	SA43 1HS									
745	-4.6625576	52.0818219	Brynteg	4 Rock Terrace	Quay Street	Cardigan / Aberteifi	SA43 1HS									
746	-4.6626615	52.0818133		5 Rock Terrace	Quay Street	Cardigan / Aberteifi	SA43 1HS	Davies & John Accountants						+44 1239 612244		
747	-4.6609609	52.0780014						Bridgend			neighbourhood					
748	-4.6657497	52.0834427						Net Pool			neighbourhood					
749	-4.6630599	52.0818337		? Royal Oak	Quay Street	Cardigan / Aberteifi	SA43 1HR									
750	-4.6629528	52.0818376		? Royal Oak	Quay Street	Cardigan / Aberteifi	SA43 1HR								vacant	
751	-4.6611398	52.0828118		29C	High Street	Cardigan / Aberteifi	SA43 1JG	Gloss						+44 1239 621078	beauty	
752	-4.6619681	52.0811776						A Bay To Remember						+44 1239 623558	ticket	
753	-4.6871382	52.1039973						Patch Pontoon								
754	-4.6841048	52.1043638						Patch Beach								
755	-4.6857559	52.10579				Gwbert on Sea	SA43 1PP	Patch Caravan Park						+44 1239 615858		
756	-4.6830508	52.1051375				Gwbert on Sea	SA43 1PP	Club House & Bar						+44 1239 613846		
757	-4.6835439	52.1052304				Gwbert on Sea	SA43 1PP	Teifi Boating Club								
758	-4.6611329	52.0828523		29B	High Street	Cardigan / Aberteifi	SA43 1JG	Big Bite						+44 1239 613006		https://www.facebook.com/thebigbitecardigan/
759	-4.6611264	52.0828839		29A	High Street	Cardigan / Aberteifi	SA43 1JG	His & Hers						+44 1239 613102	gift	
760	-4.6610574	52.0829056		28B	High Street	Cardigan / Aberteifi	SA43 1JG	Jackie						+44 1239 612820	hairdresser	
761	-4.6610297	52.0829403		28	High Street	Cardigan / Aberteifi	SA43 1JG	Cleo						+44 1239 621465	clothes	
762	-4.6610383	52.0830074		27	High Street	Cardigan	SA43 1JG	Coral						+44 800 1690299	bookmaker	
763	-4.6610267	52.0830852		26	High Street	Cardigan / Aberteifi	SA43 1JH	Cardigan Post Office	Swyddfa Bost							
764	-4.660807	52.0830668			Chancery Lane	Cardigan / Aberteifi	SA43 1HD	DeeGee's Diner						+44 1239 613322		https://www.facebook.com/deegeesdiner1
765	-4.6608881	52.0831284	Stafford House	25	High Street	Cardigan / Aberteifi	SA43 1JG								vacant	
766	-4.6608893	52.0831904		24	High Street	Cardigan / Aberteifi	SA43 1JG	Oxfam						+44 1239 615352	charity	https://www.oxfam.org.uk/shop/local-shops/oxfam-shop-cardigan
767	-4.6608947	52.0832585		23	High Street	Cardigan / Aberteifi	SA43 1JG	Awen Teifi						+44 1239 621370	toys;souvenir;books	
768	-4.6608803	52.0833224		22	High Street	Cardigan / Aberteifi	SA43 1JG	Saddlers Arms						+44 1239 613501		https://www.facebook.com/Saddlers-Arms-Cardigan-528829150614230/
769	-4.6608939	52.0833931	Corner House		High Street	Cardigan / Aberteifi	SA43 1JG								vacant	
770	-4.6611409	52.082507		32	High Street	Cardigan / Aberteifi	SA43 1HH	Barclays						+44 345 734 5345		
771	-4.6611405	52.0826293		30	High Street	Cardigan / Aberteifi	SA43 1HJ	Cardigan Sports	Chwaraeon Aberteifi					+44 1239 615996	sports	
772	-4.6611386	52.0825697		31	High Street	Cardigan / Aberteifi	SA43 1HJ	Specsavers Opticians	Opegwyr Specsavers					+44 1239 622800	optician	https://www.specsavers.co.uk/stores/cardigan
773	-4.6611384	52.0823868		33-34	High Street	Cardigan / Aberteifi	SA43 1HJ	Sgidie Teifi Shoes	Sgidie Teifi					+44 1239 612600	shoes	
774	-4.661582	52.0823991	Natwest Chambers	4	High Street	Cardigan / Aberteifi	SA43 1NW									
775	-4.6615773	52.0824826		5	High Street	Cardigan / Aberteifi	SA43 1HJ	JJ Morris Arwerthwyr/Auctioneers						+44 1239 612343		
776	-4.6616004	52.0826742		7-8	High Street	Cardigan / Aberteifi	SA43 1HJ	The Works						+44 1239 613748	variety_store	https://www.theworks.co.uk/store/0634_cardigan
777	-4.6614787	52.0827294		9	High Street	Cardigan / Aberteifi	SA43 1HJ	Solo Clothing						+44 1239 615309	clothes	https://www.facebook.com/Solo-Clothing-286256635540560/
778	-4.6614296	52.0827749		10	High Street	Cardigan / Aberteifi	SA43 1HJ	Houses For Sale In Wales						+44 1239 623500		
779	-4.6614949	52.083007		12	High Street	Cardigan / Aberteifi	SA43 1JJ	Tenovus Cancer Care	Tenovus Gofal Canser					+44 1239 615737	charity	https://tenovuscancercare.org.uk/go-shopping/local-shops/west-wales/
780	-4.6614294	52.0828851		11	High Street	Cardigan / Aberteifi	SA43 1JN	HSBC						+44 1226 261010		
781	-4.6613947	52.0834376		19	High Street	Cardigan / Aberteifi	SA43 1JJ	shoezone						+44 1239 621649	shoes	https://www.shoezone.com/Stores/Cardigan-1441
782	-4.6611353	52.0834525		20	High Street	Cardigan / Aberteifi	SA43 1JJ	John Francis						+44 1239 612080		https://www.johnfrancis.co.uk/branches/cardigan
783	-4.6611094	52.0835021		20a	High Street	Cardigan / Aberteifi	SA43 1JJ								vacant	
784	-4.6610578	52.0835627		21	High Street	Cardigan / Aberteifi	SA43 1JJ	Trizaro						+44 1239 623844	jewelry	https://www.facebook.com/Trizaro-1421312311429932/
785	-4.6610578	52.0835731		21	High Street	Cardigan / Aberteifi	SA43 1JJ									
786	-4.6610578	52.0835731		21	High Street	Cardigan / Aberteifi	SA43 1JJ	Wine Bar Cardigan						+44 1239 613071		https://www.facebook.com/winebarcardigan/?rf=160761593977128
787	-4.6611509	52.0836635		1-2	College Row	Cardigan / Aberteifi	SA43 1LL	Castaway						+44 1239 621856	fishing	https://www.facebook.com/castawaycardigan/
788	-4.6613309	52.0837016		3	College Row	Cardigan / Aberteifi	SA43 1LL	Cardigan Arms Fish & Chip Bar	Cardigan Arms Pysgod A Sglodion					+44 1239 614969		
789	-4.6614875	52.0837591		4	College Row	Cardigan / Aberteifi	SA43 1LL	Tranquil Moments						+44 1239 615995	beauty	
790	-4.6625873	52.0825499		2	Albion Terrace	Cardigan / Aberteifi	SA43 1HP									
791	-4.6626157	52.0824847		1	Albion Terrace	Cardigan / Aberteifi	SA43 1HP									
792	-4.6625036	52.0832691			Queen's Terrace	Cardigan / Aberteifi	SA43 1LJ	The Storage Yard								
793	-4.6618928	52.0839375	Fairways		Queen's Terrace	Cardigan / Aberteifi	SA43 1LJ									
794	-4.6623294	52.0826938		"8, High Street Arcade"	High Street	Cardigan / Aberteifi	SA43 1HJ								vacant	
795	-4.6614907	52.0825464		6	High Street	Cardigan / Aberteifi	SA43 1HJ	Vision Express						+44 1239 612602	optician	https://www.visionexpress.com/opticians/opticians-in-wales/Ceredigion/cardigan/
796	-4.6616957	52.0825618		"2, High Street Arcade"	High Street	Cardigan / Aberteifi	SA43 1HJ	Domestic Appliances (Cardigan)						+44 1239 621571	appliance	
797	-4.6618598	52.0825906		"3, High Street Arcade"	High Street	Cardigan / Aberteifi	SA43 1HJ								yes	
798	-4.6619945	52.0826162		"4, High Street Arcade"	High Street	Cardigan / Aberteifi	SA43 1HJ	Domestic Appliances (Cardigan)						+44 1239 621571	appliance	
799	-4.6621202	52.0826392		"5, High Street Arcade"	High Street	Cardigan / Aberteifi	SA43 1HJ								vacant	
800	-4.6622295	52.082659		"6, High Street Arcade"	High Street	Cardigan / Aberteifi	SA43 1HJ	Melfed						+44 7816 659319	yes	https://www.facebook.com/Melfed-827919640552747/
801	-4.6623132	52.0826683		"7, High Street Arcade"	High Street	Cardigan / Aberteifi	SA43 1HJ	Bookends						+44 1239 614632	books	https://www.facebook.com/bookendsbookshop/
802	-4.6605075	52.0851708		"5, Cornel Pendre"	Pendre	Cardigan / Aberteifi	SA43 1JL	Hair Lounge 4 Men						+44 1239 758405	hairdresser	
803	-4.660406	52.0851434		"4, Cornel Pendre"	Pendre	Cardigan / Aberteifi	SA43 1JL	Brodwaith Teifi Embroidery						+44 1239 615030	clothes	https://www.facebook.com/brodwaithteifiembroidery/
804	-4.6603118	52.0851338		"3, Cornel Pendre"	Pendre	Cardigan / Aberteifi	SA43 1JL	Teifi Kitchens						+44 1239 614293	kitchen	
805	-4.6602292	52.0850774		"2, Cornel Pendre"	Pendre	Cardigan / Aberteifi	SA43 1JL	The Sewing Studio						+44 1239 612202		https://www.facebook.com/The-Sewing-Studio-171726713022104/
806	-4.6600757	52.0850493		"1,Cornel Pendre"	Pendre	Cardigan / Aberteifi	SA43 1JL	La Fontana								https://www.facebook.com/lafontanacardigan/
807	-4.6607049	52.0850089	Bwthyn Coeden Afal		Bath House Road	Cardigan / Aberteifi	SA43 1JY									
808	-4.6606987	52.0849486	Glas y Dorlan		Greenfield Square	Cardigan / Aberteifi	SA43 1LH									
809	-4.6621329	52.0837575		12	Queen's Terrace	Cardigan / Aberteifi	SA43 1LJ									
810	-4.6622156	52.083694	Rosario	11	Queen's Terrace	Cardigan / Aberteifi	SA43 1LJ									
811	-4.6630198	52.0832763						Coed y Mwldan Nature Reserve								https://www.woodlandtrust.org.uk/visiting-woods/wood/5281/coed-y-mwldan/
812	-4.6619828	52.0835836	Merchant House		Queen's Terrace	Cardigan / Aberteifi	SA43 1LJ									
813	-4.6620035	52.0835798	Merchant House		Queen's Terrace	Cardigan / Aberteifi	SA43 1LJ	Emerge Skate Shop							sports	
814	-4.6619914	52.0834906		9	Queen's Terrace	Cardigan / Aberteifi	SA43 1LJ									
815	-4.6620609	52.0834479		10	Queen's Terrace	Cardigan / Aberteifi	SA43 1LJ									
816	-4.6619261	52.0836645		8	Queen's Terrace	Cardigan / Aberteifi	SA43 1LJ									
817	-4.6619039	52.0837028		7	Queen's Terrace	Cardigan / Aberteifi	SA43 1LJ									
818	-4.661844	52.0837318		6	Queen's Terrace	Cardigan / Aberteifi	SA43 1LJ									
819	-4.6618367	52.0837714		5	Queen's Terrace	Cardigan / Aberteifi	SA43 1LJ									
820	-4.6617899	52.0838051		4	Queen's Terrace	Cardigan / Aberteifi	SA43 1LJ									
821	-4.6622494	52.083603	Golwg Y Nant	11A	Queen's Terrace	Cardigan / Aberteifi	SA43 1LJ									
822	-4.6623066	52.0835241	Friends Villa		Queen's Terrace	Cardigan / Aberteifi	SA43 1LJ									
823	-4.6623574	52.0833999		"36, Drawbridge"	Queen's Terrace	Cardigan / Aberteifi	SA43 1LJ									
824	-4.6623481	52.0834661		"37, Drawbridge"	Queen's Terrace	Cardigan / Aberteifi	SA43 1LJ									
825	-4.6614257	52.081006						Prince Charles Quay								
826	-4.6635815	52.0819253						Cambrian Quay								
827	-4.6604619	52.0824737		6B	Chancery Lane	Cardigan / Aberteifi	SA43 1HD	Mirror Image						+44 1239 614455	hairdresser	https://www.facebook.com/Mirror-Image-Cardigan-Hair-Salon-Photography-Business-by-Ron-Walker-599437953461278/
828	-4.6604847	52.0825531		4	Chancery Lane	Cardigan / Aberteifi	SA43 1HD	Cliand Computers						+44 1239 623666	computer	
829	-4.6606366	52.0826076			Chancery Lane	Cardigan / Aberteifi	SA43 1HD	Mike's Shop						+44 1239 614483	variety_store	
830	-4.6588582	52.0826949			Morgan Street	Cardigan / Aberteifi	SA43 1DF	G. Williams & Sons Monumental Masons						+44 1239 615233		
831	-4.6588244	52.0828254		4	Morgan Street	Cardigan / Aberteifi	SA43 1DF	Colin Phillips Funerals	Angladdau Colin Phillips					+44 1239 621192	funeral_directors	
832	-4.6588466	52.0827287		6	Morgan Street	Cardigan / Aberteifi	SA43 1DF	West Wales Properties						+44 1239 615915		https://www.westwalesproperties.co.uk/about-us/about-west-wales-selling/cardigan/
833	-4.6587959	52.0827539		5	Morgan Street	Cardigan / Aberteifi	SA43 1DF									
834	-4.6588312	52.0827738		5a	Morgan Street	Cardigan / Aberteifi	SA43 1DF	Principality Developments Ltd						+44 1239  614974		
835	-4.6586688	52.0829173		3	Morgan Street	Cardigan / Aberteifi	SA43 1DF									
836	-4.6586415	52.0829553	Melrose	2	Morgan Street	Cardigan / Aberteifi	SA43 1DF									
837	-4.6586159	52.0830029	Norwood	1	Morgan Street	Cardigan / Aberteifi	SA43 1DF									
838	-4.6582096	52.0831074	Carnincli		Priory Street	Cardigan / Aberteifi	SA43 1BT									
839	-4.65812	52.0830549	Victoria House		Priory Street	Cardigan / Aberteifi	SA43 1BT									
840	-4.6602882	52.083576		28	Stryd y Priordy	Cardigan / Aberteifi	SA43 1BZ	Ffion's Beauty Boutique						+44 1239 614007	beauty	https://www.facebook.com/Ffionsbeautyboutique/
841	-4.6603668	52.0835961		29	Stryd y Priordy	Cardigan / Aberteifi	SA43 1BZ	Apricot						+44 1239 621771	clothes	https://www.facebook.com/Apricot-Cardigan-184123221764722/
842	-4.6604623	52.0835868		30	Stryd y Priordy	Cardigan / Aberteifi	SA43 1BZ	Cardigan Antiques Centre							antiques	
843	-4.6603853	52.0835302		2	Pwllhai	Cardigan / Aberteifi	SA43 1DB	2 The Gallery						+44 7462 409785	art	https://www.facebook.com/2-The-Gallery-346447309207139/
844	-4.660178	52.0835415	Siop Y Dre	27	Stryd y Priordy	Cardigan / Aberteifi	SA43 1BZ	Premier						+44 1239 613826	convenience	https://www.premier-stores.co.uk/result-stores/?find-store=cardigan
845	-4.6600779	52.083545		"2, Priory Court"	Stryd y Priordy	Cardigan / Aberteifi	SA43 1BZ	Teifi Christian Books	Llyfrau Cristnogol Teifi					+44 1239 615516	books	
846	-4.6600043	52.0835306		"1, Priory Court"	Stryd y Priordy	Cardigan / Aberteifi	SA43 1BZ	Roots						+44 1239 615902	hairdresser	
847	-4.6600327	52.0834557		"3, Priory Court"	Stryd y Priordy	Cardigan / Aberteifi	SA43 1BZ	Steve's Window Designs						+44 1239 613576	window_blind	
848	-4.660113	52.0834656		"4, Priory Courtt"	Stryd y Priordy	Cardigan / Aberteifi	SA43 1BZ	Homerent Letting Services	Cwmni Gosod Tai Homerent					+44 1239 621700		
849	-4.6602376	52.0834708		"5, Priory Court"	Stryd y Priordy	Cardigan / Aberteifi	SA43 1BZ	Animal Rescue Cymru						+44 345 4755958	charity	
850	-4.6596091	52.0834215			Stryd y Priordy	Cardigan / Aberteifi	SA43 1BZ	Fade Barbershop							hairdresser	https://www.facebook.com/FadeBarberShopUK/
851	-4.6597347	52.0834291	Graystone		Stryd y Priordy	Cardigan / Aberteifi	SA43 1BZ	The Care Society	Cymdeithas Gofal			Greystones		+44 1239 621807		
852	-4.6594476	52.0818916	Lanafon	"1, Brick Row"	Strand	Cardigan / Aberteifi	SA43 1EY									
853	-4.6594338	52.081858		"2, Brick Row"	Strand	Cardigan / Aberteifi	SA43 1EY									
854	-4.6594059	52.0818223		"3, Brick Row"	Strand	Cardigan / Aberteifi	SA43 1EY									
855	-4.6594765	52.0819505	Castle View		"Brick Row, Strand"	Cardigan / Aberteifi	SA43 1EY									
856	-4.659569	52.0821768	Old Hope Chapel		Carrier's Lane	Cardigan / Aberteifi										
857	-4.6595051	52.0820771	Castle View		"Brick Row, Strand"	Cardigan / Aberteifi	SA43 1EY	Phil Evans & Sons (B&C) Ltd						+44 1239 614956		
858	-4.6584162	52.082448		22	St. Mary Street	Cardigan / Aberteifi	SA43 1DH									
859	-4.6585106	52.0824605		21	St. Mary Street	Cardigan / Aberteifi	SA43 1DH									
860	-4.6586018	52.0825076	Cemaes	20	St. Mary Street	Cardigan / Aberteifi	SA43 1DH									
861	-4.6587369	52.0825006		19	St. Mary Street	Cardigan / Aberteifi	SA43 1DH									
862	-4.6588221	52.0825019		18	St. Mary Street	Cardigan / Aberteifi	SA43 1DH									
863	-4.6589328	52.0825173		17	St. Mary Street	Cardigan / Aberteifi	SA43 1DH									
864	-4.6582515	52.0824688		23	St. Mary Street	Cardigan / Aberteifi	SA43 1DH									
865	-4.6581733	52.0825042	Gowerton	24	St. Mary Street	Cardigan / Aberteifi	SA43 1DH									
866	-4.6580991	52.0825348	Brodawel	24A	St. Mary Street	Cardigan / Aberteifi	SA43 1DH									
867	-4.6580222	52.0825649		25	St. Mary Street	Cardigan / Aberteifi	SA43 1DH									
868	-4.6578862	52.0824312	Tŷ Broch	26	St. Mary Street	Cardigan / Aberteifi	SA43 1DH									
869	-4.6579772	52.0824116		27	St. Mary Street	Cardigan / Aberteifi	SA43 1DH									
870	-4.6580335	52.0823496		28	St. Mary Street	Cardigan / Aberteifi	SA43 1DH									
871	-4.6581255	52.0823144	Teifi View	29	St. Mary Street	Cardigan / Aberteifi	SA43 1DH									
872	-4.6582339	52.0823123		30	St. Mary Street	Cardigan / Aberteifi	SA43 1DH									
873	-4.6583256	52.0822887	Brongest	31	St. Mary Street	Cardigan / Aberteifi	SA43 1DH									
874	-4.6586407	52.0822959	Duncavin	"1, Riverside Mews"	St. Mary Street	Cardigan / Aberteifi	SA43 1DH									
875	-4.6586206	52.0821719		"2, Riverside Mews"	St. Mary Street	Cardigan / Aberteifi	SA43 1DH									
876	-4.6584432	52.0821729		"3, Riverside Mews"	St. Mary Street	Cardigan / Aberteifi	SA43 1DH									
877	-4.6584298	52.0822913		"4, Riverside Mews"	St. Mary Street	Cardigan / Aberteifi										
878	-4.6587341	52.0823155		32	St. Mary Street	Cardigan / Aberteifi	SA43 1DH									
879	-4.659414	52.0855445		"3, Heathfield"	Pendre	Cardigan / Aberteifi	SA43 1JT	Delwyn Griffiths Insurance Brokers	Broceriaid Yswiriant Delwyn Griffiths					+44 1239 615040		
880	-4.6594848	52.0854886		"2, Heathfield"	Pendre	Cardigan / Aberteifi	SA43 1JT	Christine's Hair Salon						+44 1239 612480	hairdresser	
881	-4.659549	52.0854317		"1, Heathfield"	Pendre	Cardigan / Aberteifi	SA43 1JT	The Computer Bay						+44 1239 621374	computer	
882	-4.659641	52.0854113		23	Pendre	Cardigan / Aberteifi	SA43 1JT									
883	-4.6596423	52.0853348	Cwrt Y Grug	22	Pendre	Cardigan / Aberteifi	SA43 1JT	Yr Hen Emporiwm						+44 1239 614888	gift	
884	-4.6597487	52.0853179		21	Pendre	Cardigan / Aberteifi	SA43 1JT	Leafed Through	Troi Dalen						books	
885	-4.6597843	52.0852561	Siambre Pendre	20	Pendre	Cardigan / Aberteifi	SA43 1JT	Lewis Lewis & Co Solicitors								
886	-4.6599185	52.0851982		18-19	Pendre	Cardigan / Aberteifi	SA43 1JT	Pritchard–Cowburn						+44 1239 1239 612004	optician	
887	-4.6699499	52.0811114						St. Dogmaels Road	Heol y Llandudoch							
888	-4.6593684	52.08517		34	Pendre	Cardigan / Aberteifi	SA43 1JS	Florist on the Farm						+44 1239 613631	florist	
889	-4.6593252	52.0852186		33	Pendre	Cardigan / Aberteifi	SA43 1JS	Cardigan Pet Centre						+44 1239 613693	pet	https://www.facebook.com/CardiganPetCentre/
890	-4.6592553	52.0852968		31-32	Pendre	Cardigan / Aberteifi	SA43 1JS	Salon K27						+44 1239 621945	hairdresser	https://www.facebook.com/SalonK27/
891	-4.6598686	52.0823067	Castle House	42	St. Mary Street	Cardigan / Aberteifi	SA43 1HA	Fred Rees & Son						+44 1239 612464		
892	-4.6600265	52.0816041						Stables	Stablau							
893	-4.6599635	52.0823422	Tŷ Mari	43	St. Mary Street	Cardigan / Aberteifi	SA43 1HA	Tŷ Mari								
894	-4.6610751	52.0814506						1176						+44 1239 562002		
895	-4.6610923	52.0815622	Tŷ Castell	3	Green Street	Cardigan / Aberteifi	SA43 1JA	Tŷ Castell								
896	-4.6609705	52.0816022						Green Street								
897	-4.6611131	52.0817146		1	Green Street	Cardigan / Aberteifi	SA43 1JA	Castle Reception & Shop							ticket	
898	-4.6609458	52.0816742		2	Green Street	Cardigan / Aberteifi	SA43 1JA									
899	-4.6607972	52.0818415						The Pavilion	Y Pafiliwn							
900	-4.6602607	52.082021				Cardigan / Aberteifi		Gardener's Cottage	Tŷ Ardd							https://westwalesholidaycottages.co.uk/gardeners-cottage-cardigan-castle
901	-4.6610251	52.0818137			Green Street	Cardigan / Aberteifi	SA43 1JA	Brewhouse								
902	-4.6611016	52.0818918						Gardd Brioude			square					
903	-4.6602866	52.0818884	East Wing		Green Street	Cardigan / Aberteifi	SA43 1JA	East Wing	Adain Ddwyreiniol							https://westwalesholidaycottages.co.uk/east-wing-cardigan-castle
904	-4.6604957	52.0818068	Castle Green House		Green Street	Cardigan / Aberteifi	SA43 1JA	Castle Green House	Tŷ Castle Green					+44 1239 615131		http://www.cardigancastle.com/visit/castle-exhibitions/
905	-4.6605134	52.0819069						Great Tower				North Tower				
906	-4.6603935	52.082089						Kitchen Garden								
907	-4.6606504	52.0821051						Orchard								
908	-4.6603364	52.0822131						Glass House								
909	-4.658835	52.08231		34	St. Mary Street	Cardigan / Aberteifi	SA43 1DH	Bell Designs						+44 1239 621616		
910	-4.6588236	52.0823461		33	St. Mary Street	Cardigan / Aberteifi	SA43 1DH									
911	-4.6600803	52.0823336	The Old Stables		St. Mary Street	Cardigan / Aberteifi	SA43 1HA	The Blue Boat							antiques	
912	-4.6600815	52.0822357			Green Street	Cardigan / Aberteifi	SA43 1HA	Coach House								https://westwalesholidaycottages.co.uk/the-coach-house-cardigan-castle
913	-4.6509905	52.0870983		34	Maes-Henffordd	Cardigan/Aberteifi	SA43 1NR									
914	-4.653565	52.0861318		13	Maes-yr-Haf	Cardigan / Aberteifi	SA43 1EQ									
915	-4.6535544	52.0860553		14	Maes-yr-Haf	Cardigan / Aberteifi	SA43 1EQ									
916	-4.6535328	52.0859271		15	Maes-yr-Haf	Cardigan / Aberteifi	SA43 1EQ									
917	-4.6535178	52.0858535		16	Maes-yr-Haf	Cardigan / Aberteifi	SA43 1EQ									
918	-4.6536476	52.0857129		17	Maes-yr-Haf	Cardigan / Aberteifi	SA43 1EQ									
919	-4.6537525	52.0856769		18	Maes-yr-Haf	Cardigan / Aberteifi	SA43 1EQ									
920	-4.654013	52.0856848		19	Maes-yr-Haf	Cardigan / Aberteifi	SA43 1EQ									
921	-4.6541106	52.0857359		20	Maes-yr-Haf	Cardigan / Aberteifi	SA43 1EQ									
922	-4.6542813	52.0858175		21	Maes-yr-Haf	Cardigan / Aberteifi	SA43 1EQ									
923	-4.6543818	52.0858692		22	Maes-yr-Haf	Cardigan / Aberteifi	SA43 1EQ									
924	-4.6546019	52.0858308		23	Maes-yr-Haf	Cardigan / Aberteifi	SA43 1EQ									
925	-4.6547089	52.085796		24	Maes-yr-Haf	Cardigan / Aberteifi	SA43 1EQ									
926	-4.7123287	52.1093226						Old Lifeboat House								
927	-4.6531327	52.0863386		1	Bro Teifi	Cardigan / Aberteifi	SA43 1DS									
928	-4.6530313	52.0863752		2	Bro Teifi	Cardigan / Aberteifi	SA43 1DS									
929	-4.6529365	52.0864012		3	Bro Teifi	Cardigan / Aberteifi	SA43 1DS									
930	-4.6533563	52.0862934	Teifi Bach	Flats 1-4	Rhos-y-Dre	Cardigan / Aberteifi	SA43 1NT									
931	-4.651364	52.0875427		35	Maes-Henffordd	Cardigan / Aberteifi	SA43 1NR									
932	-4.651364	52.0875427		36	Maes-Henffordd	Cardigan / Aberteifi	SA43 1NR									
933	-4.6512595	52.0875801		37	Maes-Henffordd	Cardigan / Aberteifi	SA43 1NR									
934	-4.6512595	52.0875801		38	Maes-Henffordd	Cardigan / Aberteifi	SA43 1NR									
935	-4.6589743	52.0848588		30	Feidrfair	Cardigan / Aberteifi	SA43 1EB									
936	-4.6590049	52.0849092		31	Feidrfair	Cardigan / Aberteifi	SA43 1EB									
937	-4.6590489	52.0849487		32	Feidrfair	Cardigan / Aberteifi	SA43 1EB									
938	-4.659109	52.0849916	Brynhyfryd	33	Feidrfair	Cardigan / Aberteifi	SA43 1EB									
939	-4.6591378	52.0850294	Hazelhurst	34	Feidrfair	Cardigan / Aberteifi	SA43 1EB									
940	-4.6591255	52.0851224		35-37	Feidrfair	Cardigan / Aberteifi	SA43 1EB								vacant	
941	-4.6591475	52.0852168	Lane Cottage	38	Feidrfair	Cardigan / Aberteifi	SA43 1EB									
942	-4.6591729	52.0852738	Rosslyn House		Feidrfair	Cardigan / Aberteifi	SA43 1EB									
943	-4.6552884	52.0897339	Hyfrydle		Park Avenue	Cardigan / Aberteifi	SA43 1AG	Tŷ Parc						+44 1239 615452		
944	-4.6551549	52.0881081		"2, Park Placee"	Gwbert Road	Cardigan / Aberteifi	SA43 1AE	Brynhyfryd Guest House						+44 1239 612861		
945	-4.6550828	52.0880643	Craiglee	"1, Park Place"	Gwbert Road	Cardigan / Aberteifi	SA43 1AE									
946	-4.6611649	52.0822512		35	High Street	Cardigan / Aberteifi	SA43 1HE	J's Nails						+44 1239 614041	beauty	https://www.facebook.com/Js-Nails-Salon-787703364695784/
947	-4.6611563	52.0822079		36	High Street	Cardigan / Aberteifi	SA43 1HE	RJ Financial Planning								
948	-4.6611429	52.0821315		37	High Street	Cardigan / Aberteifi	SA43 1HE									
949	-4.6611341	52.082053		38	High Street	Cardigan / Aberteifi	SA43 1HE	Dewi James a'i Gwmni						+44 1239  612063	butcher	
950	-4.6611361	52.0820002	Bayville House	39	High Street	Cardigan / Aberteifi	SA43 1HE	Labels For Less						+44 1239 615704	houseware	https://en-gb.facebook.com/secondgear14/
951	-4.6606075	52.0815784						Cardigan Castle	Castell Aberteifi							
952	-4.6525239	52.0879648	Brynaber		Aberystwyth Road	Cardigan / Aberteifi	SA43 1LU									
953	-4.6526174	52.088291	Silvermere	1	Greenland Meadows	Cardigan / Aberteifi	SA43 1BH									
954	-4.6526714	52.0883545		2	Greenland Meadows	Cardigan / Aberteifi	SA43 1BH									
955	-4.6526576	52.0884198	Llys-Awelon	3	Greenland Meadows	Cardigan / Aberteifi	SA43 1BH									
956	-4.6527483	52.088487	Llys-Arthen	4	Greenland Meadows	Cardigan / Aberteifi	SA43 1BH									
957	-4.6527873	52.0885397	Ashgrove	5	Greenland Meadows	Cardigan / Aberteifi	SA43 1BH									
958	-4.6528233	52.0885973	Min-Yr-Awel	6	Greenland Meadows	Cardigan / Aberteifi	SA43 1BH									
959	-4.6529522	52.0887698	Llety	7	Greenland Meadows	Cardigan / Aberteifi	SA43 1AJ									
960	-4.6529728	52.088833	Noddfa	8	Greenland Meadows	Cardigan / Aberteifi	SA43 1AJ									
961	-4.65302	52.0889334	Pensarn	9	Greenland Meadows	Cardigan / Aberteifi	SA43 1AJ									
962	-4.6530677	52.0890295	Llanerch	10	Greenland Meadows	Cardigan / Aberteifi	SA43 1AJ									
963	-4.6531142	52.0891136	Fronwen	11	Greenland Meadows	Cardigan / Aberteifi	SA43 1AJ									
964	-4.6532042	52.0892047	Pengwern	12	Greenland Meadows	Cardigan / Aberteifi	SA43 1AJ									
965	-4.6532054	52.0892674	Henfaes	13	Greenland Meadows	Cardigan / Aberteifi	SA43 1AJ									
966	-4.6532653	52.089377	Pendaran	14	Greenland Meadows	Cardigan / Aberteifi	SA43 1AJ									
967	-4.6533021	52.089441	Maesawelon	15	Greenland Meadows	Cardigan / Aberteifi	SA43 1AJ									
968	-4.6534054	52.0895462		16	Greenland Meadows	Cardigan / Aberteifi	SA43 1AJ									
969	-4.6534359	52.08962		17	Greenland Meadows	Cardigan / Aberteifi	SA43 1AJ									
970	-4.6535202	52.089723	Hafody Maes	18	Greenland Meadows	Cardigan / Aberteifi	SA43 1AJ									
971	-4.6535572	52.0897813		19	Greenland Meadows	Cardigan / Aberteifi	SA43 1AJ									
972	-4.6536167	52.0898689		20	Greenland Meadows	Cardigan / Aberteifi	SA43 1AJ									
973	-4.6536496	52.0899236	West Ways	21	Greenland Meadows	Cardigan / Aberteifi	SA43 1AJ									
974	-4.6540043	52.0885373						King George V Playing Fields								
975	-4.6520536	52.090346						Maesglas								
976	-4.6548633	52.0898317	Y Bwthyn	1	Park Avenue	Cardigan / Aberteifi	SA43 1AG									
977	-4.6546902	52.0898626	Iscoed	2	Park Avenue	Cardigan / Aberteifi	SA43 1AG									
978	-4.6545843	52.0898847	Ardenwen	3	Park Avenue	Cardigan / Aberteifi	SA43 1AG									
979	-4.6544448	52.0899409	Trefilan	4	Park Avenue	Cardigan / Aberteifi	SA43 1AG									
980	-4.6543496	52.0899607	Hamil	5	Park Avenue	Cardigan / Aberteifi	SA43 1AG									
981	-4.6541326	52.0900094		6	Park Avenue	Cardigan / Aberteifi	SA43 1AG									
982	-4.6555768	52.0890894	Llwyncelyn		Park Place	Cardigan / Aberteifi	SA43 1AE									
983	-4.6554628	52.0889577	Garth		Park Place	Cardigan / Aberteifi	SA43 1AE									
984	-4.6554422	52.0889119	Maes-Yr Awel		Park Place	Cardigan / Aberteifi	SA43 1AE									
985	-4.6554983	52.0888079	Haulfryn		Park Place	Cardigan / Aberteifi	SA43 1AE									
986	-4.6554694	52.0887316	Craig-Y-Nos		Park Place	Cardigan / Aberteifi	SA43 1AE									
987	-4.6553825	52.0886659	Craigelva		Park Place	Cardigan / Aberteifi	SA43 1AE									
988	-4.6553894	52.0884875			Park Place	Cardigan / Aberteifi	SA43 1AE									
989	-4.6552871	52.0883219	Gwydyr		Park Place	Cardigan / Aberteifi	SA43 1AE									
990	-4.6551445	52.0882442	Awel-for		Park Place	Cardigan / Aberteifi	SA43 1AE									
991	-4.6551229	52.0881939	Gratenfair		Park Place	Cardigan / Aberteifi	SA43 1AE									
992	-4.6586134	52.0848676	Glenmore		Feidrfair	Cardigan / Aberteifi	SA43 1EB									
993	-4.6586583	52.0849102	Rydal		Feidrfair	Cardigan / Aberteifi	SA43 1EB									
994	-4.6586957	52.0849613	Clydfan		Feidrfair	Cardigan / Aberteifi	SA43 1EB									
995	-4.6587183	52.085014	Iscoed		Feidrfair	Cardigan / Aberteifi	SA43 1EB									
996	-4.6587782	52.0850586	Glyn Mieri		Feidrfair	Cardigan / Aberteifi	SA43 1EB									
997	-4.658805	52.0851072	Devonia		Feidrfair	Cardigan / Aberteifi	SA43 1EB									
998	-4.6588448	52.0851468	Glynawen		Feidrfair	Cardigan / Aberteifi	SA43 1EB									
999	-4.658873	52.0851874	Glasfryn		Feidrfair	Cardigan / Aberteifi	SA43 1EB									
1000	-4.6589096	52.0852361	Brynhedydd		Feidrfair	Cardigan / Aberteifi	SA43 1EB									
1001	-4.6589413	52.0852973	Enslin		Feidrfair	Cardigan / Aberteifi	SA43 1EB									
1002	-4.6586081	52.0848043	Nythva		Feidrfair	Cardigan / Aberteifi	SA43 1EB									
1003	-4.6585679	52.0847579	Bryn-Teg		Feidrfair	Cardigan / Aberteifi	SA43 1EB									
1004	-4.6585237	52.0847101	Pentre		Feidrfair	Cardigan / Aberteifi	SA43 1EB									
1005	-4.6584749	52.0846636	Palmyra		Feidrfair	Cardigan / Aberteifi	SA43 1EB									
1006	-4.6584449	52.0846269	Brynderi		Feidrfair	Cardigan / Aberteifi	SA43 1EB									
1007	-4.6584295	52.0845797	Llan Aeron	"1, Napier Terrace"	Feidrfair	Cardigan / Aberteifi	SA43 1EA									
1008	-4.6584096	52.0845508	Nisqually	"2, Napier Terrace"	Feidrfair	Cardigan / Aberteifi	SA43 1EA									
1009	-4.6583672	52.0845099	Trenova	"3, Napier Terrace"	Feidrfair	Cardigan / Aberteifi	SA43 1EA									
1010	-4.6583361	52.0844285	Y Gerddi	"4, Napier Terrace"	Feidrfair	Cardigan / Aberteifi	SA43 1EA									
1011	-4.6581026	52.0837447		3	Feidrfair	Cardigan / Aberteifi	SA43 1DU									
1012	-4.658055	52.0836971	Rose Cottage	4	Feidrfair	Cardigan / Aberteifi	SA43 1DU									
1013	-4.6580224	52.0836435		5	Feidrfair	Cardigan / Aberteifi	SA43 1DU									
1014	-4.6580068	52.0835919		6	Feidrfair	Cardigan / Aberteifi	SA43 1DU									
1015	-4.6579461	52.0835557		7	Feidrfair	Cardigan / Aberteifi	SA43 1DU	{my}dentist.co.uk						+44 1239 613694		https://www.mydentist.co.uk/dentists/practices/wales/west-wales/cardigan/7-feidr-fair
1016	-4.6578183	52.0834646			Feidrfair	Cardigan / Aberteifi	SA43 1DU	Capel Mair								
1017	-4.6577723	52.0833506	Tŷ Capel		Feidrfair	Cardigan / Aberteifi	SA43 1DU	Sunday School								
1018	-4.6583344	52.0836945		"1, St Mary's Cottages"	Feidrfair	Cardigan / Aberteifi	SA43 1DX									
1019	-4.6583712	52.0837533		"2, St Mary's Cottages"	Feidrfair	Cardigan / Aberteifi	SA43 1DX									
1020	-4.6583933	52.0838073		"3, Gothic Terrace"	Feidrfair	Cardigan / Aberteifi	SA43 1DY									
1021	-4.6584128	52.0838747		"4, Gothic Terrace"	Feidrfair	Cardigan / Aberteifi	SA43 1DY									
1022	-4.6584418	52.0840822		15	Feidrfair	Cardigan / Aberteifi	SA43 1DU									
1023	-4.6584772	52.0841284		16	Feidrfair	Cardigan / Aberteifi	SA43 1DU									
1024	-4.6585588	52.0843416		17	Feidrfair	Cardigan / Aberteifi	SA43 1EB									
1025	-4.6585857	52.0843812		18	Feidrfair	Cardigan / Aberteifi	SA43 1EB									
1026	-4.6586146	52.0844318		19	Feidrfair	Cardigan / Aberteifi	SA43 1EB									
1027	-4.6586738	52.0844643		20	Feidrfair	Cardigan / Aberteifi	SA43 1EB									
1028	-4.6586973	52.0844947		21	Feidrfair	Cardigan / Aberteifi	SA43 1EB									
1029	-4.658716	52.0845257		22	Feidrfair	Cardigan / Aberteifi	SA43 1EB									
1030	-4.658743	52.0845579		23	Feidrfair	Cardigan / Aberteifi	SA43 1EB									
1031	-4.658781	52.0845975		24	Feidrfair	Cardigan / Aberteifi	SA43 1EB									
1032	-4.6584884	52.0841793		19	William Street	Cardigan / Aberteifi	SA43 1EL									
1033	-4.658587	52.0841275		20	William Street	Cardigan / Aberteifi	SA43 1EL									
1034	-4.6586574	52.0841225		21	William Street	Cardigan / Aberteifi	SA43 1EL									
1035	-4.6587373	52.084134		22	William Street	Cardigan / Aberteifi	SA43 1EL									
1036	-4.6588137	52.0841225		23	William Street	Cardigan / Aberteifi	SA43 1EL									
1037	-4.6589005	52.084113		24	William Street	Cardigan / Aberteifi	SA43 1EL									
1038	-4.6540988	52.0881997						Grandstand								
1039	-4.6593779	52.0840721		25	William Street	Cardigan / Aberteifi	SA43 1EL									
1040	-4.6594764	52.0840762		26	William Street	Cardigan / Aberteifi	SA43 1EL	Vanity Hair Fashions						+44 1239 612062	hairdresser	
1041	-4.6595662	52.0840969		27	William Street	Cardigan / Aberteifi	SA43 1EL									
1042	-4.6596642	52.0841072	Brynteg	28	William Street	Cardigan / Aberteifi	SA43 1EL									
1043	-4.6600705	52.084162			William Street	Cardigan / Aberteifi	SA43 1EL								vacant	
1044	-4.6585699	52.0843003		18	William Street	Cardigan / Aberteifi	SA43 1EL									
1045	-4.6586851	52.0842913		17	William Street	Cardigan / Aberteifi	SA43 1EL									
1046	-4.658783	52.084282		16	William Street	Cardigan / Aberteifi	SA43 1EL									
1047	-4.658866	52.0842735		15	William Street	Cardigan / Aberteifi	SA43 1EL									
1048	-4.658947	52.0842636		14	William Street	Cardigan / Aberteifi	SA43 1EL									
1049	-4.6590339	52.0842538		13	William Street	Cardigan / Aberteifi	SA43 1EL									
1050	-4.6593365	52.0842246		10	William Street	Cardigan / Aberteifi	SA43 1EL									
1051	-4.6592418	52.0842685		11	William Street	Cardigan / Aberteifi	SA43 1EL									
1052	-4.6591386	52.0842422		12	William Street	Cardigan / Aberteifi	SA43 1EL									
1053	-4.6594368	52.0842233		9	William Street	Cardigan / Aberteifi	SA43 1EL									
1054	-4.6595317	52.0842303		8	William Street	Cardigan / Aberteifi	SA43 1EL									
1055	-4.659643	52.084243		7	William Street	Cardigan / Aberteifi	SA43 1EL									
1056	-4.6597678	52.0842553		6	William Street	Cardigan / Aberteifi	SA43 1EL	Cardigan Locksmith						+44 1239 612077	locksmith	
1057	-4.6598781	52.0842631		5	William Street	Cardigan / Aberteifi	SA43 1EL									
1058	-4.6599756	52.0842693		4	William Street	Cardigan / Aberteifi	SA43 1EL									
1059	-4.6600669	52.0842866		3	William Street	Cardigan / Aberteifi	SA43 1EL	Serenity Health & Beauty Salon						+44 1239 758214	beauty	https://www.facebook.com/serenityhealthandbeautysalon
1060	-4.6601665	52.084283			William Street	Cardigan / Aberteifi	SA43 1EL									
1061	-4.6598821	52.0840832	Cwrt William		William Street	Cardigan / Aberteifi	SA43 1ES									
1062	-4.6532785	52.0869722			North Road	Cardigan / Aberteifi	SA43 1LT	Bishop Petit Memorial Hall								
1063	-4.6604293	52.0802819	Castle Inn	1	Castle Street	Cardigan / Aberteifi	SA43 3AB									
1064	-4.6604307	52.082322	The Old Custom House	44	St. Mary Street	Cardigan / Aberteifi	SA43 1HA	Custom House						+44 1239 615541	art	
1065	-4.6605156	52.082287	The Old Custom House	45	St. Mary Street	Cardigan / Aberteifi	SA43 1HA	Bara Menyn						+44 1230 615310		
1066	-4.660336	52.0822584						Bara Menyn Patio								
1067	-4.6581199	52.0833336		30	Priory Street	Cardigan / Aberteifi	SA43 1BU									
1068	-4.6582281	52.0833655	Cadwgan		Priory Street	Cardigan / Aberteifi	SA43 1BU									
1069	-4.6582986	52.0833818	Bodeifion		Priory Street	Cardigan / Aberteifi	SA43 1BU									
1070	-4.6583739	52.0834004	Glyn Tivy		Priory Street	Cardigan / Aberteifi	SA43 1BU									
1071	-4.6584557	52.083414	Llwyn On		Priory Street	Cardigan / Aberteifi	SA43 1BU									
1072	-4.6602713	52.0800309		4	Castle Street	Cardigan / Aberteifi	SA43 3AB									
1073	-4.6601319	52.0800131		5	Castle Street	Cardigan / Aberteifi	SA43 3AB	Cyfreithwyr Welch & Co Solicitors						+44 1239 614070		
1074	-4.6600347	52.0798699		6	Castle Street	Cardigan / Aberteifi	SA43 3AB									
1075	-4.6599588	52.0798138		7	Castle Street	Cardigan / Aberteifi	SA43 3AB									
1076	-4.6598997	52.0797778		8	Castle Street	Cardigan / Aberteifi	SA43 3AB									
1077	-4.6598505	52.0797402		9	Castle Street	Cardigan / Aberteifi	SA43 3AB									
1078	-4.6597957	52.0796914		10	Castle Street	Cardigan / Aberteifi	SA43 3AB									
1079	-4.6608817	52.079901			Castle Street	Cardigan / Aberteifi	SA43 3AA									
1080	-4.6607142	52.0797217	Brooklyn Garage		Castle Street	Cardigan / Aberteifi	SA43 3AE	GT Tyres						+44 1239 612814	car_repair	
1081	-4.6609266	52.0797017		27	Castle Street	Cardigan / Aberteifi	SA43 3AE									
1082	-4.6610214	52.0796519		28	Castle Street	Cardigan / Aberteifi	SA43 3AE									
1083	-4.6610727	52.0796394	Afallon	29	Castle Street	Cardigan / Aberteifi	SA43 3AE									
1084	-4.6612359	52.0796149	Garden Cottage		Castle Street	Cardigan / Aberteifi	SA43 3AE									
1085	-4.660301	52.0801222						Cilfach Penbont			square					
1086	-4.657694	52.0827382	Llety		St Mary Street	Cardigan / Aberteifi	SA43 1DH									
1087	-4.6577464	52.0827083	Tŷ Ni		St Mary Street	Cardigan / Aberteifi	SA43 1DH									
1088	-4.6579113	52.0826693	Red Lion Inn		St Mary Street	Cardigan / Aberteifi	SA43 1DH	Red Lion Inn	Llew Coch							
1089	-4.6583816	52.0827407		23	Pwllhai	Cardigan / Aberteifi	SA43 1DD									
1090	-4.6583064	52.0827164		24	Pwllhai	Cardigan / Aberteifi	SA43 1DD									
1091	-4.658205	52.0827027		25	Pwllhai	Cardigan / Aberteifi	SA43 1DD									
1092	-4.6577633	52.0825542	Tŷ'r Santes Fair	1	Church Street	Cardigan / Aberteifi	SA43 1DJ							+44 1442 412230		
1093	-4.6576211	52.082576	Imperial House	2	Church Street	Cardigan / Aberteifi	SA43 1DJ									
1094	-4.6576896	52.082473		7	Church Street	Cardigan / Aberteifi	SA43 1DJ									
1095	-4.6570518	52.0824283		4	Church Street	Cardigan / Aberteifi	SA43 1DJ									
1096	-4.6571771	52.0824535		5	Church Street	Cardigan / Aberteifi	SA43 1DJ									
1097	-4.6572975	52.0824836		6	Church Street	Cardigan / Aberteifi	SA43 1DJ									
1098	-4.6564966	52.0823145	Caerhuan		Church Street	Cardigan / Aberteifi	SA43 1DJ									
1099	-4.6577086	52.08242		1	Gloster Row	Cardigan / Aberteifi	SA43 1DL									
1100	-4.6576474	52.0823917		2	Gloster Row	Cardigan / Aberteifi	SA43 1DL									
1101	-4.6576293	52.0823559		3	Gloster Row	Cardigan / Aberteifi	SA43 1DL									
1102	-4.6575961	52.0823226	Riverside	4	Gloster Row	Cardigan / Aberteifi	SA43 1DL									
1103	-4.6575749	52.082284	River View	5	Gloster Row	Cardigan / Aberteifi	SA43 1DL									
1104	-4.6577244	52.0822055	Teifi House		Gloster Row	Cardigan / Aberteifi	SA43 1DL									
1105	-4.6584411	52.082778		22	Pwllhai	Cardigan / Aberteifi	SA43 1DD									
1106	-4.6584994	52.0828258		22a	Pwllhai	Cardigan / Aberteifi	SA43 1DD									
1107	-4.6586319	52.0827553	Stable Cottage		Pwllhai	Cardigan / Aberteifi	SA43 1DD									
1108	-4.6589616	52.0817872	Pioneer Garage		Strand	Cardigan / Aberteifi	SA43 1EX	J&M Vehicle Repairs & Servicing						+44 1239 612716	car_repair	
1109	-4.6587318	52.0818955	The Boat House		Strand	Cardigan / Aberteifi	SA43 1EX	Cardigan Bay Active						+44 1239 612133		
1110	-4.6587356	52.0819652			Strand	Cardigan / Aberteifi	SA43 1EX									
1111	-4.6592495	52.0818618			Strand	Cardigan / Aberteifi	SA43 1EX									
1112	-4.659109	52.081956		13	Strand	Cardigan / Aberteifi	SA43 1EX									
1113	-4.6592943	52.0817314			Strand	Cardigan / Aberteifi	SA43 1EX									
1114	-4.6593343	52.0816449			Strand	Cardigan / Aberteifi	SA43 1EX									
1115	-4.6573793	52.0822999						Cardigan 2 Sewage Pumping Station	Gorsaf Bwmpio Carthion Cardigan 2							
1116	-4.6545496	52.0873495						Gwbert Road								
1117	-4.6609742	52.0823768		3-4	St. Mary Street	Cardigan / Aberteifi	SA43 1HA	Futureworks	Gwaith yn yr arfaeth					+44 1437 776437		https://www.pembrokeshire.gov.uk/apprenticeships-and-training/futureworks-work-programme
1118	-4.6608512	52.0824197		5	St. Mary Street	Cardigan / Aberteifi	SA43 1HA									
1119	-4.6607662	52.0824443		6	St. Mary Street	Cardigan / Aberteifi	SA43 1HA									
1120	-4.6606251	52.0824851		6A	St. Mary Street	Cardigan / Aberteifi	SA43 1HA	Fairstone Financial Management						+44 1239 800330		https://www.fairstone.co.uk/firms/fairstone-cardigan
1121	-4.6605191	52.0824973		6B	St. Mary Street	Cardigan / Aberteifi	SA43 1HA									
1122	-4.6512026	52.0868233	Cwmdingle		Bryn Hafod	Cardigan/Aberteifi	SA43 1NS									
1123	-4.6510996	52.0867163	Glenydd		Bryn Hafod	Cardigan/Aberteifi	SA43 1NS									
1124	-4.651008	52.0865585	Harddfan		Bryn Hafod	Cardigan/Aberteifi	SA43 1NS									
1125	-4.6508787	52.0863421	Cadfor		Bryn Hafod	Cardigan/Aberteifi	SA43 1NS									
1126	-4.6583822	52.0866143			Maes y Parc	Cardigan / Aberteifi	SA43 1AB	Y Man a'r Lle						+44 1239 612032		https://www.facebook.com/ymanarlle/
1127	-4.6593139	52.0792352		18	Castle Street	Cardigan / Aberteifi	SA43 3AF									
1128	-4.659368	52.0792833		17	Castle Street	Cardigan / Aberteifi	SA43 3AF									
1129	-4.6595244	52.0794757		13	Castle Street	Cardigan / Aberteifi	SA43 3AF									
1130	-4.6594827	52.0794407		14	Castle Street	Cardigan / Aberteifi	SA43 3AF									
1131	-4.6594274	52.0793944	Llyshelig	15	Castle Street	Cardigan / Aberteifi	SA43 3AF									
1132	-4.6593621	52.0793474	Maesbryn	16	Castle Street	Cardigan / Aberteifi	SA43 3AF									
1133	-4.6603586	52.0798452		26	Castle Street	Cardigan / Aberteifi	SA43 3AB									
1134	-4.6602956	52.0797868		25	Castle Street	Cardigan / Aberteifi	SA43 3AB									
1135	-4.6602284	52.079747		24	Castle Street	Cardigan / Aberteifi	SA43 3AB									
1136	-4.6602243	52.0796878	Craig-Afon	23	Castle Street	Cardigan / Aberteifi	SA43 3AB									
1137	-4.6601148	52.0796526		22	Castle Street	Cardigan / Aberteifi	SA43 3AB									
1138	-4.6600374	52.0795954		21	Castle Street	Cardigan / Aberteifi	SA43 3AB									
1139	-4.6607035	52.0801488	Bridge-End House		Castle Street	Cardigan / Aberteifi	SA43 3AA								vacant	
1140	-4.6607819	52.0802181	Bridge Warehouse		Castle Street	Cardigan / Aberteifi	SA43 3AA	Fforest								
1141	-4.6608902	52.0799849	Coynant		Castle Street	Cardigan / Aberteifi	SA43 3AA									
1142	-4.6609391	52.0801004		32	Castle Street	Cardigan / Aberteifi	SA43 3AA									
1143	-4.6610147	52.080073		31	Castle Street	Cardigan / Aberteifi	SA43 3AA									
1144	-4.6610834	52.0800515		30	Castle Street	Cardigan / Aberteifi	SA43 3AA									
1145	-4.6611444	52.0803746						Teifi Wharf								
1146	-4.6613904	52.080315	Granary		Castle Street	Cardigan / Aberteifi	SA43 3AA	Granary Lofts				Bridgend Warehouse				https://www.coldatnight.co.uk/granary-lofts/
1147	-4.6553322	52.0801842		1-4		Cardigan / Aberteifi	SA43 3AG									
1148	-4.6563736	52.0796322		5		Cardigan / Aberteifi	SA43 3AG									
1149	-4.6570624	52.0800614	Station Garage		Station Road	Cardigan / Aberteifi	SA43 3AD	Corbett Williams & Son				Cardigan 4X4 Centre		+44 1239 613164	car	
1150	-4.6575236	52.0799091	Moylgrove Garage			Cardigan / Aberteifi	SA43 3AG	Richards Bros						+44 1239 613756		
1151	-4.6583755	52.0796665	Moylgrove Garage			Cardigan / Aberteifi	SA43 3AG	Richards Bros Bus Maintenance								
1152	-4.6586693	52.0794236				Cardigan / Aberteifi	SA43 3AG	Howdens Joinery						+44 1239 282900	trade	https://www.howdens.com/about-us/contact-your-local-depot/?p=Cardigan&olat=52.079373&olng=-4.657267000000000000&s=Cardigan
1153	-4.6583577	52.0794591		20		Cardigan / Aberteifi	SA43 3AG	Paul Edwards Garage Services						+44 1239 623797	car_repair	
1154	-4.6581238	52.0792017		18		Cardigan / Aberteifi	SA43 3AG									
1155	-4.6567835	52.0792013		27		Cardigan / Aberteifi	SA43 3AG	Dulux Decorator Centre						+44 1239 613749	paint	
1156	-4.6571384	52.07866		31		Cardigan / Aberteifi	SA43 3AG	CTP Fabrications						+44 1239 614971		
1157	-4.6566124	52.0787968		24		Cardigan / Aberteifi	SA43 3AG	OxFitness						+44 7961 027053		https://www.facebook.com/OxFitnessUnit24/
1158	-4.6563573	52.0784739		25		Cardigan / Aberteifi	SA43 3AG	Heritage Designs						+44 1239 614462		
1159	-4.6555371	52.0778821		1		Cardigan / Aberteifi	SA43 3AL	Teifimania						+44 1239 615772		https://www.facebook.com/teifimania/
1160	-4.6556022	52.0780483		2		Cardigan / Aberteifi	SA43 3AL	Wynnstay Country Store						+44 1239 810083	country_store	https://www.wynnstayonline.co.uk/wynnstay-country-store-cardigan-53-53/
1161	-4.6556191	52.0783205		4		Cardigan / Aberteifi	SA43 3AL									
1162	-4.6553307	52.0791821		5-8		Cardigan / Aberteifi	SA43 3AL									
1163	-4.6558332	52.086947		72	North Road	Cardigan / Aberteifi	SA43 1AA									
1164	-4.6557894	52.0869699	Tŷ Mair		North Road	Cardigan / Aberteifi	SA43 1AA									
1165	-4.6557479	52.0869909		74	North Road	Cardigan / Aberteifi	SA43 1AA									
1166	-4.655904	52.0869114	Montimirail	70	North Road	Cardigan / Aberteifi	SA43 1AA									
1167	-4.6560706	52.0868264	Umsinga	66	North Road	Cardigan / Aberteifi	SA43 1AA									
1168	-4.6561477	52.0867882		64	North Road	Cardigan / Aberteifi	SA43 1AA									
1169	-4.6559904	52.0868681	Aelwyd	68	North Road	Cardigan / Aberteifi	SA43 1AA									
1170	-4.6562188	52.0867532	Coedfryn	62	North Road	Cardigan / Aberteifi	SA43 1AA									
1171	-4.6562905	52.0867244		60	North Road	Cardigan / Aberteifi	SA43 1AA									
1172	-4.6563557	52.0866973		58	North Road	Cardigan / Aberteifi	SA43 1AA									
1173	-4.6564236	52.0866695		56	North Road	Cardigan / Aberteifi	SA43 1AA									
1174	-4.656492	52.0866423	Gwersydd	54	North Road	Cardigan / Aberteifi	SA43 1AA									
1175	-4.6565739	52.0866128	Claverley	52	North Road	Cardigan / Aberteifi	SA43 1AA									
1176	-4.6566626	52.0865753	Cwmconnell	50	North Road	Cardigan / Aberteifi	SA43 1AA									
1177	-4.6567594	52.0865378	Ealing Dene	48	North Road	Cardigan / Aberteifi	SA43 1AA									
1178	-4.6568352	52.0864989	Glenhurst	46	North Road	Cardigan / Aberteifi	SA43 1AA									
1179	-4.656922	52.0864544		44	North Road	Cardigan / Aberteifi	SA43 1AA									
1180	-4.6570001	52.0864265		42	North Road	Cardigan / Aberteifi	SA43 1AA									
1181	-4.6570742	52.0863979		40	North Road	Cardigan / Aberteifi	SA43 1AA									
1182	-4.6564159	52.0832703		1	Pont-y-Cleifion	Cardigan / Aberteifi	SA43 1DW	Area 43						+44 1239 614566		
1183	-4.6563097	52.0832373		2-3	Pont-y-Cleifion	Cardigan / Aberteifi	SA43 1DW	Cardigan Youth Centre	Canolfan Ieuenctid Aberteifi							
1184	-4.6561992	52.0832448		4	Pont-y-Cleifion	Cardigan / Aberteifi	SA43 1DW									
1185	-4.6559299	52.0832667	Cysgodyllan	7	Pont-y-Cleifion	Cardigan / Aberteifi	SA43 1DW									
1186	-4.6560254	52.083259		6	Pont-y-Cleifion	Cardigan / Aberteifi	SA43 1DW									
1187	-4.656089	52.0832531		5	Pont-y-Cleifion	Cardigan / Aberteifi	SA43 1DW									
1188	-4.6557758	52.0832976	Woodbine Cottage	8	Pont-y-Cleifion	Cardigan / Aberteifi	SA43 1DW									
1189	-4.6556451	52.0833261		9	Pont-y-Cleifion	Cardigan / Aberteifi	SA43 1DW									
1190	-4.6555722	52.083334		10	Pont-y-Cleifion	Cardigan / Aberteifi	SA43 1DW									
1191	-4.6554573	52.0833329	Clovelly		Pont-y-Cleifion	Cardigan / Aberteifi	SA43 1DW									
1192	-4.6549881	52.0834635	Wrthy Llan		Pont-y-Cleifion	Cardigan / Aberteifi	SA43 1DW									
1193	-4.6548823	52.0834635	Ivyleigh		Pont-y-Cleifion	Cardigan / Aberteifi	SA43 1DW									
1194	-4.6546997	52.08346	Hendy		Pont-y-Cleifion	Cardigan / Aberteifi	SA43 1DW									
1195	-4.6545663	52.0834565	Grasmere		Pont-y-Cleifion	Cardigan / Aberteifi	SA43 1DW									
1196	-4.6610506	52.0801176						Cardigan 3 Sewage Pumping Station	Gorsaf Bwmpio Carthion Cardigan 3							
1197	-4.6605618	52.08011						Eagle Inn Cardigan Pumping Station	Gorsaf Bwmpio Eagle Inn Cardigan							
1198	-4.6571345	52.0830926						Finch's Square								
1199	-4.6519115	52.0880132						Aberystwyth Road	Heol Aberystwyth							
1200	-4.6513261	52.0854096						Heol Hafod								
1201	-4.6534863	52.0874411						Aberystwyth Road	Heol Aberystwyth							
1202	-4.6536555	52.0896011						Greenland Meadows								
1203	-4.6538793	52.0899605						Greenland Meadows								
1204	-4.6562	52.090427						Gwbert Road								
1205	-4.6510159	52.0914241						Maesglas								
1206	-4.6517185	52.0911315						Maesglas								
1207	-4.6599426	52.084883						Pendre								
1208	-4.6605376	52.0842362						Pendre								
1209	-4.651727	52.0859377		9	Heol Hafod	Cardigan / Aberteifi	SA43 1DT									
1210	-4.6516097	52.0859268		11	Heol Hafod	Cardigan / Aberteifi	SA43 1DT									
1211	-4.6514893	52.0859178		11	Heol Hafod	Cardigan / Aberteifi	SA43 1DT									
1212	-4.6513369	52.0859047		12	Heol Hafod	Cardigan / Aberteifi	SA43 1DT									
1213	-4.6512181	52.0858968		13	Heol Hafod	Cardigan / Aberteifi	SA43 1DT									
1214	-4.6510947	52.0858823		14	Heol Hafod	Cardigan / Aberteifi	SA43 1DT									
1215	-4.6510252	52.0856131	Erw Fychan	26	Heol Hafod	Cardigan / Aberteifi	SA43 1DT									
1216	-4.6516112	52.0857216		8	Heol Hafod	Cardigan/Aberteifi	SA43 1DT									
1217	-4.6515061	52.0856953		7	Heol Hafod	Cardigan/Aberteifi	SA43 1DT									
1218	-4.6514135	52.0856306		6	Heol Hafod	Cardigan / Aberteifi	SA43 1DT									
1219	-4.651445	52.0855713		5	Heol Hafod	Cardigan / Aberteifi	SA43 1DT									
1220	-4.6515035	52.0855027		4	Heol Hafod	Cardigan / Aberteifi	SA43 1DT									
1221	-4.6509863	52.0854205		27	Heol Hafod	Cardigan / Aberteifi	SA43 1DT									
1222	-4.651084	52.0853658		28	Heol Hafod	Cardigan / Aberteifi	SA43 1DT									
1223	-4.6511665	52.0853136		29	Heol Hafod	Cardigan / Aberteifi	SA43 1DT									
1224	-4.6512435	52.0852693		30	Heol Hafod	Cardigan / Aberteifi	SA43 1DT									
1225	-4.6513392	52.0852104		31	Heol Hafod	Cardigan / Aberteifi	SA43 1DT									
1226	-4.6514977	52.0851137		32	Heol Hafod	Cardigan / Aberteifi	SA43 1DT									
1227	-4.6515891	52.0850568		33	Heol Hafod	Cardigan / Aberteifi	SA43 1DT									
1228	-4.6516811	52.085		34	Heol Hafod	Cardigan / Aberteifi	SA43 1DT									
1229	-4.6517545	52.0849601		35	Heol Hafod	Cardigan / Aberteifi	SA43 1DT									
1230	-4.6517785	52.0851201						Heol Hafod								
1231	-4.6522888	52.0851652		1	Heol Hafod	Cardigan / Aberteifi	SA43 1DT									
1232	-4.6521857	52.0851468		2	Heol Hafod	Cardigan / Aberteifi	SA43 1DT									
1233	-4.6520812	52.0851233		3	Heol Hafod	Cardigan / Aberteifi	SA43 1DT									
1234	-4.6520525	52.0847694		83	Bro Teifi	Cardigan / Aberteifi	SA43 1DQ									
1235	-4.6521047	52.0847832		82	Bro Teifi	Cardigan / Aberteifi	SA43 1DQ									
1236	-4.6521572	52.0847951		81	Bro Teifi	Cardigan / Aberteifi	SA43 1DQ									
1237	-4.6522116	52.084804		80	Bro Teifi	Cardigan / Aberteifi	SA43 1DQ									
1238	-4.6522778	52.0848637		79	Bro Teifi	Cardigan / Aberteifi	SA43 1DQ									
1239	-4.6523568	52.0848852		78	Bro Teifi	Cardigan / Aberteifi	SA43 1DQ									
1240	-4.6524392	52.084888		77	Bro Teifi	Cardigan / Aberteifi	SA43 1DQ									
1241	-4.6525184	52.0849119		76	Bro Teifi	Cardigan / Aberteifi	SA43 1DQ									
1242	-4.6528546	52.0862198		9	Bro Teifi	Cardigan / Aberteifi	SA43 1DS									
1243	-4.6527988	52.0861575		10	Bro Teifi	Cardigan / Aberteifi	SA43 1DS									
1244	-4.652741	52.0860967		11	Bro Teifi	Cardigan / Aberteifi	SA43 1DS									
1245	-4.6524764	52.0855846		12	Bro Teifi	Cardigan / Aberteifi	SA43 1DS									
1246	-4.6525176	52.0855203		13	Bro Teifi	Cardigan / Aberteifi	SA43 1DS									
1247	-4.6525521	52.0854575		14	Bro Teifi	Cardigan / Aberteifi	SA43 1DS									
1248	-4.6525981	52.085388		15	Bro Teifi	Cardigan / Aberteifi	SA43 1DS									
1249	-4.6526971	52.085926		11A	Bro Teifi	Cardigan / Aberteifi	SA43 1DS									
1250	-4.6526294	52.0858436		11B	Bro Teifi	Cardigan / Aberteifi	SA43 1DS									
1251	-4.6526733	52.0852982		41	Bro Teifi	Cardigan / Aberteifi	SA43 1DQ									
1252	-4.6527413	52.0852385		42	Bro Teifi	Cardigan / Aberteifi	SA43 1DQ									
1253	-4.6528154	52.0851811		43	Bro Teifi	Cardigan / Aberteifi	SA43 1DQ									
1254	-4.6528659	52.0851076	Tegfan	44	Bro Teifi	Cardigan / Aberteifi	SA43 1DQ									
1255	-4.6529118	52.0850684		45	Bro Teifi	Cardigan / Aberteifi	SA43 1DQ									
1256	-4.6606178	52.0823016		46	St. Mary Street	Cardigan / Aberteifi	SA43 1HA									
1257	-4.660733	52.0822942		47-48	St. Mary Street	Cardigan / Aberteifi	SA43 1HA	Pritchard & Co						+44 1239 612475		
1258	-4.6608355	52.0822549		49	St. Mary Street	Cardigan / Aberteifi	SA43 1HA	Seagull						+44 1239 623790	toys	
1259	-4.6608952	52.0822417		50	St. Mary Street	Cardigan / Aberteifi	SA43 1HA									
1260	-4.6609827	52.0822257		51	St. Mary Street	Cardigan / Aberteifi	SA43 1HA									
1261	-4.6610715	52.0822335		52	St. Mary Street	Cardigan / Aberteifi	SA43 1HA									
1262	-4.6826854	52.0820001	Brohedyn		Feidr Fawr	St Dogmaels	SA43 3EP									
1263	-4.6827262	52.0820429	Tegfryn	1	Grove Terrace	St Dogmaels	SA43 3ER									
1264	-4.6827652	52.082086		2	Grove Terrace	St Dogmaels	SA43 3ER									
1265	-4.6828156	52.0821229	Hafab	3	Grove Terrace	St Dogmaels	SA43 3ER									
1266	-4.6828618	52.082162	Lyndale	4	Grove Terrace	St Dogmaels	SA43 3ER									
1267	-4.6828817	52.0822041		5	Grove Terrace	St Dogmaels	SA43 3ER									
1268	-4.6829073	52.0822472		6	Grove Terrace	St Dogmaels	SA43 3ER									
1269	-4.6828787	52.0822947	Bronllwyn	7	Grove Terrace	St Dogmaels	SA43 3ER									
1270	-4.6829051	52.082332		8	Grove Terrace	St Dogmaels	SA43 3ER									
1271	-4.6831098	52.0829341						Feidr Fawr								
1272	-4.682971	52.0821221						Feidr Fawr								
1273	-4.6824538	52.0819123	Mariners		High Street	St Dogmaels	SA43 3EF									
1274	-4.6822977	52.0819529	Telynfa		High Street	St Dogmaels	SA43 3EF	Oriel Milgi B&B						+44 1239 612556		
1275	-4.6829212	52.0825935						St Dogmaels War Memorial								https://www.wwwmp.co.uk/pembrokeshire-memorials/st-dogmael-s-war-memorial/https://www.wwwmp.co.uk/pembrokeshire-memorials/st-dogmael-s-war-memorial/
1276	-4.6821728	52.0819808	Violet House		High Street	St Dogmaels	SA43 3EF									
1277	-4.6820469	52.0820092	The Villa		High Street	St Dogmaels	SA43 3EF									
1278	-4.6819256	52.0819909	Craig Yr Hesg		High Street	St Dogmaels	SA43 3EF									
1279	-4.681832	52.0820523			High Street	St Dogmaels	SA43 3EF	Premier						+44 1239 612087	convenience	https://www.facebook.com/Premier-st-Dogmaels-386302788188770/
1280	-4.6826416	52.0819169						Sgwar Halket Square	Sgwar Halket		square					
1281	-4.681684	52.0819822	Belmont		High Street	St Dogmaels	SA43 3EF									
1282	-4.6815753	52.0820286	Llys Cynwyl		High Street	St Dogmaels	SA43 3EF									
1283	-4.6814518	52.0820197	Lion House		High Street	St Dogmaels	SA43 3EF									
1284	-4.6813283	52.0820151	Albro		High Street	St Dogmaels	SA43 3EF									
1285	-4.6812057	52.0820511	Britannia		High Street	St Dogmaels	SA43 3EF									
1286	-4.6810882	52.0820173	Milo		High Street	St Dogmaels	SA43 3EF									
1287	-4.6809959	52.0820224	Fern House		High Street	St Dogmaels	SA43 3EF									
1288	-4.6808941	52.0819622	Angorfa		High Street	St Dogmaels	SA43 3EF									
1289	-4.680811	52.0819843	Ardwyn		High Street	St Dogmaels	SA43 3EF									
1290	-4.6807313	52.0819818	Eryl		High Street	St Dogmaels	SA43 3EF									
1291	-4.6806649	52.0819763	Sloop		High Street	St Dogmaels	SA43 3EF									
1292	-4.6805451	52.0819634	Rose Cottage		High Street	St Dogmaels	SA43 3EF									
1293	-4.6804628	52.0819749	Llys Yr Eog		High Street	St Dogmaels	SA43 3EF									
1294	-4.6803743	52.0819832	Rosario		High Street	St Dogmaels	SA43 3EF									
1295	-4.6802958	52.0819786	Y Wennol		High Street	St Dogmaels	SA43 3EF									
1296	-4.6798103	52.0815704	Arosfa		Finch Street	St Dogmaels	SA43 3EA									
1297	-4.6801171	52.0816183		1	High Street	St Dogmaels	SA43 3ED	St Dogmaels Post Office								
1298	-4.680246	52.0816623		2	High Street	St Dogmaels	SA43 3ED	Bowen's Fish and Chips	Sgod a Sglod Bowen's					+44 1239 613814		
1299	-4.6774579	52.0814233						B V Rees Cyf						+44 1239 612025	car	http://www.bvrees.com/pages/ssangyong
1300	-4.6774277	52.0810719		"1, Brooklyn Villas"	St. Dogmaels Road	St Dogmaels	SA43 3HR									
1301	-4.6774972	52.0810984		"2, Brooklyn Villas"	St. Dogmaels Road	St Dogmaels	SA43 3HR									
1302	-4.6794409	52.0811682	Rhyd Y Felin		Mill Street	St Dogmaels	SA43 3DY									
1303	-4.679304	52.0812193	Ger-Y-Felin		Mill Street	St Dogmaels	SA43 3DY									
1304	-4.6790785	52.0812922	Mrytle House		Mill Street	St Dogmaels	SA43 3DY									
1305	-4.6788829	52.0813943	Glan-Yr-Afon		Mill Street	St Dogmaels	SA43 3DY									
1306	-4.6791825	52.0810536	Mill House		Mill Street	St Dogmaels	SA43 3DY									
1307	-4.6789903	52.0811074	Y Felin		Mill Street	St Dogmaels	SA43 3DY	Y Felin						+44 1239 613999		
1308	-4.6789213	52.0811995	Gwalia		Mill Street	St Dogmaels	SA43 3DY									
1309	-4.6783155	52.0816002		"1, Penally Mews"		St Dogmaels	SA43 3HR									
1310	-4.6782012	52.0816308		"2, Penally Mews"		St Dogmaels	SA43 3HR									
1311	-4.6796799	52.0815702		1	Finch Street	St Dogmaels	SA43 3EA									
1312	-4.6795815	52.0815711		2	Finch Street	St Dogmaels	SA43 3EA									
1313	-4.6795079	52.081591		3	Finch Street	St Dogmaels	SA43 3EA									
1314	-4.6793995	52.0815796	Dychwelfa		Finch Street	St Dogmaels	SA43 3EA									
1315	-4.6786661	52.0817381	The Manse		Finch Street	St Dogmaels	SA43 3EA									
1316	-4.6784623	52.0816815	Gilfach		Finch Street	St Dogmaels	SA43 3EA									
1317	-4.6789843	52.0817534			Finch Street	St Dogmaels	SA43 3EA	White Hart Inn						+44 1239 612099		
1318	-4.6832375	52.0824935	Fern Grove		Feidr Fawr	St Dogmaels	SA43 3EU									
1319	-4.6828333	52.0819304	Delfan		Feidr Fawr	St Dogmaels	SA43 3EP									
1320	-4.6827987	52.0818945	Tŷ Fioled		Feidr Fawr	St Dogmaels	SA43 3EP									
1321	-4.6828935	52.0819577	Cartrefle		Feidr Fawr	St Dogmaels	SA43 3EP									
1322	-4.6828963	52.0819954		1A	Feidr Fawr	St Dogmaels	SA43 3EP									
1323	-4.6828875	52.082424	Grove Villa		Feidr Fawr	St Dogmaels	SA43 3EP									
1324	-4.6827167	52.0824462	Y Nyth		Feidr Fawr	St Dogmaels	SA43 3EU									
1325	-4.6823279	52.0817063	Tŷ Afal	25	High Street	St Dogmaels	SA43 3EJ									
1326	-4.6824433	52.0816911	Dolphin Cottage	26	High Street	St Dogmaels	SA43 3EJ									
1327	-4.6825373	52.0816803	Poppit Cottage	27	High Street	St Dogmaels	SA43 3EJ									
1328	-4.6826413	52.0816547		28	High Street	St Dogmaels	SA43 3EJ									
1329	-4.6789127	52.0804061	Abbey Garage		Shingrig	St Dogmaels	SA43 3DX	B V Rees Cyf						+44 1239 612025	car	http://www.bvrees.com/pages/fiat
1330	-4.6800547	52.0818032	Mount Pleasant		High Street	St Dogmaels	SA43 3EF									
1331	-4.6799049	52.0818758	Mount Pleasant Cottage		High Street	St Dogmaels	SA43 3EF									
1332	-4.6799704	52.0814984	Croes Y Llan		Church Street	St Dogmaels	SA43 3EB									
1333	-4.6800212	52.0815595	Maes y Felin		Church Street	St Dogmaels	SA43 3EB									
1334	-4.6809195	52.0833187						Alexandra Gardens Car Park								
1335	-4.6811583	52.0832455	Teifi Netpool Inn			St Dogmaels	SA43 3ET	Teifi Netpool Inn						+44 1239 612 680		
1336	-4.680293	52.0817154	Llysycoed		High Street	St Dogmaels	SA43 3ED									
1337	-4.6803666	52.0817266	Glascoed		High Street	St Dogmaels	SA43 3ED									
1338	-4.6772935	52.0816397				St Dogmaels										
1339	-4.6795418	52.0806195	The Coach House		Shingrig	St Dogmaels	SA43 3DX									
1340	-4.6862732	52.0741226						Cwm								
1341	-4.6776398	52.0818951						St Dogmaels Sewage Pumping Station	Gorsaf Bwmpio Carthion St Dogmaels							
1342	-4.6781952	52.0815034						Water Street								
1343	-4.6783642	52.0813902	Garth		David Street	St Dogmaels	SA43 3HT									
1344	-4.6783401	52.0813429	Tynwald		David Street	St Dogmaels	SA43 3HT									
1345	-4.6783282	52.0812917	Crynga		David Street	St Dogmaels	SA43 3HT									
1346	-4.6612582	52.0876387						Afon Mwldan								
1347	-4.6812912	52.0828998				St Dogmaels	SA43 3ET	Ysgol Llandudoch School	Ysgol Gymunedol Llandudoch					+44 1239 613596		
1348	-4.655435	52.0787356						Parc Piliau Industrial Estate								
1349	-4.6559006	52.0795941				Cardigan / Aberteifi	SA43 3AL	Porter Cabin						+44 7907 284558		
1350	-4.6565993	52.0795547		6		Cardigan / Aberteifi	SA43 3AG	growitmowit						+44 1239 613420	doityourself	
1351	-4.6587952	52.0797894	Arfryn		Station Road	Cardigan / Aberteifi	SA43 3AD									
1352	-4.6558139	52.0808712			Station Road	Cardigan / Aberteifi	SA43 3AD	HRS Refrigeration								
1353	-4.6520346	52.0795135						Afon Piliau								
1354	-4.6510828	52.0785005						Afon Piliau								
1355	-4.6710167	52.0674399						Cardigan County Showground				Briscwm Fields		+44 1545 570501		
1356	-4.6646573	52.0664114	Pentwd Uchaf Farm		Fishguard Road	Cardigan / Aberteifi	SA43 3DR	Cardigan Camping and Caravan Site						+44 7773 721316		
1357	-4.6640999	52.0664758						Utility Block and Office								
1358	-4.6628002	52.0660448	Pentwd Uchaf Farm		Fishguard Road	Cardigan / Aberteifi	SA43 3DR	Pentwd Uchaf Farmhouse								
1359	-4.6687011	52.0711532	"Erw Fach, Parc Y Pratt"		Fishguard Road	Cardigan / Aberteifi	SA43 3DR									
1360	-4.6667034	52.0707968	Parc Y Pratt		Fishguard Road	Cardigan / Aberteifi	SA43 3DR									
1361	-4.6552044	52.0783816		3		Cardigan / Aberteifi	SA43 3AL	LBS Builders Merchants						+44 1239 613413	trade	http://www.lbsbm.co.uk/contact.asphttp://www.lbsbm.co.uk/contact.asp
1362	-4.6563383	52.0782837		26		Cardigan / Aberteifi	SA43 3AG	JJ & PT Williams & Sons						+44 1239 612218		
1363	-4.6570108	52.0784992		32		Cardigan / Aberteifi	SA43 3AG	Quartz Coat						+44 1239 614812		
1364	-4.6582203	52.0795116		19		Cardigan / Aberteifi	SA43 3AG	PK Windows (Wales)						+44 1239 613834		
1365	-4.6565024	52.0788211		23		Cardigan / Aberteifi	SA43 3AG									
1366	-4.6563616	52.0788849		22		Cardigan / Aberteifi	SA43 3AG	City Electrical Factors						+44 1239 621233	trade	
1367	-4.6562439	52.0789107		21		Cardigan / Aberteifi	SA43 3AG	Cardigan Building Plastics						+44 1239 621066	trade	
1368	-4.6579535	52.0795934		10		Cardigan / Aberteifi	SA43 3AG									
1369	-4.6578231	52.0796471		9		Cardigan / Aberteifi	SA43 3AG									
1370	-4.6577061	52.0796796		8		Cardigan / Aberteifi	SA43 3AG									
1371	-4.657508	52.0797565		7		Cardigan / Aberteifi	SA43 3AG									
1372	-4.6578839	52.0796158		9-10		Cardigan / Aberteifi	SA43 3AG	O&M Laundry						+44 1239 621791	laundry	https://www.facebook.com/OM-laundry-887757764656885/
1373	-4.6579872	52.079253		17		Cardigan / Aberteifi	SA43 3AG									
1374	-4.6580573	52.079232		17-18		Cardigan / Aberteifi	SA43 3AG	Coastguard Rescue Station	Gorsaf Achub Gwylwyr y Glannau							https://www.facebook.com/HM-Coastguard-Cardigan-205822279575268/
1375	-4.6575721	52.0797239		7-8		Cardigan / Aberteifi	SA43 3AG	M & E Pearce Engineering and Fixings						+44 1239 621483		
1376	-4.656989	52.0791246		28		Cardigan / Aberteifi	SA43 3AG									
1377	-4.6571613	52.0790546		29		Cardigan / Aberteifi	SA43 3AG									
1378	-4.6573566	52.078989		30		Cardigan / Aberteifi	SA43 3AG									
1379	-4.6570785	52.0790903		28-29		Cardigan / Aberteifi	SA43 3AG	City Plumbing Supplies						+44 1239 622920	trade	https://www.cityplumbing.co.uk/branch/4962
1380	-4.6569051	52.0794425		11		Cardigan / Aberteifi	SA43 3AG									
1381	-4.6570888	52.0793803		12		Cardigan / Aberteifi	SA43 3AG	Arjay Factors						+44 1239 613613	car_parts	
1382	-4.6572145	52.079347		13		Cardigan / Aberteifi	SA43 3AG	MS Oxygen Therapy Centre						+44 1239 613210		http://www.msntc.org.uk/find-a-centre/ms-oxygen-therapy-centre-cardigan/
1383	-4.6573958	52.079277		14		Cardigan / Aberteifi	SA43 3AG	Wolseley						+44 1239 621906	trade	
1384	-4.6575271	52.0792451		15		Cardigan / Aberteifi	SA43 3AG	E & M Motor Factors						+44 1239 801999	trade	
1385	-4.6577049	52.0791743		16		Cardigan / Aberteifi	SA43 3AG	Bragdy Mantle Brewery	Bragdy Mantle					+44 1239 623898		
1386	-4.6574244	52.0681958	Forest Hill			Cardigan / Aberteifi	SA43 3NH									
1387	-4.6589665	52.0702176	Troedyrhiw			Cardigan / Aberteifi	SA43 3NH									
1388	-4.6589075	52.0698158	Rising Sun			Cardigan / Aberteifi	SA43 3NH									
1389	-4.6594656	52.0718419	Maesycoed		Fishguard Road	Cardigan / Aberteifi	SA43 3DR									
1390	-4.6601028	52.0711239	Penrhiw		Fishguard Road	Cardigan / Aberteifi	SA43 3DR									
1391	-4.6602011	52.0704739	Pwll y Meidw		Fishguard Road	Cardigan / Aberteifi	SA43 3DR									
1392	-4.6546881	52.0669926						Afon Piliau								
1393	-4.6574533	52.0618988						Afon Piliau								
1394	-4.6582736	52.0618962						Glanpwllafon Bridge								
1395	-4.6542789	52.0775437	Pentwd-Isaf			Cardigan / Aberteifi	SA43 3NG									
1396	-4.6563134	52.0810799			"Station Yard, Station Road"	Cardigan / Aberteifi	SA43 3AD	Tivy Tyres						+44 1239 615888	tyres	https://www.facebook.com/Tivytyres/
1397	-4.6576054	52.0810722	Ynys Marine Workshop		Station Yard		SA43 3AD	Maintenance & Engineering Services								
1398	-4.6579341	52.0808922						Cardigan 5 Sewage Pumping Station	Gorsaf Bwmpio Carthion Cardigan 5							
1399	-4.6578565	52.0799584						Richards Bros Bus Depot								
1400	-4.6594216	52.0800786	Mercantile Yard		Station Road	Cardigan / Aberteifi	SA43 3AD	Jewson						+44 1239 613511	trade	https://www.jewson.co.uk/branch-locator/branch-details/?Location=sa43+3ad&BranchId=833&Distance=0
1401	-4.656886	52.0686569	Bro-teifi			Cardigan / Aberteifi	SA43 3NH									
1402	-4.6579082	52.0690912	Llysteg			Cardigan / Aberteifi	SA43 3NH									
1403	-4.652679	52.077921						Heron Hide								
1404	-4.6831917	52.0817786	Bethsaida		High Street	St Dogmaels	SA43 3EQ	Bethsaida Bed & Breakfast						+44 1239 615479		
1405	-4.6827636	52.0818402	Corner House		High Street	St Dogmaels	SA43 3EQ									
1406	-4.682864	52.0818089			High Street	St Dogmaels	SA43 3EQ									
1407	-4.6829337	52.0817859			High Street	St Dogmaels	SA43 3EQ									
1408	-4.6830118	52.0817695	Selah		High Street	St Dogmaels	SA43 3EQ									
1409	-4.683268	52.0816553	Brynivor		High Street	St Dogmaels	SA43 3EQ									
1410	-4.6827847	52.0816411	Crug-y-Deri		High Street	St Dogmaels	SA43 3EJ									
1411	-4.6828975	52.0816018			High Street	St Dogmaels	SA43 3EJ									
1412	-4.6829771	52.0815638	Norwood House		High Street	St Dogmaels	SA43 3EJ									
1413	-4.6830662	52.0815417	Dryslwyn		High Street	St Dogmaels	SA43 3EJ									
1414	-4.6831435	52.08149	Y Dryw		High Street	St Dogmaels	SA43 3EJ									
1415	-4.682192	52.0817261	Frondeg		High Street	St Dogmaels	SA43 3EJ									
1416	-4.6820549	52.0817289	Cannon House		High Street	St Dogmaels	SA43 3EJ									
1417	-4.6819577	52.0817359	Penar		High Street	St Dogmaels	SA43 3EJ									
1418	-4.6818731	52.0817628	Nythfa		High Street	St Dogmaels	SA43 3EJ									
1419	-4.6817945	52.0816954	Carno		High Street	St Dogmaels	SA43 3EJ									
1420	-4.681687	52.0816887	Glannant		High Street	St Dogmaels	SA43 3EJ									
1421	-4.6815786	52.0818001			High Street	St Dogmaels	SA43 3EJ	Oriel Llandudoch						+44 1239 612292	art	https://www.facebook.com/stdogmaelsgallery/
1422	-4.6814615	52.0818083	Gorlan		High Street	St Dogmaels	SA43 3EJ									
1423	-4.6813065	52.0818221	Commercial House		High Street	St Dogmaels	SA43 3ED									
1424	-4.6811469	52.0818138	Ty Rhedin		High Street	St Dogmaels	SA43 3ED					Tyrhedin				
1425	-4.6810289	52.0818106	Pembroke House		High Street	St Dogmaels	SA43 3ED									
1426	-4.6806249	52.0817996	Almora	"1, Pembroke Terrace"	High Street	St Dogmaels	SA43 3EE									
1427	-4.6806936	52.0818082	Delfan	"2, Pembroke Terrace"	High Street	St Dogmaels	SA43 3EE									
1428	-4.6807628	52.0817975		"3, Pembroke Terrace"	High Street	St Dogmaels	SA43 3EE									
1429	-4.6808397	52.0818177	Hafan Dawel	"4, Pembroke Terrace"	High Street	St Dogmaels	SA43 3EE									
1430	-4.6809225	52.0818051		"5, Pembroke Terrace"	High Street	St Dogmaels	SA43 3EE									
1431	-4.6804405	52.0817465	Richmond		High Street	St Dogmaels	SA43 3ED									
1432	-4.6805134	52.081753	Amblestone Cottage		High Street	St Dogmaels	SA43 3ED									
1433	-4.6805517	52.0817939	Amblestone House		High Street	St Dogmaels	SA43 3ED									
1434	-4.6785864	52.0820099	Fairview		Finch Street	St Dogmaels	SA43 3EA									
1435	-4.6789427	52.08196	Llwynbedw		Finch Street	St Dogmaels	SA43 3EA									
1436	-4.6791571	52.0819078	Capel Sion		Finch Street	St Dogmaels	SA43 3EA									http://www.glen-johnson.co.uk/capel-seion-c-m-chapel/
1437	-4.6792985	52.0818717	Tŷ Capel Seion		Finch Street	St Dogmaels	SA43 3EA					Capel Seion House				
1438	-4.678145	52.0819077	Penally House			St Dogmaels	SA43 3HR									
1439	-4.6792044	52.0818951		"1, Capel Seion Cottages"	Finch Street	St Dogmaels	SA43 3EA									
1440	-4.6791127	52.0819195		"2, Capel Seion Cottages"	Finch Street	St Dogmaels	SA43 3EA									
1441	-4.679399	52.0842969									islet					
1442	-4.6785184	52.0854127	Old Castle Farm			Cardigan / Aberteifi	SA43 1PA									
1443	-4.6799772	52.081367	Dunkeld		Church Street	St Dogmaels	SA43 3EB									
1444	-4.6796178	52.0812191	Tynewydd		Church Street	St Dogmaels	SA43 3EB									
1445	-4.6798803	52.0812435	Church House		Church Street	St Dogmaels	SA43 3EB									
1446	-4.6797684	52.0810341						Former Bier House								
1447	-4.6798885	52.0810519						Lychgate								
1448	-4.6795137	52.0846416						Lime Kiln (disused)								
1449	-4.681495	52.0875219						Ferry Inn Jetty								
1450	-4.6823839	52.0868553	Llys Teifi		Union Terrace	St Dogmaels	SA43 3JZ									
1451	-4.6826318	52.0869042	Sincerity House		Pentre Langwm	St Dogmaels	SA43 3JZ									
1452	-4.6826541	52.0867947	Heathfield		Pentre Langwm	St Dogmaels	SA43 3JZ									
1453	-4.6819185	52.0867797	Princess House			St Dogmaels	SA43 3JY									
1454	-4.6833914	52.0865827	Clydfan		Pentre Langwm	St Dogmaels	SA43 3JZ									
1455	-4.6817369	52.0876369	Ferry Inn			St Dogmaels	SA43 3LF	Ferry Inn						+44 1239 615172		
1456	-4.6832841	52.0813917	Y Storws		High Street	St Dogmaels	SA43 3EJ									
1457	-4.6796866	52.1155216				Gwbert	SA43 1PR	Club House						+44 1239 621775		
1458	-4.6737528	52.1134062						10								
1459	-4.6867136	52.1167306						Coastguard Lookout Post								
1460	-4.6864545	52.1047463	F15			Gwbert on Sea	SA43 1PP									
1461	-4.6861993	52.104951	R10			Gwbert on Sea	SA43 1PP									
1462	-4.6869366	52.1051936	F9			Gwbert on Sea	SA43 1PP									
1463	-4.6867913	52.105665	F3			Gwbert on Sea	SA43 1PP									
1464	-4.686195	52.105742	R24			Gwbert on Sea	SA43 1PP									
1465	-4.6860307	52.1057929	R25			Gwbert on Sea	SA43 1PP									
1466	-4.6867451	52.1057898	F2			Gwbert on Sea	SA43 1PP									
1467	-4.6859992	52.1062818	D3			Gwbert on Sea	SA43 1PP									
1468	-4.6859268	52.1061805	D2			Gwbert on Sea	SA43 1PP									
1469	-4.6857805	52.1061139	D1			Gwbert on Sea	SA43 1PP									
1470	-4.6865966	52.1050049	R13			Gwbert on Sea	SA43 1PP									
1471	-4.688196	52.1037292						Pen yr Ergyd				Patch Spit				
1472	-4.6834886	52.081414	Fountain House		High Street	St Dogmaels	SA43 3EQ									
1473	-4.6837006	52.0812445	Underhill		Allt Fach	St Dogmaels	SA43 3HA									
1474	-4.6833942	52.0812455	Abigail House		Baptist Street	St Dogmaels	SA43 3EN									
1475	-4.6831979	52.081262		1	Baptist Street	St Dogmaels	SA43 3EN									
1476	-4.6831317	52.0812929	Ty'r Bont		Baptist Street	St Dogmaels	SA43 3EN									
1477	-4.6832385	52.0812264		2	Baptist Street	St Dogmaels	SA43 3EN									
1478	-4.6832749	52.0811854		3	Baptist Street	St Dogmaels	SA43 3EN									
1479	-4.6833071	52.0811463		4	Baptist Street	St Dogmaels	SA43 3EN									
1480	-4.6833432	52.0811046		5	Baptist Street	St Dogmaels	SA43 3EN									
1481	-4.6833862	52.0809841		"2, Ty-Bryn"	High Street	St Dogmaels	SA43 3EJ									
1482	-4.6833656	52.0810375		"1, Ty-Bryn"	High Street	St Dogmaels	SA43 3EJ									
1483	-4.6836755	52.081509						Allt Fach								
1484	-4.6837824	52.0810694	Adfer		Tan-y-Rhiw	St Dogmaels	SA43 3HB									
1485	-4.6839003	52.0809425	Henllys		Tan-y-Rhiw	St Dogmaels	SA43 3HB									
1486	-4.6840461	52.0807692			Tan-y-Rhiw	St Dogmaels	SA43 3HB									
1487	-4.6840842	52.080733			Tan-y-Rhiw	St Dogmaels	SA43 3HB									
1488	-4.6841311	52.0806653			Tan-y-Rhiw	St Dogmaels	SA43 3HB									
1489	-4.6841741	52.080603			Tan-y-Rhiw	St Dogmaels	SA43 3HB									
1490	-4.6844119	52.0805093		"1, Lewis Terrace"	Trorhiw	St Dogmaels	SA43 3HE									
1491	-4.6842724	52.0806005						Trorhiw								
1492	-4.6843988	52.0805758		"2, Lewis Terrace"	Trorhiw	St Dogmaels	SA43 3HE									
1493	-4.684368	52.0806593		"3, Lewis Terrace"	Trorhiw	St Dogmaels	SA43 3HE									
1494	-4.6844822	52.0803992	Haulfryn		Trorhiw	St Dogmaels	SA43 3HD									
1495	-4.6845857	52.0803949						Trorhiw								
1496	-4.6846884	52.080388	Glanteg		Trorhiw	St Dogmaels	SA43 3HD									
1497	-4.6847557	52.0803197	Fronhaul		Trorhiw	St Dogmaels	SA43 3HD									
1498	-4.6844683	52.0802749	Brynteg		Cwmins	St Dogmaels	SA43 3HF									
1499	-4.6876696	52.0784542						Cwmins								
1500	-4.6846321	52.0801105	Green Hill		Cwmins	St Dogmaels	SA43 3HF									
1501	-4.6847144	52.0799486	Yr Hen Popty		Cwmins	St Dogmaels	SA43 3HF									
1502	-4.6842359	52.0801308	Seabrook House		Cwmins	St Dogmaels	SA43 3HF									
1503	-4.6845774	52.0797329	Brynarfor		Cwmins	St Dogmaels	SA43 3HF									
1504	-4.6846153	52.0796568	Tower Hill		Cwmins	St Dogmaels	SA43 3HF									
1505	-4.6847467	52.0795672	Brynderwen		Cwmins	St Dogmaels	SA43 3HF									
1506	-4.6849524	52.0797531			Cwmins	St Dogmaels	SA43 3HF									
1507	-4.6853274	52.0792228	Rose Cottage		Cwmins	St Dogmaels	SA43 3HF									
1508	-4.6852942	52.0795228	Llysbonfyl		Cwmins	St Dogmaels	SA43 3HF									
1509	-4.6854586	52.0794261	Llechwedd		Cwmins	St Dogmaels	SA43 3HF									
1510	-4.6856264	52.0793358			Cwmins	St Dogmaels	SA43 3HF									
1511	-4.6856569	52.0792733	Gorwel Teg		Cwmins	St Dogmaels	SA43 3HF									
1512	-4.6853841	52.0790717	Pistyll-Y-Llan		Cwmins	St Dogmaels	SA43 3HF									
1513	-4.6861232	52.0790272	Noddfa		Cwmins	St Dogmaels	SA43 3HF									
1514	-4.6862002	52.078948	Montrose		Cwmins	St Dogmaels	SA43 3HF									
1515	-4.6859565	52.079155			Cwmins	St Dogmaels	SA43 3HF									
1516	-4.6861286	52.0787757			Cwmins	St Dogmaels	SA43 3HF									
1517	-4.6860248	52.0788182	Tremymor		Cwmins	St Dogmaels	SA43 3HF									
1518	-4.6861084	52.0786408	Glenydd		Cwmins	St Dogmaels	SA43 3HF									
1519	-4.6863208	52.0784151	North Shore		Cwmins	St Dogmaels	SA43 3HF									
1520	-4.6865857	52.078416	Bwthyn Bryncws		Cwmins	St Dogmaels	SA43 3HF									
1521	-4.6812115	52.105319	Sheko			Gwbert on Sea	SA43 1PP									
1522	-4.6802278	52.1051129	The Haven			Gwbert on Sea	SA43 1PP									
1523	-4.6802158	52.1049489	Hafan Dawel			Gwbert on Sea	SA43 1PP									
1524	-4.6800752	52.105755	Nant Saeson			Gwbert on Sea	SA43 1PP									
1525	-4.6792427	52.1042147		Cilhaul		Gwbert on Sea	SA43 1PP									
1526	-4.6788599	52.1039203	Minymor			Gwbert on Sea	SA43 1PP									
1527	-4.678319	52.1037488	Caerhaul			Gwbert on Sea	SA43 1PP									
1528	-4.6775626	52.1033674	The Dolphin			Gwbert on Sea	SA43 1PP									
1529	-4.682355	52.105748	The Dunes			Gwbert on Sea	SA43 1PP									
1530	-4.6826867	52.1058586	Sealand			Gwbert on Sea	SA43 1PP									
1531	-4.6744188	52.1012277			Gwbert Road	Cardigan / Aberteifi	SA43 1PN	Swallow Yachts						+44 1239 615482		
1532	-4.6746317	52.1017732	Nantyferwig		Gwbert Road	Cardigan / Aberteifi	SA43 1PN									
1533	-4.6608723	52.1082062						Nant Y Ferwig								
1534	-4.6724296	52.1021193	Aberdare		Gwbert Road	Cardigan / Aberteifi	SA43 1PN									
1535	-4.6733318	52.1026311	Cwm Trigfa		Gwbert Road	Cardigan / Aberteifi	SA43 1PN									
1536	-4.6717036	52.1021044			Gwbert Road	Cardigan / Aberteifi	SA43 1PN	Cardigan Classic Cars						+44 1239 613966	car_repair	
1537	-4.6710843	52.1019801	Dragon's Yard		Gwbert Road	Cardigan / Aberteifi	SA43 1PN							+44 1239 1239 614466		
1538	-4.6848755	52.1059484	Patch Caravan Park			Gwbert on Sea	SA43 1PP	Office								
1539	-4.6850453	52.1063291	T1			Gwbert on Sea	SA43 1PP									
1540	-4.6851286	52.1062443	T2			Gwbert on Sea	SA43 1PP									
1541	-4.6850327	52.1061534	T3			Gwbert on Sea	SA43 1PP									
1542	-4.6846618	52.1061152	T4			Gwbert on Sea	SA43 1PP									
1543	-4.684809	52.1063513	T5			Gwbert on Sea	SA43 1PP									
1544	-4.6846744	52.106366	T6			Gwbert on Sea	SA43 1PP									
1545	-4.6845306	52.1063761	T7			Gwbert on Sea	SA43 1PP									
1546	-4.6846951	52.10659	T8			Gwbert on Sea	SA43 1PP									
1547	-4.6847578	52.1066722	T9			Gwbert on Sea	SA43 1PP									
1548	-4.6848147	52.1067501	T10			Gwbert on Sea	SA43 1PP									
1549	-4.6848746	52.1068358	T11			Gwbert on Sea	SA43 1PP									
1550	-4.6849472	52.1069154	T12			Gwbert on Sea	SA43 1PP									
1551	-4.6850149	52.1069937	T14			Gwbert on Sea	SA43 1PP									
1552	-4.6859852	52.1063705	D4			Gwbert on Sea	SA43 1PP									
1553	-4.6859975	52.1064611	D5			Gwbert on Sea	SA43 1PP									
1554	-4.6860187	52.1065452	D6			Gwbert on Sea	SA43 1PP									
1555	-4.6859787	52.1066266	D7			Gwbert on Sea	SA43 1PP									
1556	-4.6859347	52.1067058	D8			Gwbert on Sea	SA43 1PP									
1557	-4.6859231	52.1067917	D9			Gwbert on Sea	SA43 1PP									
1558	-4.6854253	52.1061326	P0			Gwbert on Sea	SA43 1PP									
1559	-4.6854787	52.1062121	P1			Gwbert on Sea	SA43 1PP									
1560	-4.6855372	52.1068298	P9			Gwbert on Sea	SA43 1PP									
1561	-4.6854915	52.106718	P8			Gwbert on Sea	SA43 1PP									
1562	-4.6853848	52.1066348	P7			Gwbert on Sea	SA43 1PP									
1563	-4.6853255	52.106565	P6			Gwbert on Sea	SA43 1PP									
1564	-4.6853134	52.1064804	P5			Gwbert on Sea	SA43 1PP									
1565	-4.6853814	52.1064051	P4			Gwbert on Sea	SA43 1PP									
1566	-4.6855092	52.1063139				Gwbert on Sea	SA43 1PP									
1567	-4.6844321	52.1058691	B1			Gwbert on Sea	SA43 1PP									
1568	-4.6843495	52.1057967	B2			Gwbert on Sea	SA43 1PP									
1569	-4.6842635	52.1057293	B3			Gwbert on Sea	SA43 1PP									
1570	-4.685356	52.1057964				Gwbert on Sea	SA43 1PP	Launderette							laundry	
1571	-4.6854695	52.1056106	B5			Gwbert on Sea	SA43 1PP									
1572	-4.6852677	52.1055377	B6			Gwbert on Sea	SA43 1PP									
1573	-4.6850534	52.1055886	B7			Gwbert on Sea	SA43 1PP									
1574	-4.6848735	52.105624	B7A			Gwbert on Sea	SA43 1PP									
1575	-4.6847396	52.1055839	B8			Gwbert on Sea	SA43 1PP									
1576	-4.684614	52.1055361	B9			Gwbert on Sea	SA43 1PP									
1577	-4.6844876	52.1054893	B10			Gwbert on Sea	SA43 1PP									
1578	-4.6843469	52.1054703	B11			Gwbert on Sea	SA43 1PP									
1579	-4.6843637	52.1052724	B12			Gwbert on Sea	SA43 1PP									
1580	-4.6844349	52.1050579	B14			Gwbert on Sea	SA43 1PP									
1581	-4.684609	52.1049817	B15			Gwbert on Sea	SA43 1PP									
1582	-4.6847562	52.1049347	B16			Gwbert on Sea	SA43 1PP									
1583	-4.6849873	52.1050574	B17			Gwbert on Sea	SA43 1PP									
1584	-4.6848925	52.1051138	B18			Gwbert on Sea	SA43 1PP									
1585	-4.6847964	52.105171	B19			Gwbert on Sea	SA43 1PP									
1586	-4.6847028	52.1052307	B20			Gwbert on Sea	SA43 1PP									
1587	-4.6846068	52.1053055	B21			Gwbert on Sea	SA43 1PP									
1588	-4.6848948	52.1054316	B22			Gwbert on Sea	SA43 1PP									
1589	-4.6849471	52.1053169	B23			Gwbert on Sea	SA43 1PP									
1590	-4.6851413	52.1052123	B24			Gwbert on Sea	SA43 1PP									
1591	-4.6852276	52.1051271	B25			Gwbert on Sea	SA43 1PP									
1592	-4.6851458	52.1053621	B26			Gwbert on Sea	SA43 1PP									
1593	-4.6866953	52.1060079	F1			Gwbert on Sea	SA43 1PP									
1594	-4.6868137	52.1055874	F4			Gwbert on Sea	SA43 1PP									
1595	-4.6868169	52.1055103	F5			Gwbert on Sea	SA43 1PP									
1596	-4.6868358	52.1054291	F6			Gwbert on Sea	SA43 1PP									
1597	-4.6868723	52.1053497	F7			Gwbert on Sea	SA43 1PP									
1598	-4.6869132	52.1052688	F8			Gwbert on Sea	SA43 1PP									
1599	-4.6869738	52.1051329	F10			Gwbert on Sea	SA43 1PP									
1600	-4.6869791	52.1050283	F11			Gwbert on Sea	SA43 1PP									
1601	-4.6869335	52.1049431	F12			Gwbert on Sea	SA43 1PP									
1602	-4.6868603	52.1048715	F13			Gwbert on Sea	SA43 1PP									
1603	-4.6867634	52.1048073	F14			Gwbert on Sea	SA43 1PP									
1604	-4.6871736	52.1048348	F16			Gwbert on Sea	SA43 1PP									
1605	-4.6857236	52.1056737	R1			Gwbert on Sea	SA43 1PP									
1606	-4.6854853	52.1053952	R2			Gwbert on Sea	SA43 1PP									
1607	-4.6855562	52.105328	R3			Gwbert on Sea	SA43 1PP									
1608	-4.6856281	52.1052639	R4			Gwbert on Sea	SA43 1PP									
1609	-4.6856991	52.1052058	R5			Gwbert on Sea	SA43 1PP									
1610	-4.685795	52.1051618	R6			Gwbert on Sea	SA43 1PP									
1611	-4.6858728	52.1051057	R7			Gwbert on Sea	SA43 1PP									
1612	-4.6859567	52.1050483	R8			Gwbert on Sea	SA43 1PP									
1613	-4.6860874	52.1049914	R9			Gwbert on Sea	SA43 1PP									
1614	-4.6863507	52.1049418	R11			Gwbert on Sea	SA43 1PP									
1615	-4.6865172	52.1049476	R12			Gwbert on Sea	SA43 1PP									
1616	-4.686678	52.1050723	R14			Gwbert on Sea	SA43 1PP									
1617	-4.6866247	52.1051594	R15			Gwbert on Sea	SA43 1PP									
1618	-4.6865756	52.1052239	R16			Gwbert on Sea	SA43 1PP									
1619	-4.6865055	52.1052927	R17			Gwbert on Sea	SA43 1PP									
1620	-4.6864853	52.1053722	R18			Gwbert on Sea	SA43 1PP									
1621	-4.6864812	52.1054472	R19			Gwbert on Sea	SA43 1PP									
1622	-4.6864812	52.1055204	R20			Gwbert on Sea	SA43 1PP									
1623	-4.6864448	52.1056632	R22			Gwbert on Sea	SA43 1PP									
1624	-4.6856813	52.1058163	R26			Gwbert on Sea	SA43 1PP									
1625	-4.68649	52.105583	R21			Gwbert on Sea	SA43 1PP									
1626	-4.6863335	52.10576	R23			Gwbert on Sea	SA43 1PP									
1627	-4.6882744	52.1182902						Cliff Hotel Golf Course								
1628	-4.6905505	52.1195225						Lime Kiln (disused)								http://coflein.gov.uk/en/site/40648/details/craig-y-gwbert-limekiln
1629	-4.6910542	52.1194835						Craig Y Gwbert								http://www.coflein.gov.uk/en/site/403294/details/craig-y-gwbert
1630	-4.6785984	52.1164965						14								
1631	-4.6632472	52.095678	Tegfryn		Gwbert Road	Cardigan / Aberteifi	SA43 1PH									
1632	-4.6629279	52.0953027	Dolgerdd		Gwbert Road	Cardigan / Aberteifi	SA43 1PH									
1633	-4.6623867	52.0948627	Erw Wen		Gwbert Road	Cardigan / Aberteifi	SA43 1PH									
1634	-4.6638831	52.0944231	Y-Dderwen		Gwbert Road	Cardigan / Aberteifi	SA43 1PH									
1635	-4.6645978	52.0944096	Dan-y-deri		Gwbert Road	Cardigan / Aberteifi	SA43 1PH									
1636	-4.6665217	52.095285	Trebarred		Gwbert Road	Cardigan / Aberteifi	SA43 1PH									
1637	-4.7006621	52.0737597						Foxhill								
1638	-4.7035285	52.0682255						Trenewydd Farm								
1639	-4.702905	52.0609139						Trefigin								
1640	-4.7264544	52.0650684						Glandwr Farm								
1641	-4.7513704	52.0605965						Fagwreinon Fach								
1642	-4.65955	52.085232						Pendre								
1643	-4.6576883	52.0914133						Gwbert Road								
1644	-4.664437	52.097597						Gwbert Road								
1645	-4.658118	52.083631						Feidrfair								
1646	-4.655473	52.083182						Pont-y-Cleifion								
1647	-4.7063469	52.1052349	Glan-y-Môr House			Cardigan	SA43 3LP									
1648	-4.706682	52.1055159	Glan-y-Môr Farm			Cardigan	SA43 3LP									
1649	-4.7067384	52.1054607						Glan-y-Môr Farm								
1650	-4.7228436	52.1045234						Pengarn-fawr								
1651	-4.7238256	52.105822						Pengarn-fach								
1652	-4.7348468	52.0912907						Granant-uchaf								
1653	-4.7350971	52.0930958						Granant-isaf								
1654	-4.7337464	52.074462						Penrallt Uchaf								
1655	-4.7357502	52.0736373						Fferm Bryn Teg								
1656	-4.7440272	52.0771114						Morawelon								
1657	-4.7703854	52.0638041						Treriffith								
1658	-4.6626448	52.0884986						Cardigan Integrated Care Centre (construction)								
1659	-4.6698668	52.0808301	Glebelands Market		St. Dogmaels Road	Cardigan	SA43 3BA	Gardd Farchnad Glebelands Market Garden	Gardd Farchnad Glebelands					+44 7511 546701	farm	http://glebelandsmarketgarden.co.uk/
1660	-4.6572266	52.0846097						Napier Street	Heol Napier							
1661	-4.6823278	52.0887387						The Moorings								
1662	-4.6598929	52.0787415						Golwg-y-Castell								
1663	-4.6594929	52.0787949						Golwg-y-Castell								
1664	-4.658096	52.0775468						Golwg-y-Castell								
1665	-4.6584205	52.0777834						Golwg-y-Castell								
1666	-4.6600392	52.0775309						Awel yr Afon								
1667	-4.6602496	52.0728591	Trefelin		Fishguard Road	Cardigan / Aberteifi	SA43 3DR									
1668	-4.7213886	52.0612236				Monington	SA43 3BL	St Nicholas'								https://parish.churchinwales.org.uk/d871/churches-en/st-nicholas-monington_-en/
1669	-4.7367698	52.0680196						Nant Ceibwr								
1670	-4.7263535	52.0619512						Rhyd-y-fantwn Bridge								
1671	-4.7190551	52.0629425	Penrhiw Forge			Moylegrove	SA43 3BL									
1672	-4.7467216	52.0687623						Moylgrove Bridge								
1673	-4.7718263	52.0718079									islet					
1674	-4.7702665	52.0711347						Pwll y Wrach / Witch's Cauldron	Pwll y Wrach			Witches Cauldron;Witch's Pit				
1675	-4.6670688	52.0847458	Dol-werdd			Cardigan	SA43 1PA									
1676	-4.6674065	52.0850915						Dol-werdd Farm								
1677	-4.6749112	52.0930338	Rhos-fâch			Cardigan / Aberteifi	SA43 1PA					Rhosfach				
1678	-4.6743377	52.094133	Brynymor House			Cardigan / Aberteifi	SA43 1PA									
1679	-4.6668333	52.0959199						Trebarred Farm								
1680	-4.6587107	52.0818379	Scout Hall		Strand	Cardigan / Aberteifi	SA43 1EX	3rd Cardigan Sea Scouts								
1681	-4.6966735	52.0653534	Penwaun Villa				SA43 3NR									
1682	-4.6579741	52.0754842		18	The Ridgeway	Cardigan / Aberteifi	SA43 3AW									
1683	-4.6579534	52.0755469		17	The Ridgeway	Cardigan / Aberteifi	SA43 3AW									
1684	-4.6579303	52.0756256		16	The Ridgeway	Cardigan / Aberteifi	SA43 3AW									
1685	-4.6579075	52.0756906		15	The Ridgeway	Cardigan / Aberteifi	SA43 3AW									
1686	-4.657885	52.0757675		14	The Ridgeway	Cardigan / Aberteifi	SA43 3AW									
1687	-4.6578688	52.0758295		13	Fishguard Road	Cardigan / Aberteifi	SA43 3AW									
1688	-4.6578386	52.0759054		12	The Ridgeway	Cardigan / Aberteifi	SA43 3AW									
1689	-4.6578172	52.0759603		11	The Ridgeway	Cardigan / Aberteifi	SA43 3AW									
1690	-4.6575035	52.0763419		7	The Ridgeway	Cardigan / Aberteifi	SA43 3AW									
1691	-4.6575083	52.0762952		8	The Ridgeway	Cardigan / Aberteifi	SA43 3AW									
1692	-4.6575179	52.0762509		9	The Ridgeway	Cardigan / Aberteifi	SA43 3AW									
1693	-4.6575243	52.0762094		10	The Ridgeway	Cardigan / Aberteifi	SA43 3AW									
1694	-4.6574806	52.0764952		41	The Ridgeway	Cardigan / Aberteifi	SA43 3AW									
1695	-4.6578393	52.0765495		19	The Ridgeway	Cardigan / Aberteifi	SA43 3AW									
1696	-4.6579524	52.0765553		20	The Ridgeway	Cardigan / Aberteifi	SA43 3AW									
1697	-4.65794	52.0763755		21	The Ridgeway	Cardigan / Aberteifi	SA43 3AW									
1698	-4.6579382	52.0762285		23	The Ridgeway	Cardigan / Aberteifi	SA43 3AW									
1699	-4.6579514	52.0763043		22	The Ridgeway	Cardigan / Aberteifi	SA43 3AW									
1700	-4.6583484	52.0762795		24	The Ridgeway	Cardigan / Aberteifi	SA43 3AW									
1701	-4.6583481	52.0763442		25	The Ridgeway	Cardigan / Aberteifi	SA43 3AW									
1702	-4.65838	52.0764529		26	The Ridgeway	Cardigan / Aberteifi	SA43 3AW									
1703	-4.6584544	52.0765131		27	The Ridgeway	Cardigan / Aberteifi	SA43 3AW									
1704	-4.6585268	52.0765733		28	The Ridgeway	Cardigan / Aberteifi	SA43 3AW									
1705	-4.6586792	52.0766266		29	The Ridgeway	Cardigan / Aberteifi	SA43 3AW									
1706	-4.6588133	52.0766505		30	The Ridgeway	Cardigan / Aberteifi	SA43 3AW									
1707	-4.6589332	52.0766726		30	The Ridgeway	Cardigan / Aberteifi	SA43 3AW									
1708	-4.6590444	52.0766934		32	The Ridgeway	Cardigan / Aberteifi	SA43 3AW									
1709	-4.6590149	52.0770115		33	The Ridgeway	Cardigan / Aberteifi	SA43 3AW									
1710	-4.6589103	52.0769957		34	The Ridgeway	Cardigan / Aberteifi	SA43 3AW									
1711	-4.6588009	52.0769836		35	The Ridgeway	Cardigan / Aberteifi	SA43 3AW									
1712	-4.6586455	52.0769516		36	The Ridgeway	Cardigan / Aberteifi	SA43 3AW									
1713	-4.6585555	52.0769273		37	The Ridgeway	Cardigan / Aberteifi	SA43 3AW									
1714	-4.6584002	52.0769374		38	The Ridgeway	Cardigan / Aberteifi	SA43 3AW									
1715	-4.6582939	52.0769001		39	The Ridgeway	Cardigan / Aberteifi	SA43 3AW									
1716	-4.658175	52.0768531		40	The Ridgeway	Cardigan / Aberteifi	SA43 3AW									
1717	-4.657832	52.0770793		1	The Ridgeway	Cardigan / Aberteifi	SA43 3AW									
1718	-4.6578174	52.077025		2	The Ridgeway	Cardigan / Aberteifi	SA43 3AW									
1719	-4.6578208	52.0769579		3	The Ridgeway	Cardigan / Aberteifi	SA43 3AW									
1720	-4.6578428	52.0769012		4	The Ridgeway	Cardigan / Aberteifi	SA43 3AW									
1721	-4.6578248	52.0768296		5	The Ridgeway	Cardigan / Aberteifi	SA43 3AW									
1722	-4.6578252	52.0767752		6	The Ridgeway	Cardigan / Aberteifi	SA43 3AW									
1723	-4.6589249	52.0763813						Ridgeway Playground								
1724	-4.6543528	52.0946757						Tregibby Farm								
1725	-4.6595959	52.0788801		11	Golwg-y-Castell	Cardigan / Aberteifi	SA43 3AN									
1726	-4.659695	52.0788819		12	Golwg-y-Castell	Cardigan / Aberteifi	SA43 3AN									
1727	-4.6597864	52.0788827		13	Golwg-y-Castell	Cardigan / Aberteifi	SA43 3AN									
1728	-4.6588919	52.0784763		1	Golwg-y-Castell	Cardigan / Aberteifi	SA43 3AN									
1729	-4.6589896	52.0784808		2	Golwg-y-Castell	Cardigan / Aberteifi	SA43 3AN									
1730	-4.6590792	52.078491		3	Golwg-y-Castell	Cardigan / Aberteifi	SA43 3AN									
1731	-4.6591709	52.0785286		4	Golwg-y-Castell	Cardigan / Aberteifi	SA43 3AN									
1732	-4.6592579	52.0785381		5	Golwg-y-Castell	Cardigan / Aberteifi	SA43 3AN									
1733	-4.6593575	52.078585		6	Golwg-y-Castell	Cardigan / Aberteifi	SA43 3AN									
1734	-4.6594413	52.0785934		7	Golwg-y-Castell	Cardigan / Aberteifi	SA43 3AN									
1735	-4.6596022	52.0785858		8	Golwg-y-Castell	Cardigan / Aberteifi	SA43 3AN									
1736	-4.6596962	52.078595		9	Golwg-y-Castell	Cardigan / Aberteifi	SA43 3AN									
1737	-4.6597887	52.078596		10	Golwg-y-Castell	Cardigan / Aberteifi	SA43 3AN									
1738	-4.660542	52.0780536		4	Awel yr Afon	Cardigan / Aberteifi	SA43 3AQ									
1739	-4.6605531	52.0779993		5	Awel yr Afon	Cardigan / Aberteifi	SA43 3AQ									
1740	-4.6606324	52.0782211		1-3	Awel yr Afon	Cardigan / Aberteifi	SA43 3AQ									
1741	-4.6605779	52.0779318		6	Awel yr Afon	Cardigan / Aberteifi	SA43 3AQ									
1742	-4.6605913	52.0778789		7	Awel yr Afon	Cardigan / Aberteifi	SA43 3AQ									
1743	-4.6600875	52.0780689		37	Awel yr Afon	Cardigan / Aberteifi	SA43 3AQ									
1744	-4.6600999	52.0780128		36	Awel yr Afon	Cardigan / Aberteifi	SA43 3AQ									
1745	-4.6601113	52.0779622		35	Awel yr Afon	Cardigan / Aberteifi	SA43 3AQ									
1746	-4.660145	52.0778775		34	Awel yr Afon	Cardigan / Aberteifi	SA43 3AQ									
1747	-4.6601696	52.0778259		33	Awel yr Afon	Cardigan / Aberteifi	SA43 3AQ									
1748	-4.6601782	52.077695		32	Awel yr Afon	Cardigan / Aberteifi	SA43 3AQ									
1749	-4.6608029	52.077499		15	Awel yr Afon	Cardigan / Aberteifi	SA43 3AQ									
1750	-4.6608278	52.0774477		16	Awel yr Afon	Cardigan / Aberteifi	SA43 3AQ									
1751	-4.660772	52.0775595		14	Awel yr Afon	Cardigan / Aberteifi	SA43 3AQ									
1752	-4.6607447	52.077618		12	Awel yr Afon	Cardigan / Aberteifi	SA43 3AQ									
1753	-4.6606634	52.0777958		9	Awel yr Afon	Cardigan / Aberteifi	SA43 3AQ									
1754	-4.6606952	52.0777619		8	Awel yr Afon	Cardigan / Aberteifi	SA43 3AQ									
1755	-4.6606853	52.0777267		11	Awel yr Afon	Cardigan / Aberteifi	SA43 3AQ									
1756	-4.6607234	52.0776901		10	Awel yr Afon	Cardigan / Aberteifi	SA43 3AQ									
1757	-4.6603806	52.0774518		17	Awel yr Afon	Cardigan / Aberteifi	SA43 3AQ									
1758	-4.6602768	52.0774363		18	Awel yr Afon	Cardigan / Aberteifi	SA43 3AQ									
1759	-4.6601231	52.0785952		20	Golwg-y-Castell	Cardigan / Aberteifi	SA43 3AN									
1760	-4.6604209	52.078581		21	Golwg-y-Castell	Cardigan / Aberteifi	SA43 3AN									
1761	-4.6604001	52.0787783		18	Golwg-y-Castell	Cardigan / Aberteifi	SA43 3AN									
1762	-4.6604034	52.0787216		19	Golwg-y-Castell	Cardigan / Aberteifi	SA43 3AN									
1763	-4.6596707	52.0777908										Pentop Playground				
1764	-4.6629649	52.0784987	Parc Y Pys			Cardigan / Aberteifi	SA43 3DP									
1765	-4.6669476	52.0766715	Parc-Yr-Eithin			Cardigan / Aberteifi	SA43 3DP									
1766	-4.6662723	52.0765887						Parc-Yr-Eithin Farm								
1767	-4.6519828	52.0855765		16-40	Bro Teifi	Cardigan / Aberteifi	SA43 1DS									
1768	-4.6585384	52.0782286		43	Golwg-y-Castell	Cardigan / Aberteifi	SA43 3AP									
1769	-4.6586191	52.0782006		42	Golwg-y-Castell	Cardigan / Aberteifi	SA43 3AP									
1770	-4.6588206	52.0781525		41	Golwg-y-Castell	Cardigan / Aberteifi	SA43 3AP									
1771	-4.658918	52.0781617		40	Golwg-y-Castell	Cardigan / Aberteifi	SA43 3AP									
1772	-4.659032	52.0781754		39	Golwg-y-Castell	Cardigan / Aberteifi	SA43 3AP									
1773	-4.6591304	52.078177		38	Golwg-y-Castell	Cardigan / Aberteifi	SA43 3AP									
1774	-4.6592146	52.0781869		37	Golwg-y-Castell	Cardigan / Aberteifi	SA43 3AP									
1775	-4.6590625	52.0779665		36	Golwg-y-Castell	Cardigan / Aberteifi	SA43 3AP									
1776	-4.6590758	52.077913		35	Golwg-y-Castell	Cardigan / Aberteifi	SA43 3AP									
1777	-4.658835	52.0778322						Ardal Chwarae Golwg-y-Castell Play Area	Ardal Chwarae Golwg-y-Castell							
1778	-4.6587473	52.0777438		46	Golwg-y-Castell	Cardigan / Aberteifi	SA43 3AP									
1779	-4.658699	52.0776971		48	Golwg-y-Castell	Cardigan / Aberteifi	SA43 3AP									
1780	-4.6586329	52.0776463		50	Golwg-y-Castell	Cardigan / Aberteifi	SA43 3AP									
1781	-4.6586018	52.0775982		52	Golwg-y-Castell	Cardigan / Aberteifi	SA43 3AP									
1782	-4.6585559	52.0775518		53	Golwg-y-Castell	Cardigan / Aberteifi	SA43 3AP									
1783	-4.6585804	52.0779156		64	Golwg-y-Castell	Cardigan / Aberteifi	SA43 3AP									
1784	-4.6586567	52.0778853		65	Golwg-y-Castell	Cardigan / Aberteifi	SA43 3AP									
1785	-4.6583561	52.0779444		62	Golwg-y-Castell	Cardigan / Aberteifi	SA43 3AP									
1786	-4.6584478	52.0779296		63	Golwg-y-Castell	Cardigan / Aberteifi	SA43 3AP									
1787	-4.6581876	52.0777414		61	Golwg-y-Castell	Cardigan / Aberteifi	SA43 3AP									
1788	-4.658168	52.0776925		60	Golwg-y-Castell	Cardigan / Aberteifi	SA43 3AP									
1789	-4.6581483	52.0776398		59	Golwg-y-Castell	Cardigan / Aberteifi	SA43 3AP									
1790	-4.6579226	52.0774251		"1, Pentop"	Golwg-y-Castell	Cardigan / Aberteifi	SA43 3AP									
1791	-4.6579704	52.0774127		"2, Pentop"	Golwg-y-Castell	Cardigan / Aberteifi	SA43 3AP									
1792	-4.6580201	52.0774013		"3, Pentop"	Golwg-y-Castell	Cardigan / Aberteifi	SA43 3AP									
1793	-4.6580694	52.0773887		"4, Pentop"	Golwg-y-Castell	Cardigan / Aberteifi	SA43 3AP									
1794	-4.6581245	52.0773752		"5, Pentop"	Golwg-y-Castell	Cardigan / Aberteifi	SA43 3AP									
1795	-4.6581809	52.0773615		"6, Pentop"	Golwg-y-Castell	Cardigan / Aberteifi	SA43 3AP									
1796	-4.6582991	52.0773694		58	Golwg-y-Castell	Cardigan / Aberteifi	SA43 3AP									
1797	-4.6583842	52.0773605		57	Golwg-y-Castell	Cardigan / Aberteifi	SA43 3AP									
1798	-4.6584598	52.0773424		56	Golwg-y-Castell	Cardigan / Aberteifi	SA43 3AP									
1799	-4.6589722	52.0774629		47	Golwg-y-Castell	Cardigan / Aberteifi	SA43 3AP									
1800	-4.6589434	52.0774087		49	Golwg-y-Castell	Cardigan / Aberteifi	SA43 3AP									
1801	-4.6589005	52.0773622		51	Golwg-y-Castell	Cardigan / Aberteifi	SA43 3AP									
1802	-4.6590297	52.0775552		"54, 55"	Golwg-y-Castell	Cardigan / Aberteifi	SA43 3AP									
1803	-4.6595422	52.0778911		33	Golwg-y-Castell	Cardigan / Aberteifi	SA43 3AP									
1804	-4.6594844	52.0778273		34	Golwg-y-Castell	Cardigan / Aberteifi	SA43 3AP									
1805	-4.6596199	52.0780746		31	Golwg-y-Castell	Cardigan / Aberteifi	SA43 3AP									
1806	-4.6596362	52.0780216		32	Golwg-y-Castell	Cardigan / Aberteifi	SA43 3AP									
1807	-4.6596377	52.0781746		30	Golwg-y-Castell	Cardigan / Aberteifi	SA43 3AP									
1808	-4.6596263	52.0782258		29	Golwg-y-Castell	Cardigan / Aberteifi	SA43 3AP									
1809	-4.6596241	52.0782763		28	Golwg-y-Castell	Cardigan / Aberteifi	SA43 3AP									
1810	-4.572888	52.4700574						Cardigan Bay	Bae Ceredigion							
1811	-4.6602223	52.0783135		22	Golwg-y-Castell	Cardigan / Aberteifi	SA43 3AP									
1812	-4.6601325	52.0783038		23	Golwg-y-Castell	Cardigan / Aberteifi	SA43 3AP									
1813	-4.6598789	52.0782672		27	Golwg-y-Castell	Cardigan / Aberteifi	SA43 3AP									
1814	-4.6599346	52.0782717		26	Golwg-y-Castell	Cardigan / Aberteifi	SA43 3AP									
1815	-4.6599896	52.0782768		24	Golwg-y-Castell	Cardigan / Aberteifi	SA43 3AP									
1816	-4.6600435	52.0782816		25	Golwg-y-Castell	Cardigan / Aberteifi	SA43 3AP									
1817	-4.6600511	52.0788755		14A/B	Golwg-y-Castell	Cardigan / Aberteifi	SA43 3AN									
1818	-4.6601782	52.0788627		15A/B	Golwg-y-Castell	Cardigan / Aberteifi	SA43 3AN									
1819	-4.6602915	52.0788648		16A/B	Golwg-y-Castell	Cardigan / Aberteifi	SA43 3AN									
1820	-4.6567541	52.077115	The Bungalow		Tenby Road	Cardigan / Aberteifi	SA43 3AH									
1821	-4.6568708	52.0772417	Brynhardd		Tenby Road	Cardigan / Aberteifi	SA43 3AH									
1822	-4.6570648	52.0773827	Brynderwen		Tenby Road	Cardigan / Aberteifi	SA43 3AH									
1823	-4.6557746	52.0771688	Llys-Yr-Awel		Tenby Road	Cardigan / Aberteifi	SA43 3AH									
1824	-4.6560134	52.0771796	The Old Rope House		Tenby Road	Cardigan / Aberteifi	SA43 3AH									
1825	-4.6560423	52.0772917	Gelli		Tenby Road	Cardigan / Aberteifi	SA43 3AH									
1826	-4.6561484	52.0773006	Cartref		Tenby Road	Cardigan / Aberteifi	SA43 3AH									
1827	-4.6562492	52.0774479	Hilston		Tenby Road	Cardigan / Aberteifi	SA43 3AH									
1828	-4.6563843	52.0775113	Ceibwr		Tenby Road	Cardigan / Aberteifi	SA43 3AH									
1829	-4.6564628	52.0775601	Goginan		Tenby Road	Cardigan / Aberteifi	SA43 3AH									
1830	-4.6566424	52.0776738	Awel Y Teifi		Tenby Road	Cardigan / Aberteifi	SA43 3AH									
1831	-4.6568334	52.0777325	Haulfryn		Tenby Road	Cardigan / Aberteifi	SA43 3AH									
1832	-4.6569828	52.0778451	Kenwyn		Tenby Road	Cardigan / Aberteifi	SA43 3AH									
1833	-4.6571249	52.0779034	Llys-Y-Coed		Tenby Road	Cardigan / Aberteifi	SA43 3AH									
1834	-4.6572053	52.0779598	Greenfield		Tenby Road	Cardigan / Aberteifi	SA43 3AH									
1835	-4.658934	52.0791903	Pen Y Bont		Tenby Road	Cardigan / Aberteifi	SA43 3AH									
1836	-4.6598519	52.0795863						Castle Street	Heol y Castell							
1837	-4.6586369	52.0786146						Tenby Road								
1838	-4.65863	52.0788783	Hatfield		Tenby Road	Cardigan / Aberteifi	SA43 3AH									
1839	-4.658491	52.0787732	Brynglas		Tenby Road	Cardigan / Aberteifi	SA43 3AH									
1840	-4.6583893	52.0786964	Wilmar		Tenby Road	Cardigan / Aberteifi	SA43 3AH									
1841	-4.6582782	52.0786162	Rhydygroes		Tenby Road	Cardigan / Aberteifi	SA43 3AH									
1842	-4.6581557	52.0785308	Clydfan		Tenby Road	Cardigan / Aberteifi	SA43 3AH									
1843	-4.6580232	52.0784635	Trenewydd		Tenby Road	Cardigan / Aberteifi	SA43 3AH									
1844	-4.6579342	52.0784187	Bryntirion		Tenby Road	Cardigan / Aberteifi	SA43 3AH									
1845	-4.6566162	52.0774181						Tenby Road								
1846	-4.6580604	52.0782648						Tenby Road								
1847	-4.6573368	52.0780217	Far End		Tenby Road	Cardigan / Aberteifi	SA43 3AH									
1848	-4.6573752	52.0780919	Y Bryn		Tenby Road	Cardigan / Aberteifi	SA43 3AH									
1849	-4.6575324	52.0781366	Hillcroft		Tenby Road	Cardigan / Aberteifi	SA43 3AH									
1850	-4.6576359	52.0782092	Arundel		Tenby Road	Cardigan / Aberteifi	SA43 3AH									
1851	-4.6577186	52.0783185	Coed Y Bryn		Tenby Road	Cardigan / Aberteifi	SA43 3AH	Coed Y Bryn B&B						+44 1239 612515		
1852	-4.6736492	52.0790008	Oakleaves		Mwtshwr	St Dogmaels	SA43 3HZ									
1853	-4.67433	52.0795348						Mwtshwr								
1854	-4.6742705	52.07939	Mwtshwr		Mwtshwr	St Dogmaels	SA43 3HZ									
1855	-4.6893575	52.077467	Bryncws Fach			St Dogmaels	SA43 3BQ									
1856	-4.6892521	52.0773776						Bryncws Fach Farm								
1857	-4.6917714	52.0770251	Ysgubor Hen			St Dogmaels	SA43 3BQ									
1858	-4.6915793	52.0771026						Ysgubor Hen Holiday Cottage								https://www.facebook.com/ysguborhen/
1859	-4.6897031	52.075783	Pencnwc			St Dogmaels	SA43 3BQ									
1860	-4.6898977	52.0759742						Pencnwc Farm								
1861	-4.6678978	52.0805806	Dolwen		St. Dogmaels Road	Cardigan / Aberteifi	SA43 3BA									
1862	-4.6685923	52.0813578	Chalon		St. Dogmaels Road	Cardigan / Aberteifi	SA43 3BA	Dragon F1 Powerboats Ltd						+44 1239 613117		
1863	-4.668293	52.0812847	Dyfed		St. Dogmaels Road	Cardigan / Aberteifi	SA43 3BA									
1864	-4.6678514	52.0812256	3		Bryn Onnen	Cardigan / Aberteifi	SA43 3AY									
1865	-4.6677076	52.0811921	El Cielo	2	Bryn Onnen	Cardigan / Aberteifi	SA43 3AY									
1866	-4.6675035	52.0811472		1	Bryn Onnen	Cardigan / Aberteifi	SA43 3AY									
1867	-4.6678612	52.0814833	Castan	4	Bryn Onnen	Cardigan / Aberteifi	SA43 3AY									
1868	-4.6675255	52.0813172						Bryn Onnen				Brynonnen				
1869	-4.6675929	52.0814685	Afallon	5	Bryn Onnen	Cardigan / Aberteifi	SA43 3AY									
1870	-4.6673282	52.0814051	Trewen	6	Bryn Onnen	Cardigan / Aberteifi	SA43 3AY									
1871	-4.6671147	52.081313	Heddwch	7	Bryn Onnen	Cardigan / Aberteifi	SA43 3AY									
1872	-4.6668814	52.0812191						Bryn Onnen				Brynonnen				
1873	-4.6660677	52.0809053	"Plas Teifi, Spring Gardens"		St. Dogmaels Road	Cardigan / Aberteifi	SA43 3AX									
1874	-4.6658713	52.080872	"Llys Rhosyn, Spring Gardens"		St. Dogmaels Road	Cardigan / Aberteifi	SA43 3AX									
1875	-4.6657773	52.0808573	"Chez Luca, Spring Gardens"		St. Dogmaels Road	Cardigan / Aberteifi	SA43 3AX									
1876	-4.6655953	52.0808121	"Min-y-Môr, Spring Gardens"	5	St. Dogmaels Road	Cardigan / Aberteifi	SA43 3AX									
1877	-4.6653741	52.0807985	"Efo'r Teifi, Spring Gardens"		St. Dogmaels Road	Cardigan / Aberteifi	SA43 3AX									
1878	-4.6651496	52.0807688	"Chanters, Spring Gardens"		St. Dogmaels Road	Cardigan / Aberteifi	SA43 3AX									
1879	-4.6649234	52.0807448	"Riverside House, Spring Gardens"		St. Dogmaels Road	Cardigan / Aberteifi	SA43 3AX									
1880	-4.6645718	52.0807548	"Min-Yr-Afon, Spring Gardens"		St. Dogmaels Road	Cardigan / Aberteifi	SA43 3AX									
1881	-4.6642613	52.0806853	"Tivy-Glen, Spring Gardens"		St. Dogmaels Road	Cardigan / Aberteifi	SA43 3AU									
1882	-4.6640457	52.0806339	"Caer-Neos, Spring Gardens"		St. Dogmaels Road	Cardigan / Aberteifi	SA43 3AX									
1883	-4.6637881	52.0806104	"Carlton Villa, Spring Gardens"		St. Dogmaels Road	Cardigan / Aberteifi	SA43 3AU									
1884	-4.6636035	52.0805935	"Ramleh, Spring Gardens"		St. Dogmaels Road	Cardigan / Aberteifi	SA43 3AU									
1885	-4.6631545	52.0805311	"Bryncoed, Spring Gardens"		St. Dogmaels Road	Cardigan / Aberteifi	SA43 3AX									
1886	-4.6628484	52.0804525	Pen-Y-Marian Villas	"1, Spring Gardens"	St. Dogmaels Road	Cardigan / Aberteifi	SA43 3AX									
1887	-4.6629429	52.080481	Pen-Y-Marian Villas	"1, Spring Gardens"	St. Dogmaels Road	Cardigan / Aberteifi	SA43 3AX									
1888	-4.6624168	52.0802784	"Market Gardens, Brecon Terrace"		St. Dogmaels Road	Cardigan / Aberteifi	SA43 3AT									
1889	-4.6619351	52.0801007	Brecon Terrace		St. Dogmaels Road	Cardigan / Aberteifi	SA43 3AT	Trem's Nurseries						+44 1239 612534		
1890	-4.6617942	52.0798138		"8, Teifi Terrace"	St. Dogmaels Road	Cardigan / Aberteifi	SA43 3AS									
1891	-4.6617395	52.0797972		"7, Teifi Terrace"	St. Dogmaels Road	Cardigan / Aberteifi	SA43 3AS									
1892	-4.6616809	52.0797805		"6, Teifi Terrace"	St. Dogmaels Road	Cardigan / Aberteifi	SA43 3AS									
1893	-4.66162	52.0797637		"5, Teifi Terrace"	St. Dogmaels Road	Cardigan / Aberteifi	SA43 3AS									
1894	-4.6615578	52.0797455		"4, Teifi Terrace"	St. Dogmaels Road	Cardigan / Aberteifi	SA43 3AS									
1895	-4.6614973	52.0797284		"3, Teifi Terrace"	St. Dogmaels Road	Cardigan / Aberteifi	SA43 3AS									
1896	-4.6614397	52.0797123		"2, Teifi Terrace"	St. Dogmaels Road	Cardigan / Aberteifi	SA43 3AS									
1897	-4.6613727	52.0796911		"1, Teifi Terrace"	St. Dogmaels Road	Cardigan / Aberteifi	SA43 3AS									
1898	-4.661898	52.0797905	"Neian, Brecon Terrace"		St. Dogmaels Road	Cardigan / Aberteifi	SA43 3AT									
1899	-4.662356	52.0799069	Rosemead	"2, Brecon Terrace"	St. Dogmaels Road	Cardigan / Aberteifi	SA43 3AT									
1900	-4.6622754	52.0798697		"1, Brecon Terrace"	St. Dogmaels Road	Cardigan / Aberteifi	SA43 3AT									
1901	-4.6619622	52.0909721						Maessydderwen								
1902	-4.6616128	52.0907371						Maesydderwen								
1903	-4.6602937	52.0839763	Ty Twt		Williams Row	Cardigan / Aberteifi	SA43 1BY									
1904	-4.6761893	52.0801595	Alexia	11	Maesmynach	St Dogmaels	SA43 3HX									
1905	-4.6766068	52.0802421	Hazel Wood	12	Maesmynach	St Dogmaels	SA43 3HX									
1906	-4.6605228	52.0840013	Pendre House	56	Pendre	Cardigan / Aberteifi	SA43 1JR	Pantri Aberteifi				Cardigan Bay Brownies		+44 7403 624801	pastry	
1907	-4.6605508	52.0839557	Pendre House		Pendre	Cardigan / Aberteifi	SA43 1JR								vacant	
1908	-4.6624163	52.0799266	Ardeifi	"3, Brecon Terrace"	St. Dogmaels Road	Cardigan / Aberteifi	SA43 3AT									
1909	-4.6624786	52.0799526		"4, Brecon Terrace"	St. Dogmaels Road	Cardigan / Aberteifi	SA43 3AT									
1910	-4.6625364	52.0799724	Fenwern	"5, Brecon Terrace"	St. Dogmaels Road	Cardigan / Aberteifi	SA43 3AT									
1911	-4.6625902	52.0799958		"6, Brecon Terrace"	St. Dogmaels Road	Cardigan / Aberteifi	SA43 3AT									
1912	-4.6626253	52.0800317		"7, Brecon Terrace"	St. Dogmaels Road	Cardigan / Aberteifi	SA43 3AT									
1913	-4.654765	52.1143496				Y Ferwig	SA43 1PX	Hen Ysgol Y Ferwig	Hen Ysgol Y Ferwig							https://en-gb.facebook.com/henysgolyferwig/
1914	-4.6570675	52.1159892	Garnwen			Y Ferwig	SA43 1PX									
1915	-4.6585315	52.1174848	Parc Llwyd			Y Ferwig	SA43 1PU									
1916	-4.659104	52.1180114	Fronhaul			Y Ferwig	SA43 1PU									
1917	-4.6594845	52.1186153	Bolafron			Y Ferwig	SA43 1PU									
1918	-4.661783	52.1205989	Penfeidr			Y Ferwig	SA43 1PU									
1919	-4.6615913	52.1208986						Penfeidr Farm								
1920	-4.6588328	52.1211318	Hafod			Y Ferwig	SA43 1PU									
1921	-4.659301	52.1245589	Tyr Iet			Y Ferwig	SA43 1PU					Ty'r Yet				
1922	-4.6623419	52.1282						Crug Bychan Round Barrow								
1923	-4.6621851	52.128529	Crug Bychan			Y Ferwig	SA43 1PU									
1924	-4.6617962	52.1285885	Crug Farm			Y Ferwig	SA43 1PU									
1925	-4.6617004	52.1286379						Crug Farm								
1926	-4.6621565	52.0844045		12	Greenfield Square	Cardigan / Aberteifi	SA43 1LH									
1927	-4.6621491	52.0843466		11	Greenfield Square	Cardigan / Aberteifi	SA43 1LH									
1928	-4.6621297	52.0843102		10	Greenfield Square	Cardigan / Aberteifi	SA43 1LH									
1929	-4.6620781	52.0842742		9	Greenfield Square	Cardigan / Aberteifi	SA43 1LH									
1930	-4.6620315	52.0842399		8	Greenfield Square	Cardigan / Aberteifi	SA43 1LH									
1931	-4.6620053	52.0842041		7	Greenfield Square	Cardigan / Aberteifi	SA43 1LH									
1932	-4.6619806	52.0841529		6	Greenfield Square	Cardigan / Aberteifi	SA43 1LH									
1933	-4.6620401	52.0841218		5	Greenfield Square	Cardigan / Aberteifi	SA43 1LH									
1934	-4.6674266	52.0836164	Ael yr Aber			Cardigan / Aberteifi	SA43 1PA									
1935	-4.6673772	52.0832423						Netpool Road								
1936	-4.7289662	52.0825757						Pembrokeshire	Sir Benfro							
1937	-4.6392218	52.0988769						Ceredigion	Sir Ceredigion							
1938	-4.765587	52.076302						Pembrokeshire Coast Path								http://nt.pcnpa.org.uk/
1939	-4.6781439	52.0814412						National Cycle Network National Route 82								
1940	-4.7347196	52.0847803						Pembrokeshire Coast National Park	Parc Cenedlaethol Arfordir Penfro							
1941	-4.6392218	52.0988769						VC46 Cardiganshire								
1942	-4.7289662	52.0825757						VC45 Pembrokeshire								
1943	-4.6611238	52.0811269						Ceredigion Coast Path								http://www.ceredigioncoastpath.org.uk/
1944	-4.6820984	52.0847516						Wales Coast Path link (St Dogmaels-Cardigan)								
1945	-4.655473	52.083182						Richards Bros 407								
1946	-4.6567059	52.0872385			Park Place	Cardigan / Aberteifi	SA43 1AB	Coleg Ceredigion College	Coleg Ceredigion							
1947	-4.6414397	52.0811005						Aberteifi/Cardigan - Caerfyrddin/Carmarthen drwy/via Castellnewydd Emlyn/Newcastle Emlyn								
1948	-4.6556941	52.1146708						Richards Bros 552								
1949	-4.7167734	52.099676						Great Britain	Prydain Fawr		island					
1950	-4.6542678	52.0869623		111	North Road	Cardigan / Aberteifi	SA43 1LT									
1951	-4.6605376	52.0842362						Cardigan Town Service	Gwasanaeth Tref Aberteifi							
1952	-4.7289662	52.0825757						VC45 Pembrokeshire								
1953	-4.6866078	52.088449			Glanteifion	St Dogmaels	SA43 3LH	Albro Castle Holiday Cottages								
1954	-4.6573654	52.0830279						Bus 408 Cardigan Town Service & St Dogmaels	Bws 408 Gwasanaeth Tref Aberteifi a Llandudoch							http://u.osmfr.org/m/243103/
1955	-4.6477121	52.1156547						Cardigan–Ferwig–Aberporth–Beulah								
1956	-4.6587863	52.0847838						Beulah–Aberporth–Cardigan								
1957	-4.6979623	52.1039389						Finch's Square to Poppit Sands								
1958	-4.6573654	52.0830279						Poppit Sands to Finch's Square								
1959	-4.6519115	52.0880132						Bus 408 Cardigan Primary School → North Park Estate								
1960	-4.6984358	52.1039016						Bus 408 Cardigan Town Service & St Dogmaels + Poppit Sands	Bws 408 Gwasanaeth Tref Aberteifi a Llandudoch							http://u.osmfr.org/m/243103/
